{
"type": "FeatureCollection",
"name": "blocks",
"crs": { "type": "name", "properties": { "name": "urn:ogc:def:crs:OGC:1.3:CRS84" } },
"features": [
{ "type": "Feature", "properties": { "Block": "Tarapur", "District": "Anand", "lon": 72.5057, "lat": 22.5111 }, "geometry": { "type": "Polygon", "coordinates": [ [ [ 72.506008933232621, 22.613664071733126 ], [ 72.503852219270954, 22.605817219028268 ], [ 72.487926758353325, 22.598514736759405 ], [ 72.465690474461226, 22.577389466741288 ], [ 72.447664892546499, 22.570960038261273 ], [ 72.441029336681723, 22.565359848973785 ], [ 72.430642398224123, 22.573895480733398 ], [ 72.423372665904708, 22.568198260045378 ], [ 72.423849897696016, 22.559707298325822 ], [ 72.438016483338515, 22.542362124456606 ], [ 72.440192914422354, 22.52283210962489 ], [ 72.438809729870357, 22.509080621302374 ], [ 72.421368605354218, 22.485984090718006 ], [ 72.452705097060601, 22.481948155781335 ], [ 72.462519216692414, 22.448079651428934 ], [ 72.485442276992231, 22.442783987975996 ], [ 72.488012386664522, 22.427731551834533 ], [ 72.499771129816068, 22.413416015223483 ], [ 72.508577076492742, 22.419204028711974 ], [ 72.524866705443401, 22.416469189374322 ], [ 72.556947224987212, 22.419640545272927 ], [ 72.563506438425904, 22.413274407024641 ], [ 72.60088300088006, 22.424048814044834 ], [ 72.622705414751081, 22.422076321339805 ], [ 72.624355140227621, 22.418492154309696 ], [ 72.628857137105513, 22.422007270915682 ], [ 72.629156342570482, 22.419071756181157 ], [ 72.640009767171946, 22.412445992971847 ], [ 72.656961151754771, 22.421252949698889 ], [ 72.663752806968162, 22.414718819824465 ], [ 72.670940944411996, 22.418266011590113 ], [ 72.677776169713326, 22.415987901399376 ], [ 72.675282226397371, 22.410589444445527 ], [ 72.678632009955848, 22.407335954094766 ], [ 72.695378094461958, 22.418021908047397 ], [ 72.688700667223443, 22.422946132192084 ], [ 72.688510705880219, 22.434243866897837 ], [ 72.674661283025216, 22.45286031142756 ], [ 72.660000639247826, 22.448914363584482 ], [ 72.658211812344462, 22.451630204014631 ], [ 72.658471980620405, 22.45857092069302 ], [ 72.681926217442665, 22.466957131279649 ], [ 72.680569753278846, 22.487390059696935 ], [ 72.673118388795473, 22.494137636862231 ], [ 72.673277361854701, 22.504848721445569 ], [ 72.65227087967142, 22.500903947642268 ], [ 72.650269618271366, 22.510140554034312 ], [ 72.638020773165422, 22.507608694891537 ], [ 72.640420776058832, 22.505007962889142 ], [ 72.635794815265015, 22.503740678786404 ], [ 72.6174593226621, 22.513136782542396 ], [ 72.604787035985694, 22.509466954253718 ], [ 72.60444182689676, 22.504868069872931 ], [ 72.599461093549451, 22.500655828322561 ], [ 72.577034825856259, 22.503587178885677 ], [ 72.571874486944296, 22.512056262312253 ], [ 72.57436562033007, 22.515465813443825 ], [ 72.57311477109414, 22.521763645080277 ], [ 72.567007140748785, 22.52045672010242 ], [ 72.56738389058566, 22.543421717237827 ], [ 72.557007649266467, 22.542508913148815 ], [ 72.557495173056012, 22.552630692269776 ], [ 72.552518924996903, 22.555879309185435 ], [ 72.551463403639758, 22.560856124143331 ], [ 72.553796117328531, 22.568272433692073 ], [ 72.532375596240925, 22.569954665886659 ], [ 72.532996993262287, 22.587886955468836 ], [ 72.525236300199069, 22.587996158444227 ], [ 72.525491459468995, 22.597741148504799 ], [ 72.52051628669328, 22.599871597088907 ], [ 72.515709638763212, 22.611820847254616 ], [ 72.506008933232621, 22.613664071733126 ] ] ] } },
{ "type": "Feature", "properties": { "Block": "Sojitra", "District": "Anand", "lon": 72.7314, "lat": 22.5673 }, "geometry": { "type": "Polygon", "coordinates": [ [ [ 72.740580721280892, 22.645627529924329 ], [ 72.733490940377493, 22.639984147582449 ], [ 72.728813449524026, 22.630070385314301 ], [ 72.718943161830722, 22.630758270109865 ], [ 72.717331246444488, 22.624665228389947 ], [ 72.714295049480313, 22.624528549586348 ], [ 72.714292840523015, 22.630802205018487 ], [ 72.707900509809576, 22.634179925641309 ], [ 72.685060101702433, 22.629631646002316 ], [ 72.688801280331916, 22.60550075409795 ], [ 72.693858904975954, 22.602829021509031 ], [ 72.693903701264247, 22.599397624901631 ], [ 72.705161904037794, 22.599895760580313 ], [ 72.710506699416925, 22.589631159582165 ], [ 72.69682347297433, 22.582051521147115 ], [ 72.69074591103815, 22.59071462391822 ], [ 72.674719756163668, 22.586404090856028 ], [ 72.670888960703152, 22.573931663957637 ], [ 72.667933507011668, 22.572938215708295 ], [ 72.669943461408721, 22.563181521419121 ], [ 72.659952582075064, 22.558849285510416 ], [ 72.660631664412406, 22.5534629701515 ], [ 72.64903841878396, 22.548322680818941 ], [ 72.64053606224914, 22.535785802370892 ], [ 72.641640477110585, 22.529217951727155 ], [ 72.667024304146281, 22.53019387926766 ], [ 72.670772742959898, 22.507138342629698 ], [ 72.674290897752087, 22.503759186667367 ], [ 72.673118388795473, 22.494137636862231 ], [ 72.680569753278846, 22.487390059696935 ], [ 72.680384320342924, 22.482854184170616 ], [ 72.711778178463334, 22.496588492475542 ], [ 72.723001224769959, 22.49048594024384 ], [ 72.728831405049917, 22.490632308456838 ], [ 72.737256263925175, 22.500061873526811 ], [ 72.741674366240389, 22.499112098766656 ], [ 72.751667488667294, 22.50873581128759 ], [ 72.755177062751912, 22.517652443004298 ], [ 72.767002336930034, 22.50989297078889 ], [ 72.778601378488702, 22.520490324177782 ], [ 72.796591953955129, 22.524891557604032 ], [ 72.794497023423759, 22.533287039120534 ], [ 72.782528538026412, 22.545702055833289 ], [ 72.793195046573445, 22.555470173364451 ], [ 72.793889246658722, 22.571327425521833 ], [ 72.779243802375916, 22.577415408413628 ], [ 72.781139950107985, 22.585682991603665 ], [ 72.771005307091201, 22.610068324739743 ], [ 72.777630832367521, 22.615592956894499 ], [ 72.774117311983886, 22.632084470000869 ], [ 72.767772370096637, 22.637888194281775 ], [ 72.761017160432644, 22.634160708116738 ], [ 72.751695438849055, 22.635522270295326 ], [ 72.740580721280892, 22.645627529924329 ] ] ] } },
{ "type": "Feature", "properties": { "Block": "Umreth", "District": "Anand", "lon": 73.1735, "lat": 22.6418 }, "geometry": { "type": "MultiPolygon", "coordinates": [ [ [ [ 73.04251470930474, 22.718091228524287 ], [ 73.042374975464, 22.718171842509413 ], [ 73.042101448341455, 22.717842221189134 ], [ 73.04251470930474, 22.718091228524287 ] ] ], [ [ [ 73.026171784206582, 22.734685523201982 ], [ 73.02175693379273, 22.72533770049813 ], [ 73.011013614797307, 22.727412195517278 ], [ 73.002948465616328, 22.723130726450833 ], [ 73.009242801810316, 22.705250434654165 ], [ 72.997366072132735, 22.699936596275062 ], [ 72.995216089247478, 22.688152775653226 ], [ 72.992230847421169, 22.687779798620305 ], [ 72.993210692003856, 22.677477240347493 ], [ 72.984746737549102, 22.653513071640788 ], [ 72.986637006705934, 22.649490139538244 ], [ 72.997740477366719, 22.654220770030225 ], [ 73.009042078649983, 22.654613198069793 ], [ 73.011799346921805, 22.646236311331247 ], [ 73.015291566453456, 22.648162549899354 ], [ 73.01995957109753, 22.638864158951531 ], [ 73.022662088849415, 22.639025427828475 ], [ 73.019999703332857, 22.626121652068285 ], [ 73.021815640493188, 22.617590745414187 ], [ 73.026600761195809, 22.618907921064281 ], [ 73.027771094432779, 22.612697938933618 ], [ 73.070961299182542, 22.609889517571446 ], [ 73.077690628383195, 22.612930140738452 ], [ 73.079746003397673, 22.644992486095529 ], [ 73.101467182526065, 22.654550559310799 ], [ 73.129136597630719, 22.655691618322031 ], [ 73.135620413670992, 22.630958413122567 ], [ 73.132745415791305, 22.628224137891934 ], [ 73.139402355153138, 22.626539064625586 ], [ 73.14107395101361, 22.622973618899344 ], [ 73.139796406542416, 22.612223032397438 ], [ 73.128413841899231, 22.613159300445719 ], [ 73.117005890866139, 22.596192303557725 ], [ 73.10493987178512, 22.597685662660641 ], [ 73.102822183334311, 22.593888295457372 ], [ 73.107391151413296, 22.591676430716014 ], [ 73.117018607417279, 22.575212941794856 ], [ 73.119197622055893, 22.564268911774651 ], [ 73.113916239650976, 22.559489214957569 ], [ 73.146946211974736, 22.544597170776111 ], [ 73.153400028776105, 22.563956118365528 ], [ 73.153502717891172, 22.582843316599678 ], [ 73.156240765809187, 22.588751137428122 ], [ 73.191321706012658, 22.603129913072912 ], [ 73.201119304728095, 22.617843298124587 ], [ 73.219508934301615, 22.622114342620463 ], [ 73.216144392321311, 22.634387438751293 ], [ 73.218117680183425, 22.637243728326684 ], [ 73.21182517026439, 22.644538545436156 ], [ 73.212343485606894, 22.651633440339193 ], [ 73.207114006062469, 22.651945867856288 ], [ 73.194540306793598, 22.670398407874725 ], [ 73.20075671144177, 22.669403148907115 ], [ 73.201707661713314, 22.683316864315525 ], [ 73.182791905047594, 22.687016101691171 ], [ 73.157957377146857, 22.681316461198165 ], [ 73.144982363609628, 22.698267875195349 ], [ 73.139520621953537, 22.7144155020294 ], [ 73.124197477840653, 22.722532439213442 ], [ 73.096897475133616, 22.718246305603671 ], [ 73.096306735816256, 22.723186164913873 ], [ 73.099547403712165, 22.72552736902599 ], [ 73.095970664390364, 22.728362628997331 ], [ 73.064750762329808, 22.717490373718377 ], [ 73.05179585308862, 22.718853813362632 ], [ 73.044088042947877, 22.713352003616439 ], [ 73.044010082655944, 22.716739358883693 ], [ 73.041567078308162, 22.716853970621269 ], [ 73.035880248486279, 22.723003747452946 ], [ 73.038404531502636, 22.729316089204232 ], [ 73.033824279685419, 22.730118983298802 ], [ 73.032184326980811, 22.73424165860612 ], [ 73.026171784206582, 22.734685523201982 ] ] ] ] } },
{ "type": "Feature", "properties": { "Block": "Anand", "District": "Anand", "lon": 73.0067, "lat": 22.5463 }, "geometry": { "type": "Polygon", "coordinates": [ [ [ 73.129136597630719, 22.655691618322031 ], [ 73.094989458860042, 22.652900648302339 ], [ 73.079746003397673, 22.644992486095529 ], [ 73.077690628383195, 22.612930140738452 ], [ 73.070961299182542, 22.609889517571446 ], [ 73.027771094432779, 22.612697938933618 ], [ 73.026600761195809, 22.618907921064281 ], [ 73.021815640493188, 22.617590745414187 ], [ 73.019999703332857, 22.626121652068285 ], [ 73.022662088849415, 22.639025427828475 ], [ 73.01995957109753, 22.638864158951531 ], [ 73.015291566453456, 22.648162549899354 ], [ 73.011799346921805, 22.646236311331247 ], [ 73.007951479877619, 22.655226639242276 ], [ 72.986637006705934, 22.649490139538244 ], [ 72.984746737549102, 22.653513071640788 ], [ 72.976349823465682, 22.652775115514206 ], [ 72.975152357513849, 22.641611320320049 ], [ 72.962810745185138, 22.633811650641462 ], [ 72.961508573400423, 22.635974278229771 ], [ 72.929814004238665, 22.629072936875914 ], [ 72.92504625785196, 22.605891560669303 ], [ 72.917445667928575, 22.594626400198614 ], [ 72.900781264536306, 22.590246866361685 ], [ 72.897622048683857, 22.594855661712437 ], [ 72.86724551735135, 22.582334376321409 ], [ 72.868951850165544, 22.572255688283857 ], [ 72.862325412200903, 22.568357639973492 ], [ 72.865864847183872, 22.559794252009478 ], [ 72.860166280872775, 22.550459291871071 ], [ 72.86849218133635, 22.547929119128415 ], [ 72.87937871514427, 22.537097734002423 ], [ 72.874313097290809, 22.53117171248147 ], [ 72.86400432214441, 22.528962586308008 ], [ 72.864365089155768, 22.525988159005188 ], [ 72.860124547839618, 22.52450696717246 ], [ 72.863767877476789, 22.501019328568049 ], [ 72.879611933961712, 22.501013733186703 ], [ 72.880192060582289, 22.506212546570925 ], [ 72.887080455368633, 22.512998314316658 ], [ 72.899951650608472, 22.513680548938645 ], [ 72.903258451577273, 22.504211534741426 ], [ 72.897042837446534, 22.498914594381326 ], [ 72.906540920778284, 22.48676752533914 ], [ 72.915206956646074, 22.488394613904035 ], [ 72.915081329050224, 22.495933901647458 ], [ 72.920308200785371, 22.49806346422632 ], [ 72.920146752867566, 22.494631327199617 ], [ 72.925827764301374, 22.493500226523199 ], [ 72.92442703744851, 22.4840921030316 ], [ 72.931524924749013, 22.481971526480582 ], [ 72.944945113696662, 22.494673143436419 ], [ 72.951406387413172, 22.484303976459717 ], [ 72.958610160932849, 22.484445517124993 ], [ 72.959197019528176, 22.478794449751721 ], [ 72.955077121056391, 22.477846956149843 ], [ 72.956511329916523, 22.470184302171923 ], [ 72.966764159783651, 22.467466813047071 ], [ 72.967640333392652, 22.464636090896956 ], [ 72.974729427084839, 22.466338649104177 ], [ 72.975901404238812, 22.462890180041409 ], [ 72.984461181086573, 22.46065529146081 ], [ 72.985820946559102, 22.455270482078621 ], [ 72.987369040237681, 22.462467661561771 ], [ 73.002029949916405, 22.46816510516248 ], [ 73.014749678419548, 22.460921825067377 ], [ 73.013826685516278, 22.445425533739165 ], [ 73.030862644686437, 22.442168699979323 ], [ 73.042342581316547, 22.446881561847082 ], [ 73.055633839563015, 22.442611019377171 ], [ 73.055871160088032, 22.440100873062011 ], [ 73.064201486551013, 22.444381802255478 ], [ 73.07012867320357, 22.433723297741167 ], [ 73.093395562780074, 22.455436334998609 ], [ 73.08768734407127, 22.496005520494013 ], [ 73.091775885051447, 22.51015694156014 ], [ 73.099993661592492, 22.515453784049587 ], [ 73.111833459732111, 22.514628414572087 ], [ 73.13570064849722, 22.52451469996651 ], [ 73.146946211974736, 22.544597170776111 ], [ 73.113916239650976, 22.559489214957569 ], [ 73.119197622055893, 22.564268911774651 ], [ 73.117018607417279, 22.575212941794856 ], [ 73.107391151413296, 22.591676430716014 ], [ 73.102822183334311, 22.593888295457372 ], [ 73.10493987178512, 22.597685662660641 ], [ 73.117005890866139, 22.596192303557725 ], [ 73.128413841899231, 22.613159300445719 ], [ 73.139796406542416, 22.612223032397438 ], [ 73.14107395101361, 22.622973618899344 ], [ 73.139402355153138, 22.626539064625586 ], [ 73.132745415791305, 22.628224137891934 ], [ 73.135620413670992, 22.630958413122567 ], [ 73.129136597630719, 22.655691618322031 ] ] ] } },
{ "type": "Feature", "properties": { "Block": "Petlad", "District": "Anand", "lon": 72.819, "lat": 22.5191 }, "geometry": { "type": "Polygon", "coordinates": [ [ [ 72.785152510683076, 22.643438847337727 ], [ 72.77156764078093, 22.636187046881457 ], [ 72.777630832367521, 22.615592956894499 ], [ 72.771005307091201, 22.610068324739743 ], [ 72.781139950107985, 22.585682991603665 ], [ 72.779243802375916, 22.577415408413628 ], [ 72.793889246658722, 22.571327425521833 ], [ 72.793195046573445, 22.555470173364451 ], [ 72.782528538026412, 22.545702055833289 ], [ 72.794497023423759, 22.533287039120534 ], [ 72.795939970196656, 22.523307188105708 ], [ 72.778601378488702, 22.520490324177782 ], [ 72.767002336930034, 22.50989297078889 ], [ 72.755177062751912, 22.517652443004298 ], [ 72.751667488667294, 22.50873581128759 ], [ 72.741674366240389, 22.499112098766656 ], [ 72.737256263925175, 22.500061873526811 ], [ 72.728831405049917, 22.490632308456838 ], [ 72.723001224769959, 22.49048594024384 ], [ 72.71268174709526, 22.496664240010013 ], [ 72.707114290798202, 22.495626452768974 ], [ 72.699979621978414, 22.489695992934887 ], [ 72.680384320342924, 22.482854184170616 ], [ 72.681281393257038, 22.466160788002721 ], [ 72.658471980620405, 22.45857092069302 ], [ 72.660000639247826, 22.448914363584482 ], [ 72.674661283025216, 22.45286031142756 ], [ 72.68270751548296, 22.44456518933173 ], [ 72.688510705880219, 22.434243866897837 ], [ 72.688700667223443, 22.422946132192084 ], [ 72.703278161141526, 22.412605494244662 ], [ 72.707573967712236, 22.404995065445267 ], [ 72.705645107829113, 22.400735259679657 ], [ 72.708429580680999, 22.400136557124593 ], [ 72.722432488787163, 22.424571712182743 ], [ 72.733509230975002, 22.41687620925072 ], [ 72.742453588274003, 22.424993694259925 ], [ 72.743722027421526, 22.414725034050761 ], [ 72.750458844978382, 22.415536445352107 ], [ 72.760309206242042, 22.393671447269195 ], [ 72.771120043512539, 22.39823975709967 ], [ 72.777016603003787, 22.407168214115529 ], [ 72.781565659924496, 22.40647722810715 ], [ 72.782642269232923, 22.400347606200928 ], [ 72.789129516837576, 22.399380089814333 ], [ 72.793433781046744, 22.393855887207238 ], [ 72.80648285079765, 22.393522624532789 ], [ 72.812320576027702, 22.402207114499362 ], [ 72.836712621667246, 22.40891758505499 ], [ 72.830458280266313, 22.417397280877932 ], [ 72.828809617496717, 22.43038619732874 ], [ 72.825230134720087, 22.434272675162628 ], [ 72.845841686961705, 22.437880004711946 ], [ 72.843450943003916, 22.443427075805943 ], [ 72.845509038117058, 22.450493442798468 ], [ 72.877462703864666, 22.464237359035923 ], [ 72.877194245036932, 22.477821786826912 ], [ 72.886961610053206, 22.482802495208254 ], [ 72.886741652165981, 22.488945417219732 ], [ 72.893563488078001, 22.485624441282535 ], [ 72.901947729627679, 22.490612978788125 ], [ 72.897042837446534, 22.498914594381326 ], [ 72.903258451577273, 22.504211534741426 ], [ 72.899951650608472, 22.513680548938645 ], [ 72.887080455368633, 22.512998314316658 ], [ 72.880192060582289, 22.506212546570925 ], [ 72.879611933961712, 22.501013733186703 ], [ 72.865064074566547, 22.49990043203843 ], [ 72.863065480264581, 22.502710087746546 ], [ 72.860124547839618, 22.52450696717246 ], [ 72.864365089155768, 22.525988159005188 ], [ 72.86400432214441, 22.528962586308008 ], [ 72.874313097290809, 22.53117171248147 ], [ 72.87937871514427, 22.537097734002423 ], [ 72.86849218133635, 22.547929119128415 ], [ 72.860166280872775, 22.550459291871071 ], [ 72.865864847183872, 22.559794252009478 ], [ 72.862325412200903, 22.568357639973492 ], [ 72.867233008311032, 22.569828639310042 ], [ 72.868914036481996, 22.575314508647285 ], [ 72.866405290726775, 22.584087866542095 ], [ 72.859250659544713, 22.591913746299767 ], [ 72.86241203045553, 22.594303836074836 ], [ 72.862430008439304, 22.601321451313954 ], [ 72.874271195374376, 22.603782098933188 ], [ 72.871289084176837, 22.620831656267239 ], [ 72.853225788291539, 22.61842949021354 ], [ 72.856463941802943, 22.609413725623511 ], [ 72.849833902492293, 22.605644053038048 ], [ 72.850655633703497, 22.60160348817238 ], [ 72.830574063224972, 22.594197090545073 ], [ 72.826321387465967, 22.596115130228181 ], [ 72.82669196408024, 22.603710485416681 ], [ 72.823019448179494, 22.603224365383195 ], [ 72.820783576471626, 22.606645819546102 ], [ 72.834507842447977, 22.614794544189806 ], [ 72.826572564504247, 22.626401153043911 ], [ 72.806929665633433, 22.620272704902224 ], [ 72.7965403897595, 22.639927812377781 ], [ 72.785152510683076, 22.643438847337727 ] ] ] } },
{ "type": "Feature", "properties": { "Block": "Khambhat", "District": "Anand", "lon": 72.5841, "lat": 22.3468 }, "geometry": { "type": "Polygon", "coordinates": [ [ [ 72.452705097060601, 22.481948155781335 ], [ 72.421368605354218, 22.485984090718006 ], [ 72.408196230152413, 22.476012068808739 ], [ 72.406944343362369, 22.481684119562566 ], [ 72.375771698973949, 22.473174980946478 ], [ 72.376850186659638, 22.452285980605865 ], [ 72.373259540518958, 22.450413254833936 ], [ 72.363868488758385, 22.453434230574583 ], [ 72.355969963587881, 22.440325760511719 ], [ 72.366999485832821, 22.441168154656573 ], [ 72.373381289189439, 22.446708337658105 ], [ 72.368018593979954, 22.407119587198064 ], [ 72.341555788778365, 22.386577565775269 ], [ 72.346759914272212, 22.378114261172676 ], [ 72.38042626571972, 22.374281587871948 ], [ 72.400218281334389, 22.36206528684707 ], [ 72.400373258687196, 22.350175177301306 ], [ 72.387495324286107, 22.33727481507438 ], [ 72.382099680668603, 22.322957144046811 ], [ 72.373300721088228, 22.315796273718398 ], [ 72.393904610700517, 22.306185202452422 ], [ 72.418600402788755, 22.30181531737076 ], [ 72.421214936846766, 22.280175000521666 ], [ 72.418180959619662, 22.275003002480844 ], [ 72.405689546929096, 22.267323324645794 ], [ 72.403373117899818, 22.257222492939128 ], [ 72.40809886445372, 22.229594954112578 ], [ 72.427256409864739, 22.20951362899568 ], [ 72.460943297697909, 22.256490625923952 ], [ 72.480252497593469, 22.266731257552046 ], [ 72.481221916328948, 22.272361582926361 ], [ 72.500342687407169, 22.277740967372864 ], [ 72.516661207973996, 22.305560367712591 ], [ 72.515775018149597, 22.321068315708903 ], [ 72.537151082512111, 22.30212956984737 ], [ 72.556638354548141, 22.295314253716096 ], [ 72.580334157333454, 22.301060639123843 ], [ 72.648750939028432, 22.28480790902702 ], [ 72.659066105688098, 22.278933785584162 ], [ 72.674825936131967, 22.276949639078826 ], [ 72.68202780701985, 22.281313901968044 ], [ 72.682238591311389, 22.276020307638987 ], [ 72.687030328106076, 22.271804736794291 ], [ 72.697744644094229, 22.27505277777604 ], [ 72.701846941874663, 22.280742699309595 ], [ 72.715792448532468, 22.273991495616187 ], [ 72.737215623243429, 22.275320007747531 ], [ 72.750824576978331, 22.254606294995007 ], [ 72.751823950036965, 22.236855516239668 ], [ 72.755821444966443, 22.231715880918017 ], [ 72.763768843878339, 22.233952573493188 ], [ 72.790488127076685, 22.25241992500213 ], [ 72.775819951823919, 22.28039686457355 ], [ 72.766327176637233, 22.281099906249754 ], [ 72.767450050081123, 22.276369444197979 ], [ 72.755682539372401, 22.275405122982761 ], [ 72.747544396684688, 22.278388827676 ], [ 72.748832488275639, 22.287147918626889 ], [ 72.753797489427384, 22.290773589246012 ], [ 72.752261826635703, 22.294986441329094 ], [ 72.756353945605653, 22.295505144790642 ], [ 72.760159230708723, 22.308293216286131 ], [ 72.763899249613175, 22.309813450715652 ], [ 72.759679479143045, 22.320645705170083 ], [ 72.763892865286437, 22.327143391580897 ], [ 72.765587325067543, 22.34229631107684 ], [ 72.772357017370581, 22.343523292551602 ], [ 72.767005374134015, 22.358961699612795 ], [ 72.753880278163948, 22.359472124192934 ], [ 72.753669802892887, 22.365961017969845 ], [ 72.762838201820401, 22.370253130103212 ], [ 72.760799728608006, 22.382651191322648 ], [ 72.756426590566036, 22.387788628945923 ], [ 72.760231797515686, 22.394981378819999 ], [ 72.750458844978382, 22.415536445352107 ], [ 72.743722027421526, 22.414725034050761 ], [ 72.742453588274003, 22.424993694259925 ], [ 72.733509230975002, 22.41687620925072 ], [ 72.722432488787163, 22.424571712182743 ], [ 72.708429580680999, 22.400136557124593 ], [ 72.705645107829113, 22.400735259679657 ], [ 72.707573967712236, 22.404995065445267 ], [ 72.703278161141526, 22.412605494244662 ], [ 72.695378094461958, 22.418021908047397 ], [ 72.678632009955848, 22.407335954094766 ], [ 72.675282226397371, 22.410589444445527 ], [ 72.677646134084384, 22.416096845724006 ], [ 72.670940944411996, 22.418266011590113 ], [ 72.663752806968162, 22.414718819824465 ], [ 72.656961151754771, 22.421252949698889 ], [ 72.640009767171946, 22.412445992971847 ], [ 72.629156342570482, 22.419071756181157 ], [ 72.628857137105513, 22.422007270915682 ], [ 72.624355140227621, 22.418492154309696 ], [ 72.622705414751081, 22.422076321339805 ], [ 72.60088300088006, 22.424048814044834 ], [ 72.563506438425904, 22.413274407024641 ], [ 72.556947224987212, 22.419640545272927 ], [ 72.524866705443401, 22.416469189374322 ], [ 72.508577076492742, 22.419204028711974 ], [ 72.499771129816068, 22.413416015223483 ], [ 72.488012386664522, 22.427731551834533 ], [ 72.485442276992231, 22.442783987975996 ], [ 72.462519216692414, 22.448079651428934 ], [ 72.452705097060601, 22.481948155781335 ] ] ] } },
{ "type": "Feature", "properties": { "Block": "Borsad", "District": "Anand", "lon": 72.8626, "lat": 22.3757 }, "geometry": { "type": "Polygon", "coordinates": [ [ [ 72.919920885862439, 22.496971429296725 ], [ 72.915081329050224, 22.495933901647458 ], [ 72.915206956646074, 22.488394613904035 ], [ 72.906540920778284, 22.48676752533914 ], [ 72.901947729627679, 22.490612978788125 ], [ 72.892654694844396, 22.485554137627922 ], [ 72.886741652165981, 22.488945417219732 ], [ 72.886961610053206, 22.482802495208254 ], [ 72.877194245036932, 22.477821786826912 ], [ 72.877462703864666, 22.464237359035923 ], [ 72.845509038117058, 22.450493442798468 ], [ 72.843450943003916, 22.443427075805943 ], [ 72.845841686961705, 22.437880004711946 ], [ 72.842997437515876, 22.436035559369547 ], [ 72.825230134720087, 22.434272675162628 ], [ 72.828809617496717, 22.43038619732874 ], [ 72.830458280266313, 22.417397280877932 ], [ 72.836712621667246, 22.40891758505499 ], [ 72.812320576027702, 22.402207114499362 ], [ 72.80648285079765, 22.393522624532789 ], [ 72.797884916211544, 22.391961391080432 ], [ 72.789129516837576, 22.399380089814333 ], [ 72.782642269232923, 22.400347606200928 ], [ 72.781565659924496, 22.40647722810715 ], [ 72.777016603003787, 22.407168214115529 ], [ 72.771120043512539, 22.39823975709967 ], [ 72.759339094007174, 22.393108799460911 ], [ 72.756426590566036, 22.387788628945923 ], [ 72.760799728608006, 22.382651191322648 ], [ 72.762838201820401, 22.370253130103212 ], [ 72.753669802892887, 22.365961017969845 ], [ 72.753880278163948, 22.359472124192934 ], [ 72.767005374134015, 22.358961699612795 ], [ 72.772357017370581, 22.343523292551602 ], [ 72.765587325067543, 22.34229631107684 ], [ 72.763892865286437, 22.327143391580897 ], [ 72.759679479143045, 22.320645705170083 ], [ 72.763899249613175, 22.309813450715652 ], [ 72.760159230708723, 22.308293216286131 ], [ 72.756353945605653, 22.295505144790642 ], [ 72.752261826635703, 22.294986441329094 ], [ 72.753797489427384, 22.290773589246012 ], [ 72.748832488275639, 22.287147918626889 ], [ 72.747544396684688, 22.278388827676 ], [ 72.755682539372401, 22.275405122982761 ], [ 72.767450050081123, 22.276369444197979 ], [ 72.766327176637233, 22.281099906249754 ], [ 72.775819951823919, 22.28039686457355 ], [ 72.790488127076685, 22.25241992500213 ], [ 72.844289804189273, 22.282398400643256 ], [ 72.872014491735086, 22.284861141201535 ], [ 72.892497684604081, 22.267184720370583 ], [ 72.910676767041309, 22.267041953509001 ], [ 72.912485156556613, 22.273276141732389 ], [ 72.906822039563281, 22.288742637330131 ], [ 72.909249090729944, 22.298022535555805 ], [ 72.92818959957502, 22.311680642610476 ], [ 72.93956342361048, 22.309301180544207 ], [ 72.945369308055277, 22.304256722904249 ], [ 72.948959638887288, 22.292725585949352 ], [ 72.964862895247734, 22.294499385792115 ], [ 72.96315805902681, 22.31710896955375 ], [ 72.965837554754614, 22.316837249658462 ], [ 72.967818708265341, 22.323483045529315 ], [ 72.985399150702293, 22.326253444796556 ], [ 72.993813250455389, 22.340276087624442 ], [ 72.984290379011725, 22.349540870297631 ], [ 72.971006989108815, 22.34354582161308 ], [ 72.960240113591709, 22.343289453723237 ], [ 72.960333444058151, 22.350400614857822 ], [ 72.949638444543538, 22.36342961453856 ], [ 72.957876902997356, 22.367242272790875 ], [ 72.959488704297556, 22.371732577794486 ], [ 72.956218860019547, 22.37199520002634 ], [ 72.963103840309529, 22.374449448097845 ], [ 72.963729991215402, 22.380778902813734 ], [ 72.967704310508864, 22.377000014938623 ], [ 72.969732542028709, 22.381219198219299 ], [ 72.976803715229281, 22.380031227332271 ], [ 72.978357598549891, 22.385339005970664 ], [ 72.974413291970038, 22.387082451089604 ], [ 72.977427398463064, 22.390946321665886 ], [ 72.971554503291344, 22.395190397521773 ], [ 72.972067134094743, 22.391365779558566 ], [ 72.969642010712704, 22.396378232298321 ], [ 72.974698941857341, 22.403554058813597 ], [ 72.97426645964191, 22.415305149077511 ], [ 72.970041401688022, 22.418289142236638 ], [ 72.978446708731127, 22.432648954974471 ], [ 72.985327491193772, 22.435710265160704 ], [ 72.9827247448289, 22.443752089555772 ], [ 72.987045149967045, 22.447694750378897 ], [ 72.986507845137723, 22.453278965484319 ], [ 72.983778186586164, 22.461278119193466 ], [ 72.975901404238812, 22.462890180041409 ], [ 72.974729427084839, 22.466338649104177 ], [ 72.967640333392652, 22.464636090896956 ], [ 72.966764159783651, 22.467466813047071 ], [ 72.956511329916523, 22.470184302171923 ], [ 72.955077121056391, 22.477846956149843 ], [ 72.959197019528176, 22.478794449751721 ], [ 72.958610160932849, 22.484445517124993 ], [ 72.951406387413172, 22.484303976459717 ], [ 72.944945113696662, 22.494673143436419 ], [ 72.934698069878252, 22.483184304806915 ], [ 72.926678623385669, 22.481984914247246 ], [ 72.923546660622279, 22.488355884218407 ], [ 72.926636078275493, 22.489375944094576 ], [ 72.925827764301374, 22.493500226523199 ], [ 72.919920885862439, 22.496971429296725 ] ] ] } },
{ "type": "Feature", "properties": { "Block": "Anklav", "District": "Anand", "lon": 73.0019, "lat": 22.3565 }, "geometry": { "type": "Polygon", "coordinates": [ [ [ 73.002029949916405, 22.46816510516248 ], [ 72.987369040237681, 22.462467661561771 ], [ 72.987045149967045, 22.447694750378897 ], [ 72.9827247448289, 22.443752089555772 ], [ 72.985327491193772, 22.435710265160704 ], [ 72.978446708731127, 22.432648954974471 ], [ 72.970041401688022, 22.418289142236638 ], [ 72.97426645964191, 22.415305149077511 ], [ 72.974698941857341, 22.403554058813597 ], [ 72.969642010712704, 22.396378232298321 ], [ 72.972067134094743, 22.391365779558566 ], [ 72.971554503291344, 22.395190397521773 ], [ 72.977427398463064, 22.390946321665886 ], [ 72.974413291970038, 22.387082451089604 ], [ 72.978357598549891, 22.385339005970664 ], [ 72.976803715229281, 22.380031227332271 ], [ 72.969732542028709, 22.381219198219299 ], [ 72.967704310508864, 22.377000014938623 ], [ 72.963729991215402, 22.380778902813734 ], [ 72.963103840309529, 22.374449448097845 ], [ 72.956218860019547, 22.37199520002634 ], [ 72.959488704297556, 22.371732577794486 ], [ 72.957876902997356, 22.367242272790875 ], [ 72.949638444543538, 22.36342961453856 ], [ 72.960333444058151, 22.350400614857822 ], [ 72.960240113591709, 22.343289453723237 ], [ 72.971006989108815, 22.34354582161308 ], [ 72.984290379011725, 22.349540870297631 ], [ 72.993813250455389, 22.340276087624442 ], [ 72.985399150702293, 22.326253444796556 ], [ 72.967818708265341, 22.323483045529315 ], [ 72.965837554754614, 22.316837249658462 ], [ 72.96315805902681, 22.31710896955375 ], [ 72.964862895247734, 22.294499385792115 ], [ 72.948959638887288, 22.292725585949352 ], [ 72.951758063473861, 22.263213517848239 ], [ 72.968244066840597, 22.262695318114151 ], [ 72.974572474336711, 22.254002635060655 ], [ 73.009280610104, 22.267603050029351 ], [ 73.035138395470156, 22.295701323416495 ], [ 73.05910859584553, 22.31017747125248 ], [ 73.063578324340114, 22.318553581624002 ], [ 73.053394495866556, 22.339286016107 ], [ 73.046801718673919, 22.36268567731673 ], [ 73.052775192818117, 22.37327898194129 ], [ 73.068007424729316, 22.385172100806461 ], [ 73.072679996408297, 22.395861688958728 ], [ 73.064602438798289, 22.425310484726516 ], [ 73.07012867320357, 22.433723297741167 ], [ 73.064201486551013, 22.444381802255478 ], [ 73.055871160088032, 22.440100873062011 ], [ 73.055633839563015, 22.442611019377171 ], [ 73.042342581316547, 22.446881561847082 ], [ 73.030862644686437, 22.442168699979323 ], [ 73.013826685516278, 22.445425533739165 ], [ 73.014749678419548, 22.460921825067377 ], [ 73.002029949916405, 22.46816510516248 ] ] ] } },
{ "type": "Feature", "properties": { "Block": "Kapadvanj", "District": "Kheda", "lon": 73.1349, "lat": 23.0583 }, "geometry": { "type": "Polygon", "coordinates": [ [ [ 73.133973837687819, 23.205533198536141 ], [ 73.124602508439338, 23.196651623736919 ], [ 73.120836777056482, 23.186986715255973 ], [ 73.114737950200904, 23.185643811732952 ], [ 73.092462174572319, 23.168678095755279 ], [ 73.08248124947032, 23.170663149003438 ], [ 73.075184722202607, 23.167150766410462 ], [ 73.069820493568926, 23.159563546720555 ], [ 73.043873015913249, 23.165781481646171 ], [ 73.03348653290152, 23.162201024500433 ], [ 73.032248700254073, 23.168095429042854 ], [ 73.02585804759363, 23.165101488721923 ], [ 73.018978635960096, 23.168994758259299 ], [ 73.019251918740892, 23.159995374016212 ], [ 73.011540005095924, 23.158502880806939 ], [ 73.013400584034272, 23.143984654503587 ], [ 73.02443833844049, 23.143373602322317 ], [ 73.028606689343746, 23.137033382304399 ], [ 73.02722339250235, 23.131603655336679 ], [ 73.015648896510527, 23.126151834312029 ], [ 73.00286141078044, 23.130952942714572 ], [ 73.007186409902971, 23.102853132347938 ], [ 72.998672751663563, 23.096966845435073 ], [ 72.993535624320202, 23.09881391205483 ], [ 72.981619994895865, 23.087693962365748 ], [ 72.982772749899354, 23.074577958491279 ], [ 72.986033602939685, 23.070459805080002 ], [ 72.993866834962091, 23.069318078882134 ], [ 72.993806331631077, 23.062446354338352 ], [ 72.997463075810373, 23.057747530344262 ], [ 72.967321311092547, 23.062871481116304 ], [ 72.962491563883248, 23.059182690984422 ], [ 72.963733146098676, 23.053922760863273 ], [ 72.958802518082948, 23.047626346018031 ], [ 72.938877063122717, 23.041965866576078 ], [ 72.937205346887964, 23.034149423247797 ], [ 72.946336501663822, 23.023714380577054 ], [ 72.944275073800966, 23.011190615984567 ], [ 72.956665749415549, 23.010520179286342 ], [ 72.970465526876367, 23.017595518166388 ], [ 72.985149726277143, 22.982560347287237 ], [ 72.969395478862737, 22.969455804369687 ], [ 72.972949069497972, 22.959695107492443 ], [ 72.983507209780711, 22.948475795291245 ], [ 73.007647188151552, 22.947285473365145 ], [ 73.018632151263418, 22.958548342301111 ], [ 73.025084493929413, 22.958878171699332 ], [ 73.026868505862865, 22.965715104796654 ], [ 73.032331289564667, 22.966281767314246 ], [ 73.039373601691807, 22.963044912171796 ], [ 73.03109938669644, 22.958454478112508 ], [ 73.033302275860336, 22.948758444935908 ], [ 73.043141007534302, 22.944309489557899 ], [ 73.047441225731404, 22.950844877329814 ], [ 73.057973737079109, 22.941749504751705 ], [ 73.068822385338223, 22.941882064001916 ], [ 73.063049855339926, 22.937520028086208 ], [ 73.071801732419644, 22.919378589562609 ], [ 73.080485349215877, 22.920315006557246 ], [ 73.094852993090313, 22.915181523597177 ], [ 73.096164927765514, 22.911124892782862 ], [ 73.10668222973716, 22.915572408074755 ], [ 73.10430412956697, 22.918951557065117 ], [ 73.106379307043568, 22.924461536900356 ], [ 73.103289673794706, 22.927416418634426 ], [ 73.105163625952713, 22.934503093125386 ], [ 73.119207340928924, 22.936997443845407 ], [ 73.122300445268067, 22.933792753743909 ], [ 73.128454395444393, 22.939474791153771 ], [ 73.125626419878273, 22.955980078873154 ], [ 73.129250232717524, 22.959846001126397 ], [ 73.137568184887499, 22.961523034408273 ], [ 73.141194984625102, 22.958656854542259 ], [ 73.144905621433224, 22.962772715061288 ], [ 73.170465342194831, 22.956255045789781 ], [ 73.174998420781563, 22.959299384982224 ], [ 73.177001212910866, 22.954093626543813 ], [ 73.181342826374546, 22.958049739233466 ], [ 73.19795907737263, 22.952920506687605 ], [ 73.229807906133317, 22.953276374021041 ], [ 73.232207750024955, 22.955207026415753 ], [ 73.230826667530735, 22.959365875636173 ], [ 73.235338500062653, 22.962495993811714 ], [ 73.250331469291197, 22.964473973165244 ], [ 73.252862557944169, 22.968913806691742 ], [ 73.275287753048929, 22.977015285220681 ], [ 73.264107762095577, 23.000931750195306 ], [ 73.252384618280402, 23.007130353468039 ], [ 73.241504882922555, 23.018297357620032 ], [ 73.245526615296725, 23.027197081925877 ], [ 73.243946231675267, 23.038155191609896 ], [ 73.257042886085131, 23.039823970210094 ], [ 73.274985684653174, 23.050080059645985 ], [ 73.272664473891609, 23.058788609910756 ], [ 73.241130155193375, 23.070722083015117 ], [ 73.237084904925055, 23.086341394573392 ], [ 73.231015963222333, 23.08654039513052 ], [ 73.225165775664351, 23.105437463700977 ], [ 73.205401771316872, 23.110281291259007 ], [ 73.200574035435466, 23.125669128889697 ], [ 73.201835387773684, 23.146164432934185 ], [ 73.192126320724427, 23.144857049052337 ], [ 73.188698800554519, 23.149967617912154 ], [ 73.188350370106946, 23.146338258238835 ], [ 73.180989999571992, 23.143450433146857 ], [ 73.18269975317078, 23.14125920550709 ], [ 73.170778441902272, 23.134919213450228 ], [ 73.171547010814947, 23.139127467143098 ], [ 73.16033745181403, 23.149754399567108 ], [ 73.150386982295132, 23.167561568104261 ], [ 73.150341298471332, 23.170080704827566 ], [ 73.158089288458129, 23.173084667679266 ], [ 73.155519559671532, 23.192845170569953 ], [ 73.133973837687819, 23.205533198536141 ] ], [ [ 73.23047530588039, 23.086213347080577 ], [ 73.230660769359005, 23.086327647846122 ], [ 73.230474673466432, 23.086210412624734 ], [ 73.23047530588039, 23.086213347080577 ] ], [ [ 73.22907222723812, 23.085123032418547 ], [ 73.229955758947597, 23.085756952896194 ], [ 73.229003237522633, 23.084700453466844 ], [ 73.22907222723812, 23.085123032418547 ] ] ] } },
{ "type": "Feature", "properties": { "Block": "Kathlal", "District": "Kheda", "lon": 72.9242, "lat": 22.9644 }, "geometry": { "type": "Polygon", "coordinates": [ [ [ 72.939041340733652, 23.077622544504816 ], [ 72.92550855515168, 23.080527123270397 ], [ 72.925446740280336, 23.074494202294662 ], [ 72.922254877853831, 23.075005091555418 ], [ 72.923127399811221, 23.069722968350987 ], [ 72.905850316649079, 23.065474488184059 ], [ 72.913022871017702, 23.053217441073905 ], [ 72.907851291486608, 23.048287186423362 ], [ 72.904661392777285, 23.030512520571545 ], [ 72.898123965280874, 23.029469750858876 ], [ 72.890847729158821, 23.01869315202563 ], [ 72.892729881138735, 23.014590855207722 ], [ 72.880350394041017, 23.016035332336859 ], [ 72.874479975524523, 23.009094801992866 ], [ 72.860249718193018, 23.008814103391792 ], [ 72.85311578958499, 23.012802362452913 ], [ 72.844772606433693, 23.011230362764408 ], [ 72.848492488702703, 22.999074053461953 ], [ 72.838410749269627, 22.996234562765743 ], [ 72.8303854116254, 22.983990463126315 ], [ 72.831687322898688, 22.980608213229303 ], [ 72.837936174694917, 22.982516425585931 ], [ 72.846942972991044, 22.976075975468191 ], [ 72.856254627155224, 22.980488232084838 ], [ 72.860711269891027, 22.976809352682405 ], [ 72.867029999836603, 22.978475689555573 ], [ 72.879686819320412, 22.974286326517394 ], [ 72.875927653723991, 22.960101446114447 ], [ 72.87794569655189, 22.953031457039472 ], [ 72.885973642005396, 22.944503045571718 ], [ 72.879368761810923, 22.941613973850796 ], [ 72.877857503550544, 22.932074554383867 ], [ 72.880225821067313, 22.925234908911342 ], [ 72.872096627396417, 22.916399670715546 ], [ 72.885556538947625, 22.911510100276544 ], [ 72.91093724074446, 22.915267218040711 ], [ 72.918997272223294, 22.913748356921069 ], [ 72.913726670500097, 22.905108601200755 ], [ 72.917807688988077, 22.897071537110747 ], [ 72.910098291524221, 22.893931172695517 ], [ 72.908859777953793, 22.890540952059361 ], [ 72.928376350339448, 22.896580782794889 ], [ 72.943182274156143, 22.892462364305583 ], [ 72.945309463189389, 22.888402775542513 ], [ 72.93818003154766, 22.885963323213748 ], [ 72.934765466880762, 22.876916868699158 ], [ 72.940106683371823, 22.867799405535912 ], [ 72.961737120978384, 22.870455917166854 ], [ 72.965053363240813, 22.875483784414048 ], [ 72.968640213999407, 22.873458881681891 ], [ 72.965154990547219, 22.86814826717076 ], [ 72.968329981714362, 22.860442613883254 ], [ 72.976404322457356, 22.856940783145284 ], [ 72.980030092725627, 22.857830652521578 ], [ 72.983189350798909, 22.867918058719681 ], [ 72.998347877737686, 22.875097678411045 ], [ 73.000748963999342, 22.87343584660788 ], [ 72.996154383155016, 22.872940064753422 ], [ 72.998556968704889, 22.869415437580514 ], [ 72.996366933534375, 22.866209328152912 ], [ 73.002310394964951, 22.859865400968474 ], [ 73.000144782292082, 22.85215832189666 ], [ 73.012468697809709, 22.846367747461994 ], [ 73.018305264213026, 22.85199504441314 ], [ 73.017289585833666, 22.857495796822629 ], [ 73.023460930088859, 22.865479309432285 ], [ 73.021637079669205, 22.881629703394278 ], [ 73.032034327193017, 22.889707985240463 ], [ 73.046773508879028, 22.874677133648788 ], [ 73.051435411267377, 22.875528154668928 ], [ 73.048566750103717, 22.882736628425118 ], [ 73.05579028116972, 22.890975628919957 ], [ 73.095791642730674, 22.887894870372421 ], [ 73.118175054496618, 22.893315094454742 ], [ 73.120494553069207, 22.888863679562053 ], [ 73.12744263192306, 22.893134635054459 ], [ 73.171801070546991, 22.889484796452834 ], [ 73.173895984908668, 22.885548286701134 ], [ 73.174500394788041, 22.889556149473705 ], [ 73.18833026581089, 22.893573838603146 ], [ 73.187001787761375, 22.907985234399689 ], [ 73.201036155767085, 22.9077939902757 ], [ 73.205592377650476, 22.915800813834107 ], [ 73.210893636179378, 22.914393977474084 ], [ 73.2131824141659, 22.919200919252784 ], [ 73.220162879980677, 22.92148133400001 ], [ 73.241235242810262, 22.920401922292559 ], [ 73.234976906601233, 22.937440090740463 ], [ 73.228488250438232, 22.942387932878514 ], [ 73.231515935865076, 22.943379111107081 ], [ 73.231215930001227, 22.952286724147267 ], [ 73.222149845591318, 22.954773081663834 ], [ 73.19795907737263, 22.952920506687605 ], [ 73.181342826374546, 22.958049739233466 ], [ 73.177001212910866, 22.954093626543813 ], [ 73.174998420781563, 22.959299384982224 ], [ 73.170465342194831, 22.956255045789781 ], [ 73.144905621433224, 22.962772715061288 ], [ 73.141194984625102, 22.958656854542259 ], [ 73.137568184887499, 22.961523034408273 ], [ 73.129250232717524, 22.959846001126397 ], [ 73.125626419878273, 22.955980078873154 ], [ 73.128454395444393, 22.939474791153771 ], [ 73.122300445268067, 22.933792753743909 ], [ 73.119207340928924, 22.936997443845407 ], [ 73.105163625952713, 22.934503093125386 ], [ 73.103289673794706, 22.927416418634426 ], [ 73.106379307043568, 22.924461536900356 ], [ 73.10430412956697, 22.918951557065117 ], [ 73.10668222973716, 22.915572408074755 ], [ 73.094821477495174, 22.911025670261985 ], [ 73.094852993090313, 22.915181523597177 ], [ 73.080485349215877, 22.920315006557246 ], [ 73.071801732419644, 22.919378589562609 ], [ 73.063049855339926, 22.937520028086208 ], [ 73.068822385338223, 22.941882064001916 ], [ 73.062558087908997, 22.940974477383925 ], [ 73.057973737079109, 22.941749504751705 ], [ 73.047441225731404, 22.950844877329814 ], [ 73.043141007534302, 22.944309489557899 ], [ 73.033302275860336, 22.948758444935908 ], [ 73.03109938669644, 22.958454478112508 ], [ 73.039373601691807, 22.963044912171796 ], [ 73.032331289564667, 22.966281767314246 ], [ 73.026868505862865, 22.965715104796654 ], [ 73.025084493929413, 22.958878171699332 ], [ 73.018632151263418, 22.958548342301111 ], [ 73.007647188151552, 22.947285473365145 ], [ 72.983507209780711, 22.948475795291245 ], [ 72.972949069497972, 22.959695107492443 ], [ 72.969395478862737, 22.969455804369687 ], [ 72.985149726277143, 22.982560347287237 ], [ 72.970465526876367, 23.017595518166388 ], [ 72.956665749415549, 23.010520179286342 ], [ 72.944275073800966, 23.011190615984567 ], [ 72.946336501663822, 23.023714380577054 ], [ 72.936817510942163, 23.036055599666081 ], [ 72.938877063122717, 23.041965866576078 ], [ 72.958802518082948, 23.047626346018031 ], [ 72.964215364438147, 23.057668598160411 ], [ 72.958319120255538, 23.060964727950431 ], [ 72.958511834935123, 23.064679857122535 ], [ 72.963966951515999, 23.066153889243072 ], [ 72.963844276682465, 23.070269290084639 ], [ 72.96096454827449, 23.073675473944952 ], [ 72.945205326888356, 23.073232729896585 ], [ 72.93973709580267, 23.074578499813406 ], [ 72.939041340733652, 23.077622544504816 ] ] ] } },
{ "type": "Feature", "properties": { "Block": "Mehmedabad", "District": "Kheda", "lon": 72.7968, "lat": 22.862 }, "geometry": { "type": "MultiPolygon", "coordinates": [ [ [ [ 72.848556830534946, 22.976157636713108 ], [ 72.837754412275274, 22.980271993499837 ], [ 72.842654663759674, 22.967014460719792 ], [ 72.840826525681138, 22.962774900342577 ], [ 72.838351848533094, 22.964135977994456 ], [ 72.827104014114525, 22.954323365274316 ], [ 72.825297403263491, 22.956859845640274 ], [ 72.819367664497207, 22.953796652078459 ], [ 72.810498428813801, 22.943124958974789 ], [ 72.804399122257877, 22.941102470896187 ], [ 72.805257354714016, 22.93322914774696 ], [ 72.796989202448472, 22.931784074057568 ], [ 72.79895994358678, 22.920232702646143 ], [ 72.788948466781974, 22.91509909659208 ], [ 72.79124021729379, 22.907850522834714 ], [ 72.760103250395176, 22.90689064113721 ], [ 72.757394949289491, 22.910017672272765 ], [ 72.742046047782438, 22.905618664540466 ], [ 72.741190765393682, 22.909275806609298 ], [ 72.736510325371114, 22.908161525959859 ], [ 72.737655178793418, 22.913337919067356 ], [ 72.723997442046965, 22.914736372162185 ], [ 72.723636648984467, 22.909057488173438 ], [ 72.715428426026492, 22.908120112151327 ], [ 72.707172191709844, 22.890247485385274 ], [ 72.69902310574534, 22.883955087644349 ], [ 72.688605530244971, 22.880031946072371 ], [ 72.67750722310042, 22.880758368311305 ], [ 72.680300811157494, 22.872769540234042 ], [ 72.679273893057299, 22.859168833699496 ], [ 72.678409892518701, 22.853465545447445 ], [ 72.672213680201494, 22.850779310931234 ], [ 72.672677063564379, 22.847734823591505 ], [ 72.674642417505936, 22.843477175570193 ], [ 72.686490020208765, 22.838768797086587 ], [ 72.689904035106707, 22.820063943276477 ], [ 72.684116715245551, 22.813972833676139 ], [ 72.664548640648036, 22.812872947728696 ], [ 72.671228187012318, 22.802417681837053 ], [ 72.687361458797895, 22.803050401243098 ], [ 72.693964987027869, 22.809216725746101 ], [ 72.704092940290735, 22.808140917407236 ], [ 72.711077183521269, 22.81117937460461 ], [ 72.715248152115279, 22.799353657089625 ], [ 72.707817455171678, 22.781893544691538 ], [ 72.72549362118697, 22.778070789965163 ], [ 72.724468719804605, 22.77424518984213 ], [ 72.730636189625983, 22.764015614551898 ], [ 72.73482553954733, 22.768318054852735 ], [ 72.744114641506314, 22.770112798668187 ], [ 72.750983517698188, 22.759198379921319 ], [ 72.760947726051043, 22.759630831378821 ], [ 72.758268059643356, 22.750960541597422 ], [ 72.751728427681229, 22.748380184208699 ], [ 72.757937720367309, 22.738673639926919 ], [ 72.764245490866415, 22.738583331360218 ], [ 72.764406195877456, 22.744624207779886 ], [ 72.777782875822624, 22.74256523185521 ], [ 72.790701646738242, 22.748491566696028 ], [ 72.796667242657392, 22.743135604846099 ], [ 72.799288878796062, 22.746333318810724 ], [ 72.798506288978416, 22.753332853150212 ], [ 72.803387873471195, 22.754590206022748 ], [ 72.807213626688025, 22.764849376559912 ], [ 72.828210630746739, 22.760509350138943 ], [ 72.832517899820488, 22.7632103641333 ], [ 72.834276949368814, 22.773861136501615 ], [ 72.85802376837745, 22.780407353997202 ], [ 72.856464870660943, 22.788136418122097 ], [ 72.867760297823239, 22.79181691954599 ], [ 72.866158150717368, 22.797076427713396 ], [ 72.874859370001602, 22.798837405453245 ], [ 72.880697960309277, 22.808426637516451 ], [ 72.894771324181463, 22.811504668492926 ], [ 72.895633935026268, 22.815743825008649 ], [ 72.88635705285013, 22.81755510450143 ], [ 72.887074134822328, 22.829862080436055 ], [ 72.89925441062428, 22.828361881445936 ], [ 72.899430674456099, 22.833102342745928 ], [ 72.891915334653149, 22.830909140980577 ], [ 72.891462694242747, 22.833410238496604 ], [ 72.895223227075022, 22.836570154616282 ], [ 72.89320125232112, 22.832380803061483 ], [ 72.896912706596169, 22.833341991326286 ], [ 72.895992917085167, 22.837342140678569 ], [ 72.898773867642845, 22.836601384709358 ], [ 72.904020821216179, 22.843160287192617 ], [ 72.917017302692074, 22.847220698311304 ], [ 72.914066507663648, 22.850720364701814 ], [ 72.914148554391801, 22.864846733732136 ], [ 72.936544252415899, 22.877963925254566 ], [ 72.93679072318038, 22.884311454759093 ], [ 72.945309463189389, 22.888402775542513 ], [ 72.943182274156143, 22.892462364305583 ], [ 72.929862427025739, 22.896521627213701 ], [ 72.908859777953793, 22.890540952059361 ], [ 72.910098291524221, 22.893931172695517 ], [ 72.917807688988077, 22.897071537110747 ], [ 72.913726670500097, 22.905108601200755 ], [ 72.918339435940723, 22.914127676423966 ], [ 72.885556538947625, 22.911510100276544 ], [ 72.872096627396417, 22.916399670715546 ], [ 72.880225821067313, 22.925234908911342 ], [ 72.877857503550544, 22.932074554383867 ], [ 72.879368761810923, 22.941613973850796 ], [ 72.885973642005396, 22.944503045571718 ], [ 72.87794569655189, 22.953031457039472 ], [ 72.875927653723991, 22.960101446114447 ], [ 72.879686819320412, 22.974286326517394 ], [ 72.867029999836603, 22.978475689555573 ], [ 72.860711269891027, 22.976809352682405 ], [ 72.856254627155224, 22.980488232084838 ], [ 72.848556830534946, 22.976157636713108 ] ] ], [ [ [ 72.837610165298528, 22.981331196694768 ], [ 72.838367958919378, 22.98168562963809 ], [ 72.838136188186184, 22.982096674026138 ], [ 72.837610165298528, 22.981331196694768 ] ] ] ] } },
{ "type": "Feature", "properties": { "Block": "Kheda", "District": "Kheda", "lon": 72.6194, "lat": 22.7784 }, "geometry": { "type": "Polygon", "coordinates": [ [ [ 72.643242821845817, 22.897802727394293 ], [ 72.634224400248243, 22.88995564095347 ], [ 72.633295800959232, 22.882395581431329 ], [ 72.620172227633603, 22.88429705847172 ], [ 72.61477348393008, 22.888147702641973 ], [ 72.607431161447494, 22.886463053983604 ], [ 72.605012570614207, 22.8786981781465 ], [ 72.598538071900066, 22.872102085075316 ], [ 72.599906847474884, 22.866561378105185 ], [ 72.606546293943197, 22.865816982895005 ], [ 72.608666626135857, 22.862637792828885 ], [ 72.602222044913944, 22.835640875170537 ], [ 72.60785364541384, 22.822822229474522 ], [ 72.608075142115126, 22.813469944059463 ], [ 72.597977567180209, 22.816289963905771 ], [ 72.597176000452194, 22.824802499423125 ], [ 72.583366371167656, 22.823421183421733 ], [ 72.581451582495134, 22.818961830324671 ], [ 72.570033156207515, 22.826650934088164 ], [ 72.550032475427059, 22.814850622401128 ], [ 72.547784127018204, 22.806414281314424 ], [ 72.538686144330867, 22.80594427200246 ], [ 72.522454636379067, 22.7960633923811 ], [ 72.519995802817689, 22.786044126002469 ], [ 72.514347664333371, 22.778762738072164 ], [ 72.529805040105956, 22.767201454476123 ], [ 72.521024683736755, 22.752644575243369 ], [ 72.539112398526427, 22.751717342218122 ], [ 72.535251874219867, 22.74564041352615 ], [ 72.524227554118767, 22.738771283102963 ], [ 72.523169583055818, 22.734711923990865 ], [ 72.540435268393608, 22.710019695080366 ], [ 72.523069675124859, 22.71251619061999 ], [ 72.518165960635059, 22.707558240513901 ], [ 72.518020005960977, 22.700479140163953 ], [ 72.52331923609394, 22.696181000272688 ], [ 72.544114617778732, 22.692922112603991 ], [ 72.541394778711506, 22.68565202264169 ], [ 72.526055065173196, 22.680498786012066 ], [ 72.529886804763095, 22.675744139639612 ], [ 72.54965243146799, 22.672830012595309 ], [ 72.548174598621046, 22.664795886967372 ], [ 72.5596992497927, 22.665090911576666 ], [ 72.565969020656979, 22.675437589177321 ], [ 72.574926437663592, 22.670086523026782 ], [ 72.577745653757432, 22.659094093593009 ], [ 72.582401065817848, 22.659408307151576 ], [ 72.578784735944879, 22.693177928033737 ], [ 72.583357533541886, 22.694527378262503 ], [ 72.588028667916404, 22.690269223873628 ], [ 72.58415261802682, 22.682894548591364 ], [ 72.58953563851793, 22.679195806713739 ], [ 72.602201964872393, 22.692407027630868 ], [ 72.590031093533099, 22.698010955440338 ], [ 72.590238280071915, 22.701184442349177 ], [ 72.600617153454877, 22.704754925213976 ], [ 72.611568189893447, 22.690530437175557 ], [ 72.61850534523343, 22.69032906573646 ], [ 72.618707912635045, 22.693807241671422 ], [ 72.610473493905076, 22.702890736534879 ], [ 72.611443536969674, 22.707538719195799 ], [ 72.631069512478831, 22.711916064589246 ], [ 72.640056046578735, 22.719098331081234 ], [ 72.661413223862425, 22.720388172796234 ], [ 72.663698307078178, 22.725055381760221 ], [ 72.660370830484837, 22.735633994753506 ], [ 72.674603648913234, 22.736878497111643 ], [ 72.689920284731869, 22.746058390125661 ], [ 72.69267616330994, 22.734513755145631 ], [ 72.701398175898049, 22.735371270129754 ], [ 72.705830715038203, 22.741349401097793 ], [ 72.705205630432573, 22.74731563182705 ], [ 72.713461073333434, 22.742922259868976 ], [ 72.709931131746401, 22.749761374813946 ], [ 72.711713259014374, 22.753201286312457 ], [ 72.730915892666133, 22.74257344615781 ], [ 72.742484912527999, 22.74212789222781 ], [ 72.756784442544301, 22.758281652127746 ], [ 72.749650002794894, 22.760231702293908 ], [ 72.744114641506314, 22.770112798668187 ], [ 72.728686459183891, 22.764835550783541 ], [ 72.729129949354828, 22.76884746462061 ], [ 72.723745343337228, 22.776254876736022 ], [ 72.72549362118697, 22.778070789965163 ], [ 72.707817455171678, 22.781893544691538 ], [ 72.715248152115279, 22.799353657089625 ], [ 72.711077183521269, 22.81117937460461 ], [ 72.704092940290735, 22.808140917407236 ], [ 72.693964987027869, 22.809216725746101 ], [ 72.687361458797895, 22.803050401243098 ], [ 72.671228187012318, 22.802417681837053 ], [ 72.664548640648036, 22.812872947728696 ], [ 72.684116715245551, 22.813972833676139 ], [ 72.689904035106707, 22.820063943276477 ], [ 72.686490020208765, 22.838768797086587 ], [ 72.674642417505936, 22.843477175570193 ], [ 72.672677063564379, 22.847734823591505 ], [ 72.672213680201494, 22.850779310931234 ], [ 72.678409892518701, 22.853465545447445 ], [ 72.680046426235336, 22.874614561004531 ], [ 72.677886254658134, 22.881467039838434 ], [ 72.673877566720208, 22.880379375100905 ], [ 72.670297041897797, 22.883359879638427 ], [ 72.667756087048076, 22.888289839845211 ], [ 72.670784045562812, 22.891515497257636 ], [ 72.666978540372455, 22.895867463275948 ], [ 72.647814060865784, 22.894268499002028 ], [ 72.643242821845817, 22.897802727394293 ] ] ] } },
{ "type": "Feature", "properties": { "Block": "Matar", "District": "Kheda", "lon": 72.6104, "lat": 22.6299 }, "geometry": { "type": "Polygon", "coordinates": [ [ [ 72.7608653442513, 22.75921082537338 ], [ 72.754685579188617, 22.758069246985865 ], [ 72.742484912527999, 22.74212789222781 ], [ 72.730915892666133, 22.74257344615781 ], [ 72.711713259014374, 22.753201286312457 ], [ 72.709931131746401, 22.749761374813946 ], [ 72.713461073333434, 22.742922259868976 ], [ 72.705205630432573, 22.74731563182705 ], [ 72.705830715038203, 22.741349401097793 ], [ 72.701398175898049, 22.735371270129754 ], [ 72.69267616330994, 22.734513755145631 ], [ 72.689920284731869, 22.746058390125661 ], [ 72.674603648913234, 22.736878497111643 ], [ 72.660370830484837, 22.735633994753506 ], [ 72.663698307078178, 22.725055381760221 ], [ 72.661413223862425, 22.720388172796234 ], [ 72.640056046578735, 22.719098331081234 ], [ 72.631069512478831, 22.711916064589246 ], [ 72.611443536969674, 22.707538719195799 ], [ 72.610473493905076, 22.702890736534879 ], [ 72.618707912635045, 22.693807241671422 ], [ 72.61850534523343, 22.69032906573646 ], [ 72.611568189893447, 22.690530437175557 ], [ 72.600617153454877, 22.704754925213976 ], [ 72.590238280071915, 22.701184442349177 ], [ 72.590031093533099, 22.698010955440338 ], [ 72.602201964872393, 22.692407027630868 ], [ 72.58953563851793, 22.679195806713739 ], [ 72.58415261802682, 22.682894548591364 ], [ 72.588028667916404, 22.690269223873628 ], [ 72.583357533541886, 22.694527378262503 ], [ 72.578784735944879, 22.693177928033737 ], [ 72.582401065817848, 22.659408307151576 ], [ 72.577745653757432, 22.659094093593009 ], [ 72.574926437663592, 22.670086523026782 ], [ 72.565969020656979, 22.675437589177321 ], [ 72.55908779622321, 22.661830968195844 ], [ 72.569282955147429, 22.653386711229842 ], [ 72.549834810131941, 22.650652838456882 ], [ 72.541554170385623, 22.654325548157995 ], [ 72.536679605328501, 22.651753008531305 ], [ 72.531697376286218, 22.642813190961974 ], [ 72.535459970752086, 22.626158221229069 ], [ 72.523645878802611, 22.629462213836618 ], [ 72.521558140183416, 22.626113789817694 ], [ 72.517437240988386, 22.632604160127592 ], [ 72.508409630523772, 22.630424909760457 ], [ 72.505130520123615, 22.613915678016475 ], [ 72.515709638763212, 22.611820847254616 ], [ 72.52051628669328, 22.599871597088907 ], [ 72.525491459468995, 22.597741148504799 ], [ 72.525236300199069, 22.587996158444227 ], [ 72.532996993262287, 22.587886955468836 ], [ 72.532375596240925, 22.569954665886659 ], [ 72.553796117328531, 22.568272433692073 ], [ 72.551463403639758, 22.560856124143331 ], [ 72.552518924996903, 22.555879309185435 ], [ 72.557495173056012, 22.552630692269776 ], [ 72.557007649266467, 22.542508913148815 ], [ 72.56738389058566, 22.543421717237827 ], [ 72.567007140748785, 22.52045672010242 ], [ 72.57311477109414, 22.521763645080277 ], [ 72.57436562033007, 22.515465813443825 ], [ 72.571874486944296, 22.512056262312253 ], [ 72.577034825856259, 22.503587178885677 ], [ 72.599461093549451, 22.500655828322561 ], [ 72.60444182689676, 22.504868069872931 ], [ 72.604787035985694, 22.509466954253718 ], [ 72.6174593226621, 22.513136782542396 ], [ 72.635794815265015, 22.503740678786404 ], [ 72.640420776058832, 22.505007962889142 ], [ 72.638020773165422, 22.507608694891537 ], [ 72.650269618271366, 22.510140554034312 ], [ 72.65227087967142, 22.500903947642268 ], [ 72.671406790057091, 22.50582763859407 ], [ 72.667024304146281, 22.53019387926766 ], [ 72.641640477110585, 22.529217951727155 ], [ 72.64053606224914, 22.535785802370892 ], [ 72.64903841878396, 22.548322680818941 ], [ 72.660631664412406, 22.5534629701515 ], [ 72.659952582075064, 22.558849285510416 ], [ 72.669943461408721, 22.563181521419121 ], [ 72.667933507011668, 22.572938215708295 ], [ 72.670888960703152, 22.573931663957637 ], [ 72.674719756163668, 22.586404090856028 ], [ 72.69074591103815, 22.59071462391822 ], [ 72.69682347297433, 22.582051521147115 ], [ 72.710506699416925, 22.589631159582165 ], [ 72.705161904037794, 22.599895760580313 ], [ 72.693903701264247, 22.599397624901631 ], [ 72.693858904975954, 22.602829021509031 ], [ 72.688801280331916, 22.60550075409795 ], [ 72.685060101702433, 22.629631646002316 ], [ 72.707900509809576, 22.634179925641309 ], [ 72.714292840523015, 22.630802205018487 ], [ 72.714295049480313, 22.624528549586348 ], [ 72.717331246444488, 22.624665228389947 ], [ 72.718943161830722, 22.630758270109865 ], [ 72.728813449524026, 22.630070385314301 ], [ 72.733490940377493, 22.639984147582449 ], [ 72.740144541599733, 22.645627791077779 ], [ 72.740894636658609, 22.65851699896584 ], [ 72.748881230862949, 22.673265987128488 ], [ 72.735258311918628, 22.678238437524474 ], [ 72.72802734010709, 22.68881090397738 ], [ 72.734382968352946, 22.697000998527109 ], [ 72.75679027530542, 22.691579362177748 ], [ 72.75733941993019, 22.698180379226802 ], [ 72.762017131769227, 22.695858675409077 ], [ 72.762719230740814, 22.700048911580673 ], [ 72.768497418328764, 22.702987430683965 ], [ 72.774563906732425, 22.731457003434741 ], [ 72.767573417515706, 22.733804545051505 ], [ 72.768505203129024, 22.743543476017422 ], [ 72.763905091357472, 22.744253657912424 ], [ 72.763676321895659, 22.738221795751894 ], [ 72.757937720367309, 22.738673639926919 ], [ 72.751870470192287, 22.747332810430439 ], [ 72.758268059643356, 22.750960541597422 ], [ 72.7608653442513, 22.75921082537338 ] ] ] } },
{ "type": "Feature", "properties": { "Block": "Nadiad", "District": "Kheda", "lon": 72.8623, "lat": 22.6835 }, "geometry": { "type": "Polygon", "coordinates": [ [ [ 72.914035373852542, 22.781584608192254 ], [ 72.897062116190838, 22.776875378062158 ], [ 72.888432268055951, 22.768637290826092 ], [ 72.890152641538052, 22.753917679088069 ], [ 72.887118292408417, 22.751241885642848 ], [ 72.868221200039315, 22.759976141456647 ], [ 72.870116322793621, 22.765377457877854 ], [ 72.861184911116183, 22.76479539133102 ], [ 72.866434984538486, 22.773039366813311 ], [ 72.858601030270592, 22.774517528913119 ], [ 72.855044355719002, 22.779797580444683 ], [ 72.834276949368814, 22.773861136501615 ], [ 72.832517899820488, 22.7632103641333 ], [ 72.828210630746739, 22.760509350138943 ], [ 72.807213626688025, 22.764849376559912 ], [ 72.803387873471195, 22.754590206022748 ], [ 72.798506288978416, 22.753332853150212 ], [ 72.799288878796062, 22.746333318810724 ], [ 72.796667242657392, 22.743135604846099 ], [ 72.791830847915008, 22.748541712768962 ], [ 72.777782875822624, 22.74256523185521 ], [ 72.768505203129024, 22.743543476017422 ], [ 72.767324808760847, 22.734332675112963 ], [ 72.77515465593126, 22.728933579084384 ], [ 72.771085555392133, 22.723125032379894 ], [ 72.768497418328764, 22.702987430683965 ], [ 72.762719230740814, 22.700048911580673 ], [ 72.762017131769227, 22.695858675409077 ], [ 72.75733941993019, 22.698180379226802 ], [ 72.75679027530542, 22.691579362177748 ], [ 72.734382968352946, 22.697000998527109 ], [ 72.72802734010709, 22.68881090397738 ], [ 72.735258311918628, 22.678238437524474 ], [ 72.748881230862949, 22.673265987128488 ], [ 72.740894636658609, 22.65851699896584 ], [ 72.740144541599733, 22.645627791077779 ], [ 72.750518726675239, 22.636056036597083 ], [ 72.761017160432644, 22.634160708116738 ], [ 72.767772370096637, 22.637888194281775 ], [ 72.771748072795631, 22.63550707004374 ], [ 72.784053311440218, 22.643478725689519 ], [ 72.7965403897595, 22.639927812377781 ], [ 72.806929665633433, 22.620272704902224 ], [ 72.826572564504247, 22.626401153043911 ], [ 72.834507842447977, 22.614794544189806 ], [ 72.820783576471626, 22.606645819546102 ], [ 72.823019448179494, 22.603224365383195 ], [ 72.82669196408024, 22.603710485416681 ], [ 72.826321387465967, 22.596115130228181 ], [ 72.830574063224972, 22.594197090545073 ], [ 72.850655633703497, 22.60160348817238 ], [ 72.849833902492293, 22.605644053038048 ], [ 72.856463941802943, 22.609413725623511 ], [ 72.853225788291539, 22.61842949021354 ], [ 72.871289084176837, 22.620831656267239 ], [ 72.874271195374376, 22.603782098933188 ], [ 72.862430008439304, 22.601321451313954 ], [ 72.86241203045553, 22.594303836074836 ], [ 72.859250659544713, 22.591913746299767 ], [ 72.86724551735135, 22.582334376321409 ], [ 72.897622048683857, 22.594855661712437 ], [ 72.900781264536306, 22.590246866361685 ], [ 72.917445667928575, 22.594626400198614 ], [ 72.92504625785196, 22.605891560669303 ], [ 72.929814004238665, 22.629072936875914 ], [ 72.961508573400423, 22.635974278229771 ], [ 72.962810745185138, 22.633811650641462 ], [ 72.975152357513849, 22.641611320320049 ], [ 72.976349823465682, 22.652775115514206 ], [ 72.984897796450653, 22.653581055504958 ], [ 72.997366072132735, 22.699936596275062 ], [ 73.009242801810316, 22.705250434654165 ], [ 73.002948465616328, 22.723130726450833 ], [ 73.011013614797307, 22.727412195517278 ], [ 73.02175693379273, 22.72533770049813 ], [ 73.025332477456871, 22.732909240899396 ], [ 73.023366282692209, 22.738983400931165 ], [ 73.018569379686355, 22.736044555286774 ], [ 73.01952474517752, 22.73862860702571 ], [ 73.014910457092455, 22.737381177752727 ], [ 73.011175797537021, 22.743937785673904 ], [ 73.007800333839484, 22.74282076561207 ], [ 73.00709745063871, 22.745652793937062 ], [ 73.005187214628023, 22.743325438407595 ], [ 73.002871273383946, 22.766446639008041 ], [ 72.989676466351227, 22.765068831890932 ], [ 72.972432108814886, 22.755473634789144 ], [ 72.962826330057013, 22.761495105767175 ], [ 72.958179638841344, 22.772919849848559 ], [ 72.948407895436432, 22.770721346538821 ], [ 72.946295790913453, 22.774257474892838 ], [ 72.940215315740815, 22.768606735969023 ], [ 72.928913791712674, 22.780993682344349 ], [ 72.919561124065851, 22.775937068294777 ], [ 72.914035373852542, 22.781584608192254 ] ] ] } },
{ "type": "Feature", "properties": { "Block": "Mahudha", "District": "Kheda", "lon": 72.9768, "lat": 22.8036 }, "geometry": { "type": "Polygon", "coordinates": [ [ [ 73.055792920420032, 22.890974698731309 ], [ 73.048566750103717, 22.882736628425118 ], [ 73.050743801923417, 22.875148502107695 ], [ 73.046403206250957, 22.874776245360831 ], [ 73.045894383406008, 22.878346997230555 ], [ 73.032556946364039, 22.889612971010717 ], [ 73.021637079669205, 22.881629703394278 ], [ 73.023460930088859, 22.865479309432285 ], [ 73.017289585833666, 22.857495796822629 ], [ 73.018305264213026, 22.85199504441314 ], [ 73.012468697809709, 22.846367747461994 ], [ 73.000144782292082, 22.85215832189666 ], [ 73.002310394964951, 22.859865400968474 ], [ 72.996366933534375, 22.866209328152912 ], [ 72.998556968704889, 22.869415437580514 ], [ 72.996154383155016, 22.872940064753422 ], [ 73.000748963999342, 22.87343584660788 ], [ 72.998347877737686, 22.875097678411045 ], [ 72.983189350798909, 22.867918058719681 ], [ 72.980030092725627, 22.857830652521578 ], [ 72.976404322457356, 22.856940783145284 ], [ 72.968329981714362, 22.860442613883254 ], [ 72.965154990547219, 22.86814826717076 ], [ 72.968640213999407, 22.873458881681891 ], [ 72.965053363240813, 22.875483784414048 ], [ 72.961737120978384, 22.870455917166854 ], [ 72.944572156546897, 22.867857208738851 ], [ 72.940106683371823, 22.867799405535912 ], [ 72.934765466880762, 22.876916868699158 ], [ 72.923616572009294, 22.871887129308142 ], [ 72.913700043536764, 22.863646021907741 ], [ 72.914066507663648, 22.850720364701814 ], [ 72.917017302692074, 22.847220698311304 ], [ 72.904020821216179, 22.843160287192617 ], [ 72.898773867642845, 22.836601384709358 ], [ 72.895992917085167, 22.837342140678569 ], [ 72.896912706596169, 22.833341991326286 ], [ 72.89320125232112, 22.832380803061483 ], [ 72.895223227075022, 22.836570154616282 ], [ 72.891462694242747, 22.833410238496604 ], [ 72.891915334653149, 22.830909140980577 ], [ 72.899430674456099, 22.833102342745928 ], [ 72.89925441062428, 22.828361881445936 ], [ 72.887074134822328, 22.829862080436055 ], [ 72.88635705285013, 22.81755510450143 ], [ 72.895633935026268, 22.815743825008649 ], [ 72.894771324181463, 22.811504668492926 ], [ 72.880697960309277, 22.808426637516451 ], [ 72.874859370001602, 22.798837405453245 ], [ 72.866158150717368, 22.797076427713396 ], [ 72.867760297823239, 22.79181691954599 ], [ 72.856464870660943, 22.788136418122097 ], [ 72.858170653706182, 22.77498810707738 ], [ 72.866434984538486, 22.773039366813311 ], [ 72.861184911116183, 22.76479539133102 ], [ 72.870116322793621, 22.765377457877854 ], [ 72.868221200039315, 22.759976141456647 ], [ 72.887118292408417, 22.751241885642848 ], [ 72.890152641538052, 22.753917679088069 ], [ 72.888432268055951, 22.768637290826092 ], [ 72.897062116190838, 22.776875378062158 ], [ 72.911978893910273, 22.78166982615501 ], [ 72.919561124065851, 22.775937068294777 ], [ 72.928913791712674, 22.780993682344349 ], [ 72.940215315740815, 22.768606735969023 ], [ 72.946295790913453, 22.774257474892838 ], [ 72.948407895436432, 22.770721346538821 ], [ 72.958179638841344, 22.772919849848559 ], [ 72.962826330057013, 22.761495105767175 ], [ 72.972432108814886, 22.755473634789144 ], [ 72.989676466351227, 22.765068831890932 ], [ 73.002871273383946, 22.766446639008041 ], [ 73.005187214628023, 22.743325438407595 ], [ 73.007675848002378, 22.745698348106643 ], [ 73.007800333839484, 22.74282076561207 ], [ 73.014274925978427, 22.741289100191892 ], [ 73.014910457092455, 22.737381177752727 ], [ 73.01910622727317, 22.738968969393273 ], [ 73.019809377273589, 22.736098473996627 ], [ 73.023366282692209, 22.738983400931165 ], [ 73.024852064731121, 22.734740089521672 ], [ 73.032184326980811, 22.73424165860612 ], [ 73.033824279685419, 22.730118983298802 ], [ 73.038404531502636, 22.729316089204232 ], [ 73.035880248486279, 22.723003747452946 ], [ 73.041567078308162, 22.716853970621269 ], [ 73.044010082655944, 22.716739358883693 ], [ 73.043775836165821, 22.713454860495563 ], [ 73.047417093389612, 22.717212904479695 ], [ 73.057732783767079, 22.718833852003023 ], [ 73.051365722662595, 22.735522779919169 ], [ 73.060581018139501, 22.737486426681837 ], [ 73.063003021672571, 22.740931132555929 ], [ 73.05892159714611, 22.767282550576926 ], [ 73.063273088484664, 22.768602581144069 ], [ 73.05937373988985, 22.77887196468587 ], [ 73.063619657622951, 22.788309439714013 ], [ 73.060131521832602, 22.792777633824379 ], [ 73.070749036264047, 22.797188065285383 ], [ 73.082386569734311, 22.812117232367182 ], [ 73.078635205107844, 22.817484217114412 ], [ 73.080917002286299, 22.824202660650066 ], [ 73.079005908384559, 22.830184164479085 ], [ 73.088184379223037, 22.838380745547802 ], [ 73.081666283471534, 22.841972775414032 ], [ 73.078337167452759, 22.849529415592482 ], [ 73.082846956317425, 22.868167262266152 ], [ 73.089583529532575, 22.871798738999399 ], [ 73.091023061809068, 22.88187580218656 ], [ 73.095791642730674, 22.887894870372421 ], [ 73.055792920420032, 22.890974698731309 ] ], [ [ 73.042101448341455, 22.717842221189134 ], [ 73.042374975464, 22.718171842509413 ], [ 73.042523591846276, 22.718111175077077 ], [ 73.042101448341455, 22.717842221189134 ] ] ] } },
{ "type": "Feature", "properties": { "Block": "Thasra", "District": "Kheda", "lon": 73.2091, "lat": 22.795 }, "geometry": { "type": "Polygon", "coordinates": [ [ [ 73.248682621468689, 22.964526836115848 ], [ 73.237494155808946, 22.963586954882771 ], [ 73.230670277127984, 22.958946110908528 ], [ 73.231515935865076, 22.943379111107081 ], [ 73.228488250438232, 22.942387932878514 ], [ 73.234976906601233, 22.937440090740463 ], [ 73.241235242810262, 22.920401922292559 ], [ 73.220162879980677, 22.92148133400001 ], [ 73.2131824141659, 22.919200919252784 ], [ 73.210893636179378, 22.914393977474084 ], [ 73.205592377650476, 22.915800813834107 ], [ 73.201036155767085, 22.9077939902757 ], [ 73.187001787761375, 22.907985234399689 ], [ 73.18833026581089, 22.893573838603146 ], [ 73.184927856248081, 22.890586478477051 ], [ 73.174500394788041, 22.889556149473705 ], [ 73.173895984908668, 22.885548286701134 ], [ 73.171801070546991, 22.889484796452834 ], [ 73.155176299926723, 22.888924252820456 ], [ 73.146011789806082, 22.892095074898478 ], [ 73.12744263192306, 22.893134635054459 ], [ 73.120494553069207, 22.888863679562053 ], [ 73.118175054496618, 22.893315094454742 ], [ 73.097321246385761, 22.88966477326365 ], [ 73.092941972850397, 22.885244096713325 ], [ 73.089583529532575, 22.871798738999399 ], [ 73.082846956317425, 22.868167262266152 ], [ 73.078337167452759, 22.849529415592482 ], [ 73.081666283471534, 22.841972775414032 ], [ 73.088184379223037, 22.838380745547802 ], [ 73.079005908384559, 22.830184164479085 ], [ 73.080917002286299, 22.824202660650066 ], [ 73.078635205107844, 22.817484217114412 ], [ 73.082386569734311, 22.812117232367182 ], [ 73.070749036264047, 22.797188065285383 ], [ 73.060131521832602, 22.792777633824379 ], [ 73.063619657622951, 22.788309439714013 ], [ 73.05937373988985, 22.77887196468587 ], [ 73.063273088484664, 22.768602581144069 ], [ 73.05892159714611, 22.767282550576926 ], [ 73.063003021672571, 22.740931132555929 ], [ 73.060581018139501, 22.737486426681837 ], [ 73.051365722662595, 22.735522779919169 ], [ 73.0580441245732, 22.719113866772972 ], [ 73.064750762329808, 22.717490373718377 ], [ 73.095970664390364, 22.728362628997331 ], [ 73.099547403712165, 22.72552736902599 ], [ 73.096306735816256, 22.723186164913873 ], [ 73.096897475133616, 22.718246305603671 ], [ 73.124197477840653, 22.722532439213442 ], [ 73.135868841864507, 22.717822631733309 ], [ 73.140893128231752, 22.712445699465 ], [ 73.149632737917926, 22.690137171212296 ], [ 73.157957377146857, 22.681316461198165 ], [ 73.182791905047594, 22.687016101691171 ], [ 73.201707661713314, 22.683316864315525 ], [ 73.20075671144177, 22.669403148907115 ], [ 73.194540306793598, 22.670398407874725 ], [ 73.207114006062469, 22.651945867856288 ], [ 73.212343485606894, 22.651633440339193 ], [ 73.21182517026439, 22.644538545436156 ], [ 73.218117680183425, 22.637243728326684 ], [ 73.216144392321311, 22.634387438751293 ], [ 73.219747273516177, 22.625941121182056 ], [ 73.239317129472866, 22.645817264844371 ], [ 73.260294057981639, 22.656724584786339 ], [ 73.269270389914865, 22.666396201659229 ], [ 73.265053338645089, 22.691364019839853 ], [ 73.255083598466726, 22.705618723426436 ], [ 73.251891833058266, 22.71932191179696 ], [ 73.253650393024756, 22.742648992035853 ], [ 73.259182607514887, 22.750440691265894 ], [ 73.254802146406718, 22.762245637859991 ], [ 73.258093877238309, 22.76977433036674 ], [ 73.262882203129848, 22.776266851005332 ], [ 73.274868550628312, 22.782514265530565 ], [ 73.315614068485786, 22.781500218412415 ], [ 73.363314990059891, 22.798788694789572 ], [ 73.362758031888774, 22.811696735446525 ], [ 73.371747611277513, 22.822537707852504 ], [ 73.373130605386649, 22.836424611955753 ], [ 73.381938505000775, 22.848054332986575 ], [ 73.384929657741665, 22.860212379960029 ], [ 73.382034062390787, 22.87055536469251 ], [ 73.367362012704262, 22.887259858373774 ], [ 73.36694247251711, 22.898135638324479 ], [ 73.383598901564596, 22.915729757597049 ], [ 73.41938161914274, 22.940277433076854 ], [ 73.410003315374382, 22.955508848344461 ], [ 73.392775298193072, 22.95185925112607 ], [ 73.384810582457476, 22.958126244099649 ], [ 73.371161325807336, 22.940072415809894 ], [ 73.362972755292816, 22.937950038176691 ], [ 73.349439747826963, 22.92456245147439 ], [ 73.329441852722212, 22.928110844418242 ], [ 73.32515520267917, 22.935251675678664 ], [ 73.311855456251564, 22.942677957801507 ], [ 73.303669392935021, 22.93726150266712 ], [ 73.302082837887554, 22.93278218587648 ], [ 73.279134405570844, 22.935401879302642 ], [ 73.261092963001445, 22.92658187139746 ], [ 73.257160701032959, 22.931409607421784 ], [ 73.259412400157828, 22.943009372850995 ], [ 73.25708302101539, 22.953716307443809 ], [ 73.248682621468689, 22.964526836115848 ] ] ] } },
{ "type": "Feature", "properties": { "Block": "Virpur", "District": "Mahisagar", "lon": 73.4603, "lat": 23.202 }, "geometry": { "type": "MultiPolygon", "coordinates": [ [ [ [ 73.363856798143729, 23.131490587641597 ], [ 73.363718579760857, 23.131982050178884 ], [ 73.363244889128367, 23.13173919518286 ], [ 73.363856798143729, 23.131490587641597 ] ] ], [ [ [ 73.472638090743118, 23.288018842473289 ], [ 73.460611110647733, 23.287213308136693 ], [ 73.406356768870168, 23.261437654727445 ], [ 73.373480180287913, 23.236692654652465 ], [ 73.384201175250183, 23.220246161425081 ], [ 73.354494116976468, 23.210790042774402 ], [ 73.350795425964961, 23.203419052699452 ], [ 73.341087135958432, 23.200627234185951 ], [ 73.346710496212225, 23.189450512805916 ], [ 73.341609404786524, 23.181982524645111 ], [ 73.349836751080275, 23.184042734750125 ], [ 73.355596771139943, 23.176777166355478 ], [ 73.37444537514493, 23.171458565014365 ], [ 73.375243838193654, 23.16874865695808 ], [ 73.37015428742437, 23.165418907112372 ], [ 73.36905397606715, 23.146897633859133 ], [ 73.373404913145208, 23.138481935685675 ], [ 73.364354894205832, 23.131454924251734 ], [ 73.366672160464972, 23.117261359223662 ], [ 73.37473291329097, 23.118390828271711 ], [ 73.381203296822775, 23.133904290857199 ], [ 73.389408678409524, 23.140551522335588 ], [ 73.404742881681869, 23.147546971458851 ], [ 73.412627969852394, 23.147620025913227 ], [ 73.425985618988236, 23.156509758727207 ], [ 73.435283953831728, 23.146293468142748 ], [ 73.433498031181657, 23.142570697622503 ], [ 73.439245405657076, 23.140970350424549 ], [ 73.457102597473451, 23.153167230906604 ], [ 73.481233488486893, 23.153714894832738 ], [ 73.484129801591635, 23.149931818194222 ], [ 73.495609451659135, 23.150805365090132 ], [ 73.495537300772156, 23.147760394032971 ], [ 73.503419226872865, 23.144220934524867 ], [ 73.512127986615553, 23.145182353435327 ], [ 73.522973182649025, 23.154193737059781 ], [ 73.519972167304644, 23.162214522291414 ], [ 73.522068541428695, 23.165963209153684 ], [ 73.517674108822945, 23.167066908578889 ], [ 73.519347245294099, 23.17167769822035 ], [ 73.527722043753542, 23.174374872947709 ], [ 73.533973183558814, 23.181295109252069 ], [ 73.531081614457079, 23.188064842988627 ], [ 73.544346161298549, 23.192943418531584 ], [ 73.543050876897141, 23.194927182893355 ], [ 73.54652950491851, 23.190069523738554 ], [ 73.553489696655632, 23.19288081844147 ], [ 73.567557518820848, 23.192309757751328 ], [ 73.57540406028248, 23.198992015564531 ], [ 73.572397676605974, 23.212719299894584 ], [ 73.559752987073438, 23.203753793976546 ], [ 73.553260091760606, 23.203399489694672 ], [ 73.556228821653676, 23.208851241716513 ], [ 73.550186239216345, 23.2116723954253 ], [ 73.542843248387214, 23.225715123138833 ], [ 73.548946000880576, 23.237106329838621 ], [ 73.559997306372821, 23.234566814109133 ], [ 73.575456932425183, 23.246197995616569 ], [ 73.571986303901397, 23.275354729214818 ], [ 73.567384762910237, 23.276479941496053 ], [ 73.548126184877546, 23.27021003163491 ], [ 73.54923719606812, 23.266857713273957 ], [ 73.5402574972492, 23.259104543120053 ], [ 73.540357943271019, 23.253294847767105 ], [ 73.530512519148147, 23.247894772319167 ], [ 73.522134564008823, 23.259107960719717 ], [ 73.52174229936864, 23.267571361393138 ], [ 73.531091060242275, 23.273084536845172 ], [ 73.525883440301953, 23.285493623509925 ], [ 73.487371517821458, 23.276063978048573 ], [ 73.474101609834335, 23.269037158765784 ], [ 73.475352962126792, 23.280649247352219 ], [ 73.472638090743118, 23.288018842473289 ] ] ] ] } },
{ "type": "Feature", "properties": { "Block": "Balasinor", "District": "Mahisagar", "lon": 73.3292, "lat": 23.0333 }, "geometry": { "type": "Polygon", "coordinates": [ [ [ 73.355623273237441, 23.138661751566875 ], [ 73.33534801161062, 23.128291847609869 ], [ 73.34046962235405, 23.111582929539836 ], [ 73.338840658740324, 23.107821919769108 ], [ 73.342158962636304, 23.103725006941762 ], [ 73.340768511611998, 23.100612913022537 ], [ 73.330626803345524, 23.098615399836685 ], [ 73.330067875168979, 23.093963320597517 ], [ 73.326400678193053, 23.091926578075579 ], [ 73.326063221564979, 23.081983685993514 ], [ 73.307235484525734, 23.085793329193525 ], [ 73.298941682663909, 23.083833442678042 ], [ 73.282996034805194, 23.06351806122893 ], [ 73.272664473891609, 23.058788609910756 ], [ 73.274985684653174, 23.050080059645985 ], [ 73.257042886085131, 23.039823970210094 ], [ 73.243814377856168, 23.037893521477148 ], [ 73.245624986210245, 23.028014241883056 ], [ 73.241504882922555, 23.018297357620032 ], [ 73.252384618280402, 23.007130353468039 ], [ 73.264107762095577, 23.000931750195306 ], [ 73.27102796802275, 22.981522656165552 ], [ 73.275174765647435, 22.978184509933119 ], [ 73.252862557944169, 22.968913806691742 ], [ 73.250331469291197, 22.964473973165244 ], [ 73.258759859443856, 22.948087809223733 ], [ 73.257160701032959, 22.931409607421784 ], [ 73.261092963001445, 22.92658187139746 ], [ 73.279134405570844, 22.935401879302642 ], [ 73.302082837887554, 22.93278218587648 ], [ 73.303669392935021, 22.93726150266712 ], [ 73.311855456251564, 22.942677957801507 ], [ 73.32515520267917, 22.935251675678664 ], [ 73.329441852722212, 22.928110844418242 ], [ 73.349439747826963, 22.92456245147439 ], [ 73.362972755292816, 22.937950038176691 ], [ 73.371161325807336, 22.940072415809894 ], [ 73.384810582457476, 22.958126244099649 ], [ 73.392775298193072, 22.95185925112607 ], [ 73.410003315374382, 22.955508848344461 ], [ 73.41938161914274, 22.940277433076854 ], [ 73.448754708946694, 22.968038214965471 ], [ 73.448606174311095, 22.977134320830043 ], [ 73.436607200092993, 22.996964968556544 ], [ 73.434794147423034, 23.02505177774329 ], [ 73.412866190489311, 23.02865923173675 ], [ 73.416644412946155, 23.047996979105761 ], [ 73.424540743532447, 23.053880213844316 ], [ 73.415007110271645, 23.064538526035673 ], [ 73.413920333830831, 23.076576255378363 ], [ 73.42171849203126, 23.08580441999975 ], [ 73.423120922089907, 23.098184899423444 ], [ 73.415157574488489, 23.106003014262697 ], [ 73.404188120789954, 23.105172988727247 ], [ 73.397198506532348, 23.101224074853572 ], [ 73.37612664316606, 23.103304041528144 ], [ 73.366161381089356, 23.118245626840082 ], [ 73.366376397344169, 23.129029884019019 ], [ 73.355623273237441, 23.138661751566875 ] ] ] } },
{ "type": "Feature", "properties": { "Block": "Khanpur", "District": "Mahisagar", "lon": 73.6254, "lat": 23.3225 }, "geometry": { "type": "Polygon", "coordinates": [ [ [ 73.692569713907517, 23.458332684189447 ], [ 73.685230074692711, 23.453515635679967 ], [ 73.673935682389612, 23.454030861633303 ], [ 73.661693522546017, 23.448672546155748 ], [ 73.647466824339659, 23.436374865992555 ], [ 73.646216792570684, 23.441343109064334 ], [ 73.63603716551772, 23.448984220080156 ], [ 73.627229509347075, 23.448492110264954 ], [ 73.620437398687798, 23.43269484387605 ], [ 73.631958800653081, 23.421414537571614 ], [ 73.623256182691961, 23.40060613760237 ], [ 73.615413690835609, 23.396798322879217 ], [ 73.611878861515095, 23.389068727322716 ], [ 73.593903661613069, 23.383295558910017 ], [ 73.594707390585981, 23.379448652150817 ], [ 73.587504457889409, 23.371725592044157 ], [ 73.586242900735328, 23.365017301827898 ], [ 73.575902982794645, 23.357866795592223 ], [ 73.57026437992711, 23.348535719949691 ], [ 73.56398869455505, 23.34604017332228 ], [ 73.564018154804799, 23.336270534160274 ], [ 73.557928612037657, 23.327514448881303 ], [ 73.557316887176924, 23.317399685714353 ], [ 73.54025241997121, 23.308201506324508 ], [ 73.534241381875077, 23.291902872082272 ], [ 73.525883440301953, 23.285493623509925 ], [ 73.531091060242275, 23.273084536845172 ], [ 73.52174229936864, 23.267571361393138 ], [ 73.522134564008823, 23.259107960719717 ], [ 73.530512519148147, 23.247894772319167 ], [ 73.540357943271019, 23.253294847767105 ], [ 73.5402574972492, 23.259104543120053 ], [ 73.54923719606812, 23.266857713273957 ], [ 73.548126184877546, 23.27021003163491 ], [ 73.567384762910237, 23.276479941496053 ], [ 73.572548304316186, 23.273774552883214 ], [ 73.575456932425183, 23.246197995616569 ], [ 73.559997306372821, 23.234566814109133 ], [ 73.548946000880576, 23.237106329838621 ], [ 73.542843248387214, 23.225715123138833 ], [ 73.550186239216345, 23.2116723954253 ], [ 73.555760515523019, 23.209849983078826 ], [ 73.552930952633758, 23.205669798811467 ], [ 73.555275337234676, 23.20221247379942 ], [ 73.572397676605974, 23.212719299894584 ], [ 73.576951711091624, 23.196324274471589 ], [ 73.606654494282949, 23.208142304223301 ], [ 73.63226050433282, 23.201066953635976 ], [ 73.650175350922481, 23.20616110388659 ], [ 73.663265631785407, 23.217997730543615 ], [ 73.660345255509128, 23.24068473332688 ], [ 73.668292889779579, 23.248619700808344 ], [ 73.684565531588248, 23.251843845866407 ], [ 73.712787055758128, 23.282677208522433 ], [ 73.713699792595818, 23.289494215581545 ], [ 73.709519006314054, 23.298672676762692 ], [ 73.695920652699471, 23.316623865834593 ], [ 73.68813266612301, 23.332934382636019 ], [ 73.694129871960357, 23.343054474818928 ], [ 73.690142135429809, 23.353641608139476 ], [ 73.698022453546145, 23.358921942639203 ], [ 73.699639304276573, 23.369127939514751 ], [ 73.703650453598399, 23.372169475832262 ], [ 73.689579463075191, 23.377468488112662 ], [ 73.687566404998819, 23.38396643595857 ], [ 73.692790410209895, 23.390929789580962 ], [ 73.699626729659229, 23.389779084198771 ], [ 73.716526641674577, 23.401887533513989 ], [ 73.724553276486077, 23.403909425214099 ], [ 73.720825728892734, 23.410056079254179 ], [ 73.713198823721427, 23.414318322850466 ], [ 73.711234323179397, 23.421786400033699 ], [ 73.708100854839643, 23.422242479640854 ], [ 73.710470641101864, 23.425285184991047 ], [ 73.708007347405086, 23.431082750350107 ], [ 73.711657846496522, 23.435427214865413 ], [ 73.705129067979655, 23.438121343578736 ], [ 73.706876399005083, 23.445562784095735 ], [ 73.704287704087918, 23.451359752570365 ], [ 73.692569713907517, 23.458332684189447 ] ] ] } },
{ "type": "Feature", "properties": { "Block": "Kadana", "District": "Mahisagar", "lon": 73.7794, "lat": 23.3144 }, "geometry": { "type": "Polygon", "coordinates": [ [ [ 73.767706228101019, 23.452845195310683 ], [ 73.755061299616614, 23.453743253392229 ], [ 73.756454253347314, 23.450096476266221 ], [ 73.750873661884199, 23.441933998620129 ], [ 73.735016383994918, 23.425415080852172 ], [ 73.728768697313626, 23.42313512486912 ], [ 73.720825728892734, 23.410056079254179 ], [ 73.723527315989998, 23.402406250106445 ], [ 73.716526641674577, 23.401887533513989 ], [ 73.699626729659229, 23.389779084198771 ], [ 73.692790410209895, 23.390929789580962 ], [ 73.687566404998819, 23.38396643595857 ], [ 73.689579463075191, 23.377468488112662 ], [ 73.698473079035395, 23.375780818369496 ], [ 73.703767968508899, 23.37128945647072 ], [ 73.699639304276573, 23.369127939514751 ], [ 73.698022453546145, 23.358921942639203 ], [ 73.690142135429809, 23.353641608139476 ], [ 73.694129871960357, 23.343054474818928 ], [ 73.688451972290736, 23.331394466943546 ], [ 73.713699792595818, 23.289494215581545 ], [ 73.712787055758128, 23.282677208522433 ], [ 73.697320820800215, 23.267147558236449 ], [ 73.720099179575783, 23.258221095204807 ], [ 73.736110079260087, 23.266926936874807 ], [ 73.74086808521416, 23.256886756649855 ], [ 73.743737959103498, 23.258507052750826 ], [ 73.744985411809296, 23.256111108113981 ], [ 73.743927951887756, 23.246872339802703 ], [ 73.748155747008326, 23.244318804008287 ], [ 73.750676411610741, 23.231089588452548 ], [ 73.743036694666827, 23.221236134545716 ], [ 73.729221317961105, 23.218709246792255 ], [ 73.72531688130853, 23.208473993733673 ], [ 73.730115562080343, 23.201453733354974 ], [ 73.743450067021243, 23.20237173189323 ], [ 73.756078500640385, 23.197599448560169 ], [ 73.768164429083015, 23.203408220142077 ], [ 73.774739558871943, 23.186127866742293 ], [ 73.79894680039628, 23.183304474511818 ], [ 73.813804444715458, 23.175277218011956 ], [ 73.842148389495634, 23.200528393259628 ], [ 73.843035852232816, 23.206112841368466 ], [ 73.840068359319886, 23.210241819009756 ], [ 73.848486880580822, 23.213250401460343 ], [ 73.847597657145698, 23.222145637787765 ], [ 73.851625619336346, 23.223432761009413 ], [ 73.851327127133729, 23.21972474332425 ], [ 73.853884397185666, 23.219316431559413 ], [ 73.856827564618996, 23.224780957855696 ], [ 73.862652574196204, 23.22106177416093 ], [ 73.865095173403787, 23.203519181156079 ], [ 73.860757137031555, 23.185353116780099 ], [ 73.869700024686779, 23.184612040471059 ], [ 73.871515361772481, 23.205874522276304 ], [ 73.874683825780792, 23.209421434201865 ], [ 73.885618479643526, 23.210252575882702 ], [ 73.881327517687126, 23.258463831179132 ], [ 73.865156769086198, 23.284920333429394 ], [ 73.858396174920358, 23.283882981489107 ], [ 73.853396471849209, 23.295833897961664 ], [ 73.84881066664687, 23.299437020859759 ], [ 73.856321531941376, 23.312173659246895 ], [ 73.860807780454024, 23.314806145828964 ], [ 73.863950719731832, 23.312070863535372 ], [ 73.871245882458638, 23.314078748764651 ], [ 73.871361871131455, 23.323475436049353 ], [ 73.88962711997074, 23.336296689495498 ], [ 73.892676070317009, 23.348202630609812 ], [ 73.887256827957017, 23.357202305719067 ], [ 73.875927396866246, 23.361521989530058 ], [ 73.872984125228328, 23.379381357243251 ], [ 73.867778866060576, 23.377969297496268 ], [ 73.869229245494154, 23.381829610616705 ], [ 73.861799198930825, 23.383549212629287 ], [ 73.863629256709075, 23.389411123206145 ], [ 73.830255741671209, 23.426158651175115 ], [ 73.833151530159824, 23.435750904051059 ], [ 73.828726998602164, 23.447618709250325 ], [ 73.818621541848941, 23.43838393034126 ], [ 73.803456048475141, 23.437695190159371 ], [ 73.794471827537066, 23.431039107693941 ], [ 73.786295698689258, 23.430148774251833 ], [ 73.778997088228408, 23.431229262933293 ], [ 73.776588871140007, 23.437712137319878 ], [ 73.77230684742068, 23.437744772260089 ], [ 73.767706228101019, 23.452845195310683 ] ] ] } },
{ "type": "Feature", "properties": { "Block": "Santrampur", "District": "Mahisagar", "lon": 73.9257, "lat": 23.2159 }, "geometry": { "type": "Polygon", "coordinates": [ [ [ 73.96237026353252, 23.380828940980702 ], [ 73.938008889071739, 23.367853496709355 ], [ 73.939410752293412, 23.344326370567142 ], [ 73.935658341129624, 23.339646010406341 ], [ 73.916364289524708, 23.335177137559931 ], [ 73.88741411487841, 23.335705643648787 ], [ 73.880505269944607, 23.327580260560758 ], [ 73.871361871131455, 23.323475436049353 ], [ 73.871245882458638, 23.314078748764651 ], [ 73.863950719731832, 23.312070863535372 ], [ 73.860807780454024, 23.314806145828964 ], [ 73.850917491770943, 23.304895529154308 ], [ 73.84881066664687, 23.299437020859759 ], [ 73.853396471849209, 23.295833897961664 ], [ 73.858396174920358, 23.283882981489107 ], [ 73.865156769086198, 23.284920333429394 ], [ 73.881327517687126, 23.258463831179132 ], [ 73.885618479643526, 23.210252575882702 ], [ 73.874683825780792, 23.209421434201865 ], [ 73.871515361772481, 23.205874522276304 ], [ 73.869700024686779, 23.184612040471059 ], [ 73.860757137031555, 23.185353116780099 ], [ 73.865095173403787, 23.203519181156079 ], [ 73.862652574196204, 23.22106177416093 ], [ 73.856827564618996, 23.224780957855696 ], [ 73.853884397185666, 23.219316431559413 ], [ 73.851327127133729, 23.21972474332425 ], [ 73.851625619336346, 23.223432761009413 ], [ 73.847597657145698, 23.222145637787765 ], [ 73.848486880580822, 23.213250401460343 ], [ 73.840068359319886, 23.210241819009756 ], [ 73.843035852232816, 23.206112841368466 ], [ 73.842148389495634, 23.200528393259628 ], [ 73.813804444715458, 23.175277218011956 ], [ 73.79894680039628, 23.183304474511818 ], [ 73.774739558871943, 23.186127866742293 ], [ 73.768164429083015, 23.203408220142077 ], [ 73.756078500640385, 23.197599448560169 ], [ 73.732933981368518, 23.20281031032771 ], [ 73.730115562080343, 23.201453733354974 ], [ 73.730966907153203, 23.182165783456384 ], [ 73.724019141811425, 23.178727260453662 ], [ 73.723343369765871, 23.172376405227208 ], [ 73.718687199527366, 23.170115100157364 ], [ 73.716291820262683, 23.162015712403193 ], [ 73.712231174667025, 23.16260385075714 ], [ 73.703232770228951, 23.155222193674696 ], [ 73.696701735144089, 23.155366660448088 ], [ 73.691173260340477, 23.150146478419661 ], [ 73.691559847628071, 23.140111086139118 ], [ 73.696012043703234, 23.139760957540211 ], [ 73.698906962622672, 23.133797468627087 ], [ 73.700021162832499, 23.109533230354064 ], [ 73.684446846172889, 23.109118050258626 ], [ 73.673381717405036, 23.104318399870735 ], [ 73.681581427927384, 23.096191754383327 ], [ 73.682019083540538, 23.092099049864132 ], [ 73.691526377298885, 23.093797785745348 ], [ 73.702858290434762, 23.082284925989857 ], [ 73.710633487696555, 23.072080619607007 ], [ 73.710366972823124, 23.063880209401248 ], [ 73.716758906481175, 23.05361009029847 ], [ 73.718909692460301, 23.061375906805473 ], [ 73.734019248639669, 23.063464578326947 ], [ 73.736921253470072, 23.067123426306512 ], [ 73.745819229852643, 23.064162184326641 ], [ 73.744728649944918, 23.069241990786665 ], [ 73.752587067134613, 23.073625009150796 ], [ 73.767593191292193, 23.072811905334341 ], [ 73.773864854008437, 23.075501986415002 ], [ 73.779234190462816, 23.083532976347819 ], [ 73.791045753654757, 23.089043292928178 ], [ 73.802249302926427, 23.099081026343356 ], [ 73.803983009203975, 23.107142664842282 ], [ 73.809530231847546, 23.108981391975952 ], [ 73.814780272930506, 23.103862937239459 ], [ 73.813781344537944, 23.101084925557249 ], [ 73.82212679234209, 23.099382466816309 ], [ 73.842439864957541, 23.086781661797104 ], [ 73.844803771746257, 23.077655979269789 ], [ 73.860290639209552, 23.060184855306996 ], [ 73.88120977640115, 23.057156799983538 ], [ 73.8851600442012, 23.052357135115152 ], [ 73.90032606758102, 23.049108958215214 ], [ 73.908076373424606, 23.052686819616856 ], [ 73.905273505770651, 23.068426960389655 ], [ 73.906686916835312, 23.081013470134085 ], [ 73.917733357051986, 23.091916249659466 ], [ 73.942249600169461, 23.098262906334856 ], [ 73.94608674132914, 23.110664312771885 ], [ 73.953401547516279, 23.108595729140461 ], [ 73.959032450025191, 23.113934498486067 ], [ 73.962090365557998, 23.112774773270985 ], [ 73.968628840490013, 23.10003431331014 ], [ 73.982436016475546, 23.098447386034309 ], [ 73.998290938083798, 23.085599339514673 ], [ 74.00300315331458, 23.088946337241918 ], [ 74.012951919627753, 23.087716080859906 ], [ 74.020358552501506, 23.092561085389434 ], [ 74.01311973300767, 23.103680659543059 ], [ 74.00495279482351, 23.10859858874608 ], [ 74.003618403164481, 23.117347599533659 ], [ 73.993906851375158, 23.115651297221209 ], [ 73.982129224738017, 23.118780402165768 ], [ 73.975559374348023, 23.124022661383332 ], [ 73.978236439234664, 23.137026981977932 ], [ 73.981423064483067, 23.139558507817799 ], [ 73.995088323721674, 23.136056863912366 ], [ 73.995424777829882, 23.145185136268122 ], [ 73.992149587677616, 23.14769639752787 ], [ 73.992270255674796, 23.160309201027886 ], [ 73.97373891506858, 23.172083487179872 ], [ 73.97189452556826, 23.179945864281606 ], [ 73.975188777072546, 23.184587725720181 ], [ 73.972874941479475, 23.188698872344801 ], [ 73.983590530380368, 23.19100281532322 ], [ 73.980027470603773, 23.199815802594948 ], [ 73.985681671817872, 23.207887057667701 ], [ 73.982092973224709, 23.211533262559737 ], [ 73.979548829355736, 23.207792189239189 ], [ 73.967743691813027, 23.20680889987359 ], [ 73.964744913273719, 23.224708435061963 ], [ 73.98538724000035, 23.218465173730731 ], [ 73.989813598731331, 23.220865696779487 ], [ 73.992712549289777, 23.227841737819457 ], [ 73.990376501952966, 23.240095077083172 ], [ 73.994276556623603, 23.248405493302588 ], [ 73.983284053951522, 23.261473937095491 ], [ 73.987969749118506, 23.281497511535676 ], [ 73.997232655305481, 23.289074639973432 ], [ 73.986119855640425, 23.301332271819362 ], [ 73.984695553401252, 23.310013368430571 ], [ 73.99782183424918, 23.335655200162666 ], [ 73.981953839458569, 23.337776105558536 ], [ 73.984233957685788, 23.352672575103078 ], [ 73.97950519099588, 23.355306190625896 ], [ 73.98027049543083, 23.362815698789245 ], [ 73.974952254251477, 23.372126415713971 ], [ 73.966738621638868, 23.374817508933656 ], [ 73.96237026353252, 23.380828940980702 ] ] ] } },
{ "type": "Feature", "properties": { "Block": "Lunawada", "District": "Mahisagar", "lon": 73.5388, "lat": 23.1261 }, "geometry": { "type": "MultiPolygon", "coordinates": [ [ [ [ 73.750044370451562, 23.059332245153666 ], [ 73.736921253470072, 23.067123426306512 ], [ 73.734019248639669, 23.063464578326947 ], [ 73.718909692460301, 23.061375906805473 ], [ 73.717384181529638, 23.053971516255569 ], [ 73.669919881591241, 23.03303460824128 ], [ 73.667099391686364, 23.021501724248342 ], [ 73.673924262107434, 23.019168136519724 ], [ 73.696605900174632, 23.027543613201498 ], [ 73.70262463234117, 23.02138251031641 ], [ 73.716350433538352, 23.023466507483551 ], [ 73.719331721879072, 23.036092549890295 ], [ 73.723798875802061, 23.036286186028264 ], [ 73.732331085150392, 23.033024999494437 ], [ 73.736521240860583, 23.013081629792829 ], [ 73.741336117358657, 23.011616232767924 ], [ 73.755643230952614, 23.025246350742268 ], [ 73.757775005885364, 23.038638475048995 ], [ 73.764375956848795, 23.038259470159595 ], [ 73.768825599911949, 23.044027277618977 ], [ 73.76705325978898, 23.055885939787998 ], [ 73.750044370451562, 23.059332245153666 ] ] ], [ [ [ 73.739967816094321, 23.258389041403273 ], [ 73.736110079260087, 23.266926936874807 ], [ 73.720099179575783, 23.258221095204807 ], [ 73.69864012705068, 23.266377180120323 ], [ 73.684565531588248, 23.251843845866407 ], [ 73.668292889779579, 23.248619700808344 ], [ 73.660345255509128, 23.24068473332688 ], [ 73.663265631785407, 23.217997730543615 ], [ 73.650175350922481, 23.20616110388659 ], [ 73.63226050433282, 23.201066953635976 ], [ 73.606654494282949, 23.208142304223301 ], [ 73.576951711091624, 23.196324274471589 ], [ 73.575967840259864, 23.200398450893793 ], [ 73.567557518820848, 23.192309757751328 ], [ 73.553489696655632, 23.19288081844147 ], [ 73.54652950491851, 23.190069523738554 ], [ 73.543050876897141, 23.194927182893355 ], [ 73.544346161298549, 23.192943418531584 ], [ 73.530959550477945, 23.187924800349073 ], [ 73.533973183558814, 23.181295109252069 ], [ 73.527722043753542, 23.174374872947709 ], [ 73.518720358668034, 23.171024320252329 ], [ 73.517684256192396, 23.166847127770449 ], [ 73.522068541428695, 23.165963209153684 ], [ 73.519972167304644, 23.162214522291414 ], [ 73.522973182649025, 23.154193737059781 ], [ 73.512127986615553, 23.145182353435327 ], [ 73.503419226872865, 23.144220934524867 ], [ 73.495537300772156, 23.147760394032971 ], [ 73.495609451659135, 23.150805365090132 ], [ 73.484129801591635, 23.149931818194222 ], [ 73.481233488486893, 23.153714894832738 ], [ 73.457102597473451, 23.153167230906604 ], [ 73.439245405657076, 23.140970350424549 ], [ 73.433498031181657, 23.142570697622503 ], [ 73.435283953831728, 23.146293468142748 ], [ 73.425985618988236, 23.156509758727207 ], [ 73.412627969852394, 23.147620025913227 ], [ 73.404742881681869, 23.147546971458851 ], [ 73.382977503644895, 23.136056479790849 ], [ 73.37473291329097, 23.118390828271711 ], [ 73.366672160464972, 23.117261359223662 ], [ 73.375042343380471, 23.104083700445962 ], [ 73.396875593628735, 23.101205451278197 ], [ 73.415157574488489, 23.106003014262697 ], [ 73.423120922089907, 23.098184899423444 ], [ 73.42171849203126, 23.08580441999975 ], [ 73.413920333830831, 23.076576255378363 ], [ 73.415007110271645, 23.064538526035673 ], [ 73.424540743532447, 23.053880213844316 ], [ 73.416644412946155, 23.047996979105761 ], [ 73.412866190489311, 23.02865923173675 ], [ 73.434794147423034, 23.02505177774329 ], [ 73.436918593001408, 23.03260073084796 ], [ 73.444526565279787, 23.031730568627466 ], [ 73.449804745190718, 23.022523578075809 ], [ 73.447912502435216, 23.015989590152021 ], [ 73.452365725284764, 23.014365515086393 ], [ 73.455806306060609, 23.002862379189928 ], [ 73.471451126096952, 23.000631402362682 ], [ 73.473032212201005, 22.988246186958506 ], [ 73.478303350218383, 22.986863928266558 ], [ 73.476059494284272, 22.982762572675497 ], [ 73.481264531568144, 22.985981602891208 ], [ 73.48501013080714, 22.994203006196738 ], [ 73.495241134307804, 22.995083546258655 ], [ 73.502998538638778, 22.994756200851082 ], [ 73.502743026330933, 22.987998000612262 ], [ 73.50836459714067, 22.988067632891958 ], [ 73.509650180635361, 22.983343216198708 ], [ 73.517670758106902, 22.985916089599474 ], [ 73.524167343698934, 22.981095686601542 ], [ 73.524495871971396, 22.986105576820091 ], [ 73.533145050054557, 22.987856379884995 ], [ 73.535201427588916, 22.993647015037219 ], [ 73.562121106062506, 22.985436128657113 ], [ 73.583170014778332, 22.986888325120223 ], [ 73.58745265025037, 22.991203011516959 ], [ 73.594776453065037, 22.992087837388514 ], [ 73.594209321473357, 22.995018095267792 ], [ 73.618333514648, 23.017167851600078 ], [ 73.619413664216978, 23.024494843049098 ], [ 73.631511405505606, 23.011586260090095 ], [ 73.635861058891109, 23.01345513104518 ], [ 73.636331430248589, 23.017382925661735 ], [ 73.643241998151112, 23.015035853299697 ], [ 73.653247287360244, 23.01793783101477 ], [ 73.656081192705585, 23.021600096001414 ], [ 73.641073262934313, 23.020198990993958 ], [ 73.631813236746126, 23.026194424117659 ], [ 73.628779921577404, 23.039759644519108 ], [ 73.641994954178742, 23.058558273670013 ], [ 73.651888538780625, 23.06484289789098 ], [ 73.664160236129064, 23.09578067867049 ], [ 73.682000125494795, 23.108408141853008 ], [ 73.700021162832499, 23.109533230354064 ], [ 73.698906962622672, 23.133797468627087 ], [ 73.696012043703234, 23.139760957540211 ], [ 73.691559847628071, 23.140111086139118 ], [ 73.691173260340477, 23.150146478419661 ], [ 73.696701735144089, 23.155366660448088 ], [ 73.710328761185892, 23.158548029404692 ], [ 73.712231174667025, 23.16260385075714 ], [ 73.716003262528801, 23.161695024428663 ], [ 73.718687199527366, 23.170115100157364 ], [ 73.723343369765871, 23.172376405227208 ], [ 73.724019141811425, 23.178727260453662 ], [ 73.730966907153203, 23.182165783456384 ], [ 73.73127135069457, 23.199133338801413 ], [ 73.72531688130853, 23.208473993733673 ], [ 73.726387851891928, 23.21294238696623 ], [ 73.731075429927742, 23.220278770575881 ], [ 73.744193270205244, 23.222071716754218 ], [ 73.750676411610741, 23.231089588452548 ], [ 73.748155747008326, 23.244318804008287 ], [ 73.743927951887756, 23.246872339802703 ], [ 73.745532628649485, 23.254999859311209 ], [ 73.743737959103498, 23.258507052750826 ], [ 73.739967816094321, 23.258389041403273 ] ] ] ] } }
]
}
