{
"type": "FeatureCollection",
"name": "blocks",
"crs": { "type": "name", "properties": { "name": "urn:ogc:def:crs:OGC:1.3:CRS84" } },
"features": [
{ "type": "Feature", "properties": { "block": "Anand", "district": "Anand", "lon": 73.0097, "lat": 22.55 }, "geometry": { "type": "Polygon", "coordinates": [ [ [ 72.9621, 22.48458 ], [ 72.9539, 22.48436 ], [ 72.94622, 22.49495 ], [ 72.93701, 22.48311 ], [ 72.92902, 22.48174 ], [ 72.92603, 22.4875 ], [ 72.92887, 22.49265 ], [ 72.92247, 22.49467 ], [ 72.9222, 22.49792 ], [ 72.9173, 22.49597 ], [ 72.91747, 22.48818 ], [ 72.9085, 22.48654 ], [ 72.89923, 22.49844 ], [ 72.90614, 22.50284 ], [ 72.90258, 22.51312 ], [ 72.89002, 22.51234 ], [ 72.88268, 22.50051 ], [ 72.86607, 22.50041 ], [ 72.86369, 22.52411 ], [ 72.87969, 22.53237 ], [ 72.88245, 22.53713 ], [ 72.86357, 22.55159 ], [ 72.86795, 22.56044 ], [ 72.86588, 22.56832 ], [ 72.87221, 22.57187 ], [ 72.87197, 22.58462 ], [ 72.88385, 22.5859 ], [ 72.89877, 22.59422 ], [ 72.90392, 22.58936 ], [ 72.9184, 22.59451 ], [ 72.92789, 22.61116 ], [ 72.92807, 22.62624 ], [ 72.96534, 22.63376 ], [ 72.97557, 22.641 ], [ 72.97955, 22.65192 ], [ 72.98853, 22.64814 ], [ 72.99863, 22.65391 ], [ 73.00825, 22.65381 ], [ 73.02374, 22.63068 ], [ 73.02135, 22.62482 ], [ 73.0271, 22.61173 ], [ 73.0381, 22.60973 ], [ 73.05201, 22.6118 ], [ 73.06074, 22.60785 ], [ 73.06693, 22.6108 ], [ 73.07392, 22.60872 ], [ 73.07845, 22.61263 ], [ 73.07983, 22.63274 ], [ 73.07695, 22.63818 ], [ 73.0799, 22.64395 ], [ 73.09416, 22.65328 ], [ 73.10414, 22.65315 ], [ 73.11082, 22.65669 ], [ 73.12776, 22.65552 ], [ 73.13934, 22.6141 ], [ 73.12814, 22.61341 ], [ 73.12466, 22.60931 ], [ 73.12407, 22.60089 ], [ 73.11504, 22.59475 ], [ 73.10748, 22.59622 ], [ 73.10281, 22.59282 ], [ 73.11638, 22.5829 ], [ 73.12125, 22.56369 ], [ 73.11533, 22.55861 ], [ 73.10386, 22.56035 ], [ 73.09985, 22.55783 ], [ 73.10339, 22.54959 ], [ 73.10649, 22.54949 ], [ 73.1057, 22.54662 ], [ 73.11668, 22.55838 ], [ 73.14846, 22.54616 ], [ 73.1357, 22.52445 ], [ 73.11646, 22.51637 ], [ 73.09365, 22.51149 ], [ 73.08906, 22.5012 ], [ 73.09349, 22.4574 ], [ 73.09014, 22.4513 ], [ 73.07256, 22.43432 ], [ 73.06757, 22.44359 ], [ 73.05913, 22.43987 ], [ 73.04756, 22.44566 ], [ 73.02453, 22.44179 ], [ 73.02135, 22.44565 ], [ 73.01666, 22.44513 ], [ 73.01722, 22.46031 ], [ 73.00418, 22.46924 ], [ 72.99017, 22.46231 ], [ 72.9881, 22.45475 ], [ 72.98692, 22.46103 ], [ 72.97851, 22.46277 ], [ 72.97729, 22.46667 ], [ 72.97025, 22.46453 ], [ 72.95933, 22.46959 ], [ 72.95731, 22.47759 ], [ 72.96172, 22.47864 ], [ 72.9621, 22.48458 ] ] ] } },
{ "type": "Feature", "properties": { "block": "Anklav", "district": "Anand", "lon": 73.0134, "lat": 22.3601 }, "geometry": { "type": "Polygon", "coordinates": [ [ [ 72.95119, 22.29483 ], [ 72.97177, 22.29098 ], [ 72.97525, 22.29365 ], [ 72.96909, 22.30829 ], [ 72.9725, 22.32064 ], [ 72.98695, 22.32446 ], [ 72.99581, 22.33755 ], [ 72.98938, 22.34664 ], [ 72.96851, 22.34282 ], [ 72.96754, 22.35243 ], [ 72.96253, 22.3612 ], [ 72.97052, 22.37495 ], [ 72.98304, 22.37806 ], [ 72.98153, 22.38973 ], [ 72.97385, 22.39896 ], [ 72.97958, 22.40147 ], [ 72.97602, 22.41041 ], [ 72.98111, 22.42678 ], [ 72.989, 22.4362 ], [ 72.98721, 22.44199 ], [ 72.99017, 22.46231 ], [ 73.00418, 22.46924 ], [ 73.01722, 22.46031 ], [ 73.01666, 22.44513 ], [ 73.02135, 22.44565 ], [ 73.02453, 22.44179 ], [ 73.04596, 22.44574 ], [ 73.05913, 22.43987 ], [ 73.068, 22.4433 ], [ 73.07256, 22.43432 ], [ 73.0658, 22.42199 ], [ 73.07323, 22.39645 ], [ 73.06714, 22.38342 ], [ 73.05201, 22.37094 ], [ 73.04871, 22.36221 ], [ 73.0511, 22.34839 ], [ 73.0619, 22.32483 ], [ 73.05994, 22.31059 ], [ 73.03602, 22.29535 ], [ 72.999, 22.25791 ], [ 72.97717, 22.24879 ], [ 72.97215, 22.2618 ], [ 72.95184, 22.26414 ], [ 72.95119, 22.29483 ] ] ] } },
{ "type": "Feature", "properties": { "block": "Borsad", "district": "Anand", "lon": 72.8803, "lat": 22.3662 }, "geometry": { "type": "Polygon", "coordinates": [ [ [ 72.8167, 22.25311 ], [ 72.81088, 22.25147 ], [ 72.79131, 22.26208 ], [ 72.79008, 22.26856 ], [ 72.78014, 22.28166 ], [ 72.77131, 22.28216 ], [ 72.77214, 22.27769 ], [ 72.76115, 22.27651 ], [ 72.75362, 22.27956 ], [ 72.75439, 22.28876 ], [ 72.75874, 22.29144 ], [ 72.75746, 22.2953 ], [ 72.76145, 22.29684 ], [ 72.76202, 22.30287 ], [ 72.76842, 22.31141 ], [ 72.76432, 22.32035 ], [ 72.76875, 22.32843 ], [ 72.76974, 22.34216 ], [ 72.77625, 22.34414 ], [ 72.77066, 22.3588 ], [ 72.7577, 22.36082 ], [ 72.75778, 22.36567 ], [ 72.76655, 22.3701 ], [ 72.76444, 22.3822 ], [ 72.76016, 22.38819 ], [ 72.76385, 22.39316 ], [ 72.77476, 22.39786 ], [ 72.77988, 22.40649 ], [ 72.80186, 22.39182 ], [ 72.81039, 22.39339 ], [ 72.81625, 22.40168 ], [ 72.83981, 22.40819 ], [ 72.82874, 22.4334 ], [ 72.84767, 22.43612 ], [ 72.8469, 22.44325 ], [ 72.85434, 22.45328 ], [ 72.87895, 22.46339 ], [ 72.88004, 22.47668 ], [ 72.89007, 22.48184 ], [ 72.89001, 22.48764 ], [ 72.896, 22.48425 ], [ 72.90533, 22.48977 ], [ 72.9085, 22.48654 ], [ 72.91697, 22.48799 ], [ 72.9173, 22.49597 ], [ 72.9222, 22.49792 ], [ 72.92247, 22.49467 ], [ 72.92887, 22.49265 ], [ 72.92659, 22.48435 ], [ 72.93442, 22.48187 ], [ 72.94751, 22.49473 ], [ 72.9539, 22.48436 ], [ 72.96223, 22.48455 ], [ 72.96172, 22.47864 ], [ 72.95731, 22.47759 ], [ 72.95869, 22.47017 ], [ 72.97025, 22.46453 ], [ 72.97729, 22.46667 ], [ 72.97851, 22.46277 ], [ 72.98692, 22.46103 ], [ 72.9881, 22.45475 ], [ 72.98958, 22.4565 ], [ 72.989, 22.4362 ], [ 72.98111, 22.42678 ], [ 72.97602, 22.41041 ], [ 72.97958, 22.40147 ], [ 72.97385, 22.39896 ], [ 72.98153, 22.38973 ], [ 72.98304, 22.37806 ], [ 72.97052, 22.37495 ], [ 72.96253, 22.3612 ], [ 72.96754, 22.35243 ], [ 72.96851, 22.34282 ], [ 72.98938, 22.34664 ], [ 72.99587, 22.33903 ], [ 72.99143, 22.32772 ], [ 72.9828, 22.32228 ], [ 72.9725, 22.32064 ], [ 72.96909, 22.30829 ], [ 72.97525, 22.29365 ], [ 72.97065, 22.29101 ], [ 72.95119, 22.29483 ], [ 72.92892, 22.30522 ], [ 72.91337, 22.29517 ], [ 72.91178, 22.28796 ], [ 72.91807, 22.27094 ], [ 72.91296, 22.26078 ], [ 72.89819, 22.25857 ], [ 72.87124, 22.27281 ], [ 72.84528, 22.27358 ], [ 72.83368, 22.26847 ], [ 72.8167, 22.25311 ] ] ] } },
{ "type": "Feature", "properties": { "block": "Khambhat", "district": "Anand", "lon": 72.5576, "lat": 22.3424 }, "geometry": { "type": "Polygon", "coordinates": [ [ [ 72.56555, 22.40968 ], [ 72.60854, 22.4206 ], [ 72.62624, 22.42146 ], [ 72.63542, 22.41846 ], [ 72.64631, 22.4091 ], [ 72.65635, 22.41457 ], [ 72.67742, 22.41858 ], [ 72.68495, 22.40715 ], [ 72.69881, 22.41976 ], [ 72.70891, 22.41066 ], [ 72.70896, 22.40307 ], [ 72.71165, 22.40161 ], [ 72.72536, 22.42517 ], [ 72.7369, 22.41829 ], [ 72.7458, 22.42571 ], [ 72.74691, 22.41569 ], [ 72.75412, 22.41555 ], [ 72.76385, 22.3945 ], [ 72.76012, 22.38736 ], [ 72.76444, 22.3822 ], [ 72.76655, 22.3701 ], [ 72.75778, 22.36567 ], [ 72.7577, 22.36082 ], [ 72.77066, 22.3588 ], [ 72.77625, 22.34414 ], [ 72.76974, 22.34216 ], [ 72.76875, 22.32843 ], [ 72.76432, 22.32035 ], [ 72.76842, 22.31141 ], [ 72.76202, 22.30287 ], [ 72.76145, 22.29684 ], [ 72.75746, 22.2953 ], [ 72.75874, 22.29144 ], [ 72.75439, 22.28876 ], [ 72.75362, 22.27956 ], [ 72.76115, 22.27651 ], [ 72.77214, 22.27769 ], [ 72.77131, 22.28216 ], [ 72.78014, 22.28166 ], [ 72.79008, 22.26856 ], [ 72.79131, 22.26208 ], [ 72.81088, 22.25147 ], [ 72.79375, 22.24943 ], [ 72.76994, 22.22301 ], [ 72.75407, 22.23298 ], [ 72.74937, 22.24087 ], [ 72.74009, 22.24422 ], [ 72.73933, 22.2493 ], [ 72.74542, 22.25421 ], [ 72.74458, 22.26176 ], [ 72.74931, 22.27838 ], [ 72.74479, 22.2815 ], [ 72.72759, 22.2794 ], [ 72.72364, 22.28403 ], [ 72.71922, 22.27959 ], [ 72.70283, 22.2803 ], [ 72.66694, 22.29237 ], [ 72.66425, 22.28009 ], [ 72.64415, 22.28103 ], [ 72.63663, 22.28443 ], [ 72.61885, 22.28194 ], [ 72.60028, 22.28458 ], [ 72.5475, 22.25699 ], [ 72.54243, 22.25773 ], [ 72.52923, 22.2716 ], [ 72.5159, 22.27299 ], [ 72.50767, 22.2695 ], [ 72.49682, 22.25729 ], [ 72.49404, 22.24903 ], [ 72.49646, 22.21621 ], [ 72.48931, 22.20622 ], [ 72.47074, 22.19972 ], [ 72.43916, 22.19827 ], [ 72.46642, 22.20884 ], [ 72.4789, 22.22574 ], [ 72.46251, 22.20988 ], [ 72.43676, 22.20265 ], [ 72.43013, 22.21037 ], [ 72.42969, 22.21581 ], [ 72.43497, 22.22195 ], [ 72.43441, 22.23096 ], [ 72.43994, 22.23516 ], [ 72.43613, 22.23777 ], [ 72.43851, 22.2467 ], [ 72.43393, 22.24164 ], [ 72.43405, 22.23718 ], [ 72.42728, 22.23187 ], [ 72.42623, 22.21311 ], [ 72.42209, 22.2121 ], [ 72.41586, 22.22108 ], [ 72.40653, 22.23874 ], [ 72.41408, 22.24942 ], [ 72.40758, 22.24457 ], [ 72.4068, 22.28059 ], [ 72.38493, 22.29202 ], [ 72.38544, 22.29884 ], [ 72.37781, 22.30266 ], [ 72.3741, 22.31038 ], [ 72.37761, 22.32553 ], [ 72.40138, 22.33757 ], [ 72.40761, 22.35482 ], [ 72.38924, 22.37178 ], [ 72.38618, 22.37995 ], [ 72.38773, 22.39362 ], [ 72.36511, 22.40612 ], [ 72.36615, 22.42114 ], [ 72.386, 22.43153 ], [ 72.38679, 22.4446 ], [ 72.38988, 22.4478 ], [ 72.40466, 22.45043 ], [ 72.40924, 22.45451 ], [ 72.40923, 22.45999 ], [ 72.39751, 22.46274 ], [ 72.39785, 22.46913 ], [ 72.42209, 22.48706 ], [ 72.43101, 22.48679 ], [ 72.44699, 22.48504 ], [ 72.44623, 22.47467 ], [ 72.45084, 22.4678 ], [ 72.46925, 22.46909 ], [ 72.47211, 22.44259 ], [ 72.48906, 22.43739 ], [ 72.49059, 22.42259 ], [ 72.49657, 22.41539 ], [ 72.50325, 22.41476 ], [ 72.51398, 22.42104 ], [ 72.52041, 22.41624 ], [ 72.54975, 22.41499 ], [ 72.56413, 22.42067 ], [ 72.56555, 22.40968 ] ] ] } },
{ "type": "Feature", "properties": { "block": "Petlad", "district": "Anand", "lon": 72.7963, "lat": 22.496 }, "geometry": { "type": "Polygon", "coordinates": [ [ [ 72.77958, 22.4062 ], [ 72.77476, 22.39786 ], [ 72.76385, 22.39316 ], [ 72.75412, 22.41555 ], [ 72.74691, 22.41569 ], [ 72.7458, 22.42571 ], [ 72.7369, 22.41829 ], [ 72.72558, 22.42523 ], [ 72.71002, 22.40171 ], [ 72.70692, 22.41335 ], [ 72.69229, 22.42488 ], [ 72.69249, 22.43442 ], [ 72.68473, 22.44825 ], [ 72.67696, 22.45582 ], [ 72.665, 22.45147 ], [ 72.6627, 22.45632 ], [ 72.66344, 22.46177 ], [ 72.67812, 22.46906 ], [ 72.6841, 22.46879 ], [ 72.68291, 22.4823 ], [ 72.68652, 22.48569 ], [ 72.71543, 22.49734 ], [ 72.71855, 22.49261 ], [ 72.72811, 22.49216 ], [ 72.74403, 22.50372 ], [ 72.7462, 22.50194 ], [ 72.75452, 22.52039 ], [ 72.76147, 22.51747 ], [ 72.76582, 22.51115 ], [ 72.7775, 22.52057 ], [ 72.7945, 22.52436 ], [ 72.79468, 22.53621 ], [ 72.78478, 22.54198 ], [ 72.78973, 22.55808 ], [ 72.78905, 22.57829 ], [ 72.77628, 22.59653 ], [ 72.77324, 22.61775 ], [ 72.77064, 22.61932 ], [ 72.77044, 22.63574 ], [ 72.78493, 22.64193 ], [ 72.80029, 22.63548 ], [ 72.8014, 22.63068 ], [ 72.79767, 22.62671 ], [ 72.79544, 22.61161 ], [ 72.82348, 22.60827 ], [ 72.82542, 22.60628 ], [ 72.8224, 22.60284 ], [ 72.82753, 22.60167 ], [ 72.82916, 22.59492 ], [ 72.85114, 22.59999 ], [ 72.85687, 22.60709 ], [ 72.85892, 22.61828 ], [ 72.87399, 22.61837 ], [ 72.87569, 22.60303 ], [ 72.86432, 22.5996 ], [ 72.8612, 22.59271 ], [ 72.86729, 22.58411 ], [ 72.87197, 22.58462 ], [ 72.87265, 22.57676 ], [ 72.87181, 22.57103 ], [ 72.86588, 22.56832 ], [ 72.86795, 22.56044 ], [ 72.86357, 22.55159 ], [ 72.88243, 22.53689 ], [ 72.87969, 22.53237 ], [ 72.86369, 22.52411 ], [ 72.86372, 22.50463 ], [ 72.86937, 22.49868 ], [ 72.88268, 22.50051 ], [ 72.88984, 22.5122 ], [ 72.89408, 22.51348 ], [ 72.90294, 22.51303 ], [ 72.9064, 22.50444 ], [ 72.89928, 22.49923 ], [ 72.90533, 22.48977 ], [ 72.896, 22.48425 ], [ 72.89001, 22.48764 ], [ 72.89007, 22.48184 ], [ 72.88004, 22.47668 ], [ 72.87895, 22.46339 ], [ 72.85434, 22.45328 ], [ 72.8469, 22.44325 ], [ 72.84767, 22.43612 ], [ 72.82874, 22.4334 ], [ 72.83981, 22.40819 ], [ 72.81625, 22.40168 ], [ 72.81039, 22.39339 ], [ 72.80186, 22.39182 ], [ 72.78635, 22.39983 ], [ 72.78407, 22.40569 ], [ 72.77958, 22.4062 ] ] ] } },
{ "type": "Feature", "properties": { "block": "Sojitra", "district": "Anand", "lon": 72.7254, "lat": 22.5606 }, "geometry": { "type": "Polygon", "coordinates": [ [ [ 72.71559, 22.49717 ], [ 72.68532, 22.48496 ], [ 72.68493, 22.48913 ], [ 72.67717, 22.49668 ], [ 72.67805, 22.50599 ], [ 72.67176, 22.50699 ], [ 72.66711, 22.52842 ], [ 72.64313, 22.52761 ], [ 72.64194, 22.53323 ], [ 72.6479, 22.54519 ], [ 72.66119, 22.55215 ], [ 72.66198, 22.55931 ], [ 72.67262, 22.56387 ], [ 72.67056, 22.57268 ], [ 72.67767, 22.58612 ], [ 72.69411, 22.58869 ], [ 72.69934, 22.58103 ], [ 72.71107, 22.59038 ], [ 72.71014, 22.59537 ], [ 72.69286, 22.60291 ], [ 72.68712, 22.61655 ], [ 72.68694, 22.62646 ], [ 72.70391, 22.63276 ], [ 72.72889, 22.62894 ], [ 72.73428, 22.63966 ], [ 72.74224, 22.64472 ], [ 72.75336, 22.63572 ], [ 72.76203, 22.6352 ], [ 72.75848, 22.62414 ], [ 72.76697, 22.6231 ], [ 72.77324, 22.61775 ], [ 72.77628, 22.59653 ], [ 72.78905, 22.57829 ], [ 72.78973, 22.55808 ], [ 72.78478, 22.54198 ], [ 72.79468, 22.53621 ], [ 72.79584, 22.52729 ], [ 72.79307, 22.52333 ], [ 72.7775, 22.52057 ], [ 72.76582, 22.51115 ], [ 72.76147, 22.51747 ], [ 72.75452, 22.52039 ], [ 72.7462, 22.50194 ], [ 72.74403, 22.50372 ], [ 72.72811, 22.49216 ], [ 72.71855, 22.49261 ], [ 72.71559, 22.49717 ] ] ] } },
{ "type": "Feature", "properties": { "block": "Tarapur", "district": "Anand", "lon": 72.5481, "lat": 22.4907 }, "geometry": { "type": "Polygon", "coordinates": [ [ [ 72.50524, 22.41559 ], [ 72.49317, 22.41785 ], [ 72.48906, 22.43739 ], [ 72.47211, 22.44259 ], [ 72.46925, 22.46909 ], [ 72.45506, 22.46616 ], [ 72.44698, 22.47164 ], [ 72.44699, 22.48504 ], [ 72.42209, 22.48706 ], [ 72.43719, 22.506 ], [ 72.44144, 22.52576 ], [ 72.44069, 22.53662 ], [ 72.42614, 22.55451 ], [ 72.42708, 22.55787 ], [ 72.44637, 22.56085 ], [ 72.48911, 22.60017 ], [ 72.50459, 22.60595 ], [ 72.50697, 22.61213 ], [ 72.51181, 22.61333 ], [ 72.51659, 22.61091 ], [ 72.51999, 22.60137 ], [ 72.52731, 22.59407 ], [ 72.52798, 22.58665 ], [ 72.53487, 22.5862 ], [ 72.53519, 22.56825 ], [ 72.55553, 22.56723 ], [ 72.55414, 22.55995 ], [ 72.55888, 22.54277 ], [ 72.56812, 22.54193 ], [ 72.56779, 22.52187 ], [ 72.57389, 22.52211 ], [ 72.5741, 22.5061 ], [ 72.57899, 22.50156 ], [ 72.60202, 22.50194 ], [ 72.60635, 22.50875 ], [ 72.61884, 22.51161 ], [ 72.63723, 22.50188 ], [ 72.64986, 22.5091 ], [ 72.65354, 22.50046 ], [ 72.67741, 22.50684 ], [ 72.67717, 22.49668 ], [ 72.68504, 22.48878 ], [ 72.6842, 22.46894 ], [ 72.67812, 22.46906 ], [ 72.66344, 22.46177 ], [ 72.663, 22.45321 ], [ 72.67821, 22.45496 ], [ 72.69208, 22.43554 ], [ 72.69229, 22.42488 ], [ 72.69881, 22.41976 ], [ 72.68495, 22.40715 ], [ 72.67742, 22.41858 ], [ 72.65635, 22.41457 ], [ 72.64631, 22.4091 ], [ 72.63542, 22.41846 ], [ 72.62694, 22.42144 ], [ 72.60854, 22.4206 ], [ 72.56806, 22.40947 ], [ 72.56492, 22.40994 ], [ 72.56413, 22.42067 ], [ 72.55124, 22.4152 ], [ 72.53707, 22.41458 ], [ 72.52041, 22.41624 ], [ 72.5134, 22.42103 ], [ 72.50524, 22.41559 ] ] ] } },
{ "type": "Feature", "properties": { "block": "Umreth", "district": "Anand", "lon": 73.1036, "lat": 22.6556 }, "geometry": { "type": "Polygon", "coordinates": [ [ [ 73.04813, 22.61171 ], [ 73.0381, 22.60973 ], [ 73.02649, 22.61234 ], [ 73.02135, 22.62482 ], [ 73.02374, 22.63068 ], [ 73.00825, 22.65381 ], [ 72.99863, 22.65391 ], [ 72.98853, 22.64814 ], [ 72.982, 22.65201 ], [ 72.98733, 22.65645 ], [ 72.99942, 22.70042 ], [ 73.01035, 22.70513 ], [ 73.00491, 22.71722 ], [ 73.00693, 22.72427 ], [ 73.02196, 22.72713 ], [ 73.0265, 22.7336 ], [ 73.03249, 22.73532 ], [ 73.03821, 22.73204 ], [ 73.04046, 22.72309 ], [ 73.04688, 22.71581 ], [ 73.0532, 22.71896 ], [ 73.07825, 22.72108 ], [ 73.09479, 22.72762 ], [ 73.10255, 22.72745 ], [ 73.09927, 22.72091 ], [ 73.10206, 22.71852 ], [ 73.13368, 22.72091 ], [ 73.15196, 22.68994 ], [ 73.16124, 22.68102 ], [ 73.19308, 22.6846 ], [ 73.20376, 22.68217 ], [ 73.20298, 22.66518 ], [ 73.20765, 22.65109 ], [ 73.22946, 22.63372 ], [ 73.21877, 22.62019 ], [ 73.20253, 22.6159 ], [ 73.19048, 22.60316 ], [ 73.16116, 22.59031 ], [ 73.14846, 22.54616 ], [ 73.11668, 22.55838 ], [ 73.1057, 22.54662 ], [ 73.10649, 22.54949 ], [ 73.10339, 22.54959 ], [ 73.09985, 22.55783 ], [ 73.10386, 22.56035 ], [ 73.11533, 22.55861 ], [ 73.12125, 22.56369 ], [ 73.11638, 22.5829 ], [ 73.10281, 22.59282 ], [ 73.10748, 22.59622 ], [ 73.11504, 22.59475 ], [ 73.12407, 22.60089 ], [ 73.12466, 22.60931 ], [ 73.12814, 22.61341 ], [ 73.13934, 22.6141 ], [ 73.12776, 22.65552 ], [ 73.11082, 22.65669 ], [ 73.10414, 22.65315 ], [ 73.09416, 22.65328 ], [ 73.0799, 22.64395 ], [ 73.07695, 22.63818 ], [ 73.07983, 22.63274 ], [ 73.07845, 22.61263 ], [ 73.07392, 22.60872 ], [ 73.06693, 22.6108 ], [ 73.05989, 22.60789 ], [ 73.04813, 22.61171 ] ] ] } },
{ "type": "Feature", "properties": { "block": "Kapadvanj", "district": "Kheda", "lon": 73.1132, "lat": 23.0476 }, "geometry": { "type": "Polygon", "coordinates": [ [ [ 73.04002, 22.97138 ], [ 73.02554, 22.96816 ], [ 73.01575, 22.95012 ], [ 73.00908, 22.94499 ], [ 72.9838, 22.94649 ], [ 72.97427, 22.9553 ], [ 72.97201, 22.96602 ], [ 72.99004, 22.9783 ], [ 72.97968, 22.98699 ], [ 72.97421, 23.0022 ], [ 72.96272, 23.00768 ], [ 72.96109, 23.01212 ], [ 72.96602, 23.01338 ], [ 72.96661, 23.01719 ], [ 72.96075, 23.02382 ], [ 72.9584, 23.01358 ], [ 72.94412, 23.01001 ], [ 72.94627, 23.02351 ], [ 72.93652, 23.03347 ], [ 72.94, 23.04161 ], [ 72.95308, 23.04354 ], [ 72.96218, 23.05129 ], [ 72.97864, 23.05183 ], [ 72.99958, 23.08109 ], [ 73.01115, 23.08481 ], [ 73.01031, 23.09786 ], [ 72.99319, 23.12558 ], [ 72.99461, 23.12835 ], [ 73.00188, 23.12807 ], [ 73.01537, 23.12152 ], [ 73.02866, 23.12728 ], [ 73.03036, 23.13981 ], [ 73.0257, 23.14521 ], [ 73.0193, 23.14496 ], [ 73.01316, 23.15699 ], [ 73.01389, 23.16068 ], [ 73.02053, 23.16166 ], [ 73.01942, 23.16904 ], [ 73.03258, 23.16841 ], [ 73.04044, 23.16276 ], [ 73.04511, 23.16644 ], [ 73.06787, 23.1592 ], [ 73.07295, 23.16569 ], [ 73.0834, 23.17109 ], [ 73.09107, 23.16792 ], [ 73.09746, 23.16988 ], [ 73.09746, 23.17234 ], [ 73.12253, 23.18756 ], [ 73.12622, 23.20008 ], [ 73.13482, 23.20523 ], [ 73.15743, 23.18903 ], [ 73.15792, 23.17602 ], [ 73.15375, 23.17283 ], [ 73.15424, 23.16792 ], [ 73.16112, 23.15245 ], [ 73.17414, 23.13772 ], [ 73.18742, 23.14852 ], [ 73.20585, 23.14631 ], [ 73.20339, 23.12741 ], [ 73.20929, 23.10863 ], [ 73.22723, 23.1047 ], [ 73.24542, 23.06849 ], [ 73.27647, 23.05823 ], [ 73.27833, 23.05023 ], [ 73.26031, 23.04066 ], [ 73.24939, 23.03871 ], [ 73.25007, 23.02792 ], [ 73.24616, 23.01876 ], [ 73.2538, 23.00833 ], [ 73.26686, 23.00042 ], [ 73.27864, 22.97592 ], [ 73.2555, 22.96822 ], [ 73.25125, 22.9614 ], [ 73.23973, 22.95977 ], [ 73.23314, 22.95527 ], [ 73.18993, 22.95325 ], [ 73.15843, 22.95481 ], [ 73.12481, 22.96161 ], [ 73.12214, 22.95833 ], [ 73.12043, 22.93714 ], [ 73.10273, 22.93424 ], [ 73.08934, 22.9406 ], [ 73.08623, 22.93253 ], [ 73.09737, 22.92029 ], [ 73.08915, 22.91618 ], [ 73.06592, 22.9141 ], [ 73.06029, 22.91813 ], [ 73.05845, 22.93707 ], [ 73.04781, 22.94696 ], [ 73.033, 22.94841 ], [ 73.03027, 22.95645 ], [ 73.03896, 22.96144 ], [ 73.04055, 22.96724 ], [ 73.04002, 22.97138 ] ], [ [ 73.04314, 23.09553 ], [ 73.02296, 23.08532 ], [ 73.01462, 23.06241 ], [ 73.00854, 23.0556 ], [ 73.0159, 23.0551 ], [ 73.02361, 23.06077 ], [ 73.03137, 23.05951 ], [ 73.04395, 23.0646 ], [ 73.05215, 23.08083 ], [ 73.0641, 23.09403 ], [ 73.05899, 23.09221 ], [ 73.04314, 23.09553 ] ] ] } },
{ "type": "Feature", "properties": { "block": "Kathlal", "district": "Kheda", "lon": 73.0123, "lat": 22.9409 }, "geometry": { "type": "Polygon", "coordinates": [ [ [ 72.9196, 22.91044 ], [ 72.91323, 22.91389 ], [ 72.88782, 22.91112 ], [ 72.87336, 22.91609 ], [ 72.88177, 22.92752 ], [ 72.87074, 22.93293 ], [ 72.87004, 22.93644 ], [ 72.8866, 22.94477 ], [ 72.87732, 22.95741 ], [ 72.87939, 22.97697 ], [ 72.83257, 22.98727 ], [ 72.83885, 22.99586 ], [ 72.84957, 23.00067 ], [ 72.84519, 23.01131 ], [ 72.85315, 23.01298 ], [ 72.86275, 23.00817 ], [ 72.87475, 23.00856 ], [ 72.87809, 23.01497 ], [ 72.89331, 23.01514 ], [ 72.89211, 23.01946 ], [ 72.89912, 23.02985 ], [ 72.90575, 23.03151 ], [ 72.9091, 23.04786 ], [ 72.91541, 23.05414 ], [ 72.90814, 23.06492 ], [ 72.92418, 23.06991 ], [ 72.9269, 23.08125 ], [ 72.94073, 23.07426 ], [ 72.95828, 23.07477 ], [ 72.96096, 23.07016 ], [ 72.96248, 23.05058 ], [ 72.95308, 23.04354 ], [ 72.94, 23.04161 ], [ 72.93652, 23.03347 ], [ 72.94627, 23.02351 ], [ 72.94412, 23.01001 ], [ 72.9584, 23.01358 ], [ 72.96075, 23.02382 ], [ 72.96661, 23.01719 ], [ 72.96602, 23.01338 ], [ 72.96109, 23.01212 ], [ 72.96272, 23.00768 ], [ 72.97421, 23.0022 ], [ 72.97968, 22.98699 ], [ 72.99004, 22.9783 ], [ 72.97201, 22.96602 ], [ 72.97427, 22.9553 ], [ 72.98603, 22.94533 ], [ 73.00908, 22.94499 ], [ 73.01575, 22.95012 ], [ 73.02554, 22.96816 ], [ 73.03908, 22.97175 ], [ 73.03896, 22.96144 ], [ 73.03027, 22.95645 ], [ 73.0325, 22.94948 ], [ 73.03975, 22.94593 ], [ 73.04781, 22.94696 ], [ 73.05845, 22.93707 ], [ 73.06029, 22.91813 ], [ 73.06592, 22.9141 ], [ 73.08915, 22.91618 ], [ 73.09737, 22.92029 ], [ 73.08623, 22.93253 ], [ 73.08934, 22.9406 ], [ 73.10273, 22.93424 ], [ 73.12043, 22.93714 ], [ 73.12214, 22.95833 ], [ 73.12481, 22.96161 ], [ 73.18344, 22.95327 ], [ 73.23314, 22.95527 ], [ 73.23114, 22.93878 ], [ 73.23748, 22.92397 ], [ 73.23306, 22.91619 ], [ 73.19561, 22.90037 ], [ 73.17888, 22.88304 ], [ 73.11617, 22.88613 ], [ 73.09467, 22.88007 ], [ 73.05857, 22.88387 ], [ 73.05199, 22.87928 ], [ 73.05438, 22.86955 ], [ 73.05181, 22.8678 ], [ 73.03837, 22.88148 ], [ 73.03156, 22.884 ], [ 73.03059, 22.87917 ], [ 73.02247, 22.87134 ], [ 73.02388, 22.85617 ], [ 73.01627, 22.83856 ], [ 73.01188, 22.84599 ], [ 72.99985, 22.85085 ], [ 73.00228, 22.85791 ], [ 72.99651, 22.86403 ], [ 72.9969, 22.87028 ], [ 72.98814, 22.86774 ], [ 72.98692, 22.85884 ], [ 72.97884, 22.84888 ], [ 72.97045, 22.85377 ], [ 72.9623, 22.86625 ], [ 72.9478, 22.86316 ], [ 72.94164, 22.86473 ], [ 72.93696, 22.87128 ], [ 72.95439, 22.87019 ], [ 72.96317, 22.87856 ], [ 72.95934, 22.87745 ], [ 72.95827, 22.88393 ], [ 72.94688, 22.88331 ], [ 72.94523, 22.88826 ], [ 72.93021, 22.89399 ], [ 72.91146, 22.88817 ], [ 72.91901, 22.89594 ], [ 72.91584, 22.9037 ], [ 72.9196, 22.91044 ] ] ] } },
{ "type": "Feature", "properties": { "block": "Kheda", "district": "Kheda", "lon": 72.6175, "lat": 22.7762 }, "geometry": { "type": "Polygon", "coordinates": [ [ [ 72.58418, 22.66112 ], [ 72.58212, 22.65691 ], [ 72.57795, 22.65753 ], [ 72.57668, 22.67041 ], [ 72.5666, 22.67321 ], [ 72.5603, 22.66507 ], [ 72.55899, 22.65233 ], [ 72.5532, 22.65057 ], [ 72.54062, 22.65537 ], [ 72.54741, 22.66241 ], [ 72.54527, 22.67577 ], [ 72.5507, 22.6804 ], [ 72.5518, 22.69349 ], [ 72.52411, 22.6956 ], [ 72.51842, 22.69952 ], [ 72.51749, 22.70576 ], [ 72.52316, 22.71404 ], [ 72.54305, 22.70811 ], [ 72.54083, 22.7148 ], [ 72.52332, 22.73185 ], [ 72.53799, 22.74702 ], [ 72.53893, 22.75402 ], [ 72.53308, 22.76591 ], [ 72.50381, 22.7893 ], [ 72.50258, 22.79486 ], [ 72.50851, 22.79756 ], [ 72.53107, 22.7966 ], [ 72.54033, 22.80621 ], [ 72.54967, 22.80701 ], [ 72.55229, 22.81655 ], [ 72.57069, 22.82604 ], [ 72.58192, 22.82036 ], [ 72.58387, 22.82348 ], [ 72.59819, 22.82471 ], [ 72.60052, 22.81631 ], [ 72.60957, 22.81431 ], [ 72.60794, 22.82663 ], [ 72.60314, 22.83512 ], [ 72.60735, 22.86031 ], [ 72.59872, 22.86766 ], [ 72.60675, 22.87589 ], [ 72.60564, 22.88604 ], [ 72.63233, 22.8821 ], [ 72.63579, 22.89162 ], [ 72.64402, 22.89652 ], [ 72.65669, 22.89291 ], [ 72.66728, 22.89445 ], [ 72.67034, 22.88212 ], [ 72.67503, 22.88076 ], [ 72.67649, 22.86843 ], [ 72.67521, 22.85993 ], [ 72.66499, 22.84552 ], [ 72.67357, 22.84393 ], [ 72.68911, 22.83386 ], [ 72.68974, 22.81822 ], [ 72.68789, 22.81446 ], [ 72.6808, 22.81216 ], [ 72.66304, 22.81293 ], [ 72.66174, 22.80275 ], [ 72.6643, 22.80059 ], [ 72.6848, 22.80193 ], [ 72.69372, 22.8082 ], [ 72.70872, 22.80857 ], [ 72.71225, 22.79673 ], [ 72.709, 22.7791 ], [ 72.72607, 22.7729 ], [ 72.72917, 22.76809 ], [ 72.72819, 22.75793 ], [ 72.74614, 22.7672 ], [ 72.75479, 22.75225 ], [ 72.74248, 22.74177 ], [ 72.73331, 22.74122 ], [ 72.72822, 22.74658 ], [ 72.71798, 22.74779 ], [ 72.71206, 22.75304 ], [ 72.71031, 22.75017 ], [ 72.71323, 22.74224 ], [ 72.70658, 22.74474 ], [ 72.70133, 22.7352 ], [ 72.69692, 22.7368 ], [ 72.69286, 22.73353 ], [ 72.68954, 22.74567 ], [ 72.67528, 22.73611 ], [ 72.66203, 22.73493 ], [ 72.65967, 22.73167 ], [ 72.66325, 22.72421 ], [ 72.66167, 22.72043 ], [ 72.62256, 22.71308 ], [ 72.61114, 22.70344 ], [ 72.61029, 22.69272 ], [ 72.60107, 22.70358 ], [ 72.5928, 22.70002 ], [ 72.59257, 22.6964 ], [ 72.60187, 22.69088 ], [ 72.58787, 22.67955 ], [ 72.58383, 22.68214 ], [ 72.5877, 22.68972 ], [ 72.57938, 22.69339 ], [ 72.57891, 22.68031 ], [ 72.58418, 22.66112 ] ] ] } },
{ "type": "Feature", "properties": { "block": "Mahudha", "district": "Kheda", "lon": 72.9915, "lat": 22.808 }, "geometry": { "type": "Polygon", "coordinates": [ [ [ 72.90438, 22.77077 ], [ 72.89076, 22.76232 ], [ 72.8951, 22.7512 ], [ 72.89066, 22.74662 ], [ 72.87215, 22.75484 ], [ 72.86906, 22.7587 ], [ 72.87016, 22.76649 ], [ 72.85349, 22.77445 ], [ 72.88029, 22.80333 ], [ 72.89355, 22.80665 ], [ 72.89401, 22.81143 ], [ 72.88615, 22.81721 ], [ 72.88647, 22.82452 ], [ 72.90429, 22.8395 ], [ 72.91498, 22.84344 ], [ 72.91537, 22.86079 ], [ 72.93436, 22.87269 ], [ 72.93977, 22.88198 ], [ 72.95827, 22.88393 ], [ 72.95934, 22.87745 ], [ 72.96317, 22.87856 ], [ 72.9614, 22.87412 ], [ 72.94958, 22.86908 ], [ 72.93768, 22.86959 ], [ 72.94512, 22.8631 ], [ 72.96323, 22.86582 ], [ 72.9679, 22.85671 ], [ 72.97768, 22.84907 ], [ 72.98692, 22.85884 ], [ 72.98814, 22.86774 ], [ 72.99744, 22.87004 ], [ 72.99651, 22.86403 ], [ 73.00228, 22.85791 ], [ 72.99985, 22.85085 ], [ 73.01188, 22.84599 ], [ 73.01627, 22.83856 ], [ 73.02388, 22.85617 ], [ 73.02247, 22.87134 ], [ 73.03059, 22.87917 ], [ 73.03156, 22.884 ], [ 73.03837, 22.88148 ], [ 73.05181, 22.8678 ], [ 73.05438, 22.86955 ], [ 73.05199, 22.87928 ], [ 73.05798, 22.88377 ], [ 73.10294, 22.88107 ], [ 73.09064, 22.85741 ], [ 73.08994, 22.84311 ], [ 73.09375, 22.83604 ], [ 73.08923, 22.82649 ], [ 73.08913, 22.81339 ], [ 73.08302, 22.79915 ], [ 73.07056, 22.78734 ], [ 73.06995, 22.73835 ], [ 73.06097, 22.73051 ], [ 73.05801, 22.71905 ], [ 73.04487, 22.71626 ], [ 73.03821, 22.73204 ], [ 73.0103, 22.74219 ], [ 73.00946, 22.75929 ], [ 72.99764, 22.75953 ], [ 72.98469, 22.74753 ], [ 72.97369, 22.74889 ], [ 72.96542, 22.76222 ], [ 72.95969, 22.76506 ], [ 72.92197, 22.75572 ], [ 72.92034, 22.76744 ], [ 72.91382, 22.77177 ], [ 72.90438, 22.77077 ] ] ] } },
{ "type": "Feature", "properties": { "block": "Matar", "district": "Kheda", "lon": 72.6382, "lat": 22.6299 }, "geometry": { "type": "Polygon", "coordinates": [ [ [ 72.61884, 22.51161 ], [ 72.60635, 22.50875 ], [ 72.60202, 22.50194 ], [ 72.58981, 22.50008 ], [ 72.57574, 22.50384 ], [ 72.57389, 22.52211 ], [ 72.56779, 22.52187 ], [ 72.56812, 22.54193 ], [ 72.55888, 22.54277 ], [ 72.55414, 22.55995 ], [ 72.55553, 22.56723 ], [ 72.53519, 22.56825 ], [ 72.53487, 22.5862 ], [ 72.52798, 22.58665 ], [ 72.52731, 22.59407 ], [ 72.51421, 22.61293 ], [ 72.50765, 22.61275 ], [ 72.50576, 22.60939 ], [ 72.50587, 22.62381 ], [ 72.50959, 22.63239 ], [ 72.5166, 22.63518 ], [ 72.52789, 22.61893 ], [ 72.53452, 22.61897 ], [ 72.53635, 22.6241 ], [ 72.53113, 22.64187 ], [ 72.53507, 22.65278 ], [ 72.54062, 22.65537 ], [ 72.5532, 22.65057 ], [ 72.55899, 22.65233 ], [ 72.5603, 22.66507 ], [ 72.5666, 22.67321 ], [ 72.57668, 22.67041 ], [ 72.57795, 22.65753 ], [ 72.58415, 22.65902 ], [ 72.57891, 22.68031 ], [ 72.57938, 22.69339 ], [ 72.5877, 22.68972 ], [ 72.58398, 22.68129 ], [ 72.58939, 22.68023 ], [ 72.60187, 22.69088 ], [ 72.59212, 22.69724 ], [ 72.59591, 22.7022 ], [ 72.6022, 22.703 ], [ 72.61029, 22.69272 ], [ 72.61114, 22.70344 ], [ 72.61899, 22.71106 ], [ 72.6312, 22.71646 ], [ 72.66039, 22.71959 ], [ 72.66325, 22.72421 ], [ 72.66112, 22.73451 ], [ 72.67528, 22.73611 ], [ 72.68896, 22.74557 ], [ 72.69321, 22.73343 ], [ 72.69692, 22.7368 ], [ 72.70207, 22.73559 ], [ 72.70658, 22.74474 ], [ 72.71304, 22.74206 ], [ 72.71034, 22.75119 ], [ 72.71436, 22.75334 ], [ 72.71798, 22.74779 ], [ 72.72822, 22.74658 ], [ 72.73275, 22.74134 ], [ 72.74214, 22.7416 ], [ 72.74963, 22.74681 ], [ 72.75343, 22.73625 ], [ 72.76011, 22.73817 ], [ 72.76945, 22.73501 ], [ 72.77161, 22.7282 ], [ 72.76789, 22.7069 ], [ 72.75041, 22.69144 ], [ 72.7343, 22.69484 ], [ 72.72719, 22.68786 ], [ 72.73228, 22.67837 ], [ 72.7472, 22.67136 ], [ 72.7395, 22.65762 ], [ 72.73882, 22.64284 ], [ 72.72964, 22.62962 ], [ 72.71924, 22.62848 ], [ 72.70391, 22.63276 ], [ 72.68633, 22.6254 ], [ 72.69286, 22.60291 ], [ 72.71014, 22.59537 ], [ 72.71107, 22.59038 ], [ 72.69934, 22.58103 ], [ 72.69411, 22.58869 ], [ 72.67767, 22.58612 ], [ 72.67056, 22.57268 ], [ 72.67262, 22.56387 ], [ 72.66198, 22.55931 ], [ 72.66119, 22.55215 ], [ 72.6479, 22.54519 ], [ 72.64322, 22.53758 ], [ 72.64313, 22.52761 ], [ 72.66711, 22.52842 ], [ 72.67109, 22.50532 ], [ 72.65354, 22.50046 ], [ 72.65086, 22.50828 ], [ 72.64712, 22.50907 ], [ 72.63723, 22.50188 ], [ 72.61884, 22.51161 ] ] ] } },
{ "type": "Feature", "properties": { "block": "Mehmedabad", "district": "Kheda", "lon": 72.8032, "lat": 22.8527 }, "geometry": { "type": "Polygon", "coordinates": [ [ [ 72.79269, 22.74805 ], [ 72.77831, 22.74223 ], [ 72.76523, 22.74356 ], [ 72.76469, 22.73737 ], [ 72.75377, 22.73607 ], [ 72.74931, 22.74675 ], [ 72.75479, 22.75323 ], [ 72.74614, 22.7672 ], [ 72.72819, 22.75793 ], [ 72.72917, 22.76809 ], [ 72.72607, 22.7729 ], [ 72.709, 22.7791 ], [ 72.71225, 22.79673 ], [ 72.70872, 22.80857 ], [ 72.69372, 22.8082 ], [ 72.6848, 22.80193 ], [ 72.6643, 22.80059 ], [ 72.66174, 22.80275 ], [ 72.66304, 22.81293 ], [ 72.6808, 22.81216 ], [ 72.68789, 22.81446 ], [ 72.68974, 22.81822 ], [ 72.68911, 22.83386 ], [ 72.67357, 22.84393 ], [ 72.66499, 22.84552 ], [ 72.67521, 22.85993 ], [ 72.67503, 22.88076 ], [ 72.69299, 22.87945 ], [ 72.70838, 22.89156 ], [ 72.71648, 22.90781 ], [ 72.72292, 22.90866 ], [ 72.72437, 22.91369 ], [ 72.73503, 22.91367 ], [ 72.7417, 22.91058 ], [ 72.74295, 22.90645 ], [ 72.75496, 22.90861 ], [ 72.75924, 22.9025 ], [ 72.7599, 22.90718 ], [ 72.77138, 22.90963 ], [ 72.77764, 22.90635 ], [ 72.79041, 22.90879 ], [ 72.78931, 22.9141 ], [ 72.79949, 22.92106 ], [ 72.79807, 22.93089 ], [ 72.80582, 22.93421 ], [ 72.80504, 22.94101 ], [ 72.82412, 22.95675 ], [ 72.82761, 22.95305 ], [ 72.83906, 22.96486 ], [ 72.83914, 22.97649 ], [ 72.83616, 22.98157 ], [ 72.83149, 22.97978 ], [ 72.83257, 22.98727 ], [ 72.84731, 22.98258 ], [ 72.85681, 22.98373 ], [ 72.87496, 22.97976 ], [ 72.88038, 22.97477 ], [ 72.87732, 22.95741 ], [ 72.8866, 22.94477 ], [ 72.87004, 22.93644 ], [ 72.87074, 22.93293 ], [ 72.88177, 22.92752 ], [ 72.87336, 22.91609 ], [ 72.88782, 22.91112 ], [ 72.91798, 22.9131 ], [ 72.9196, 22.91044 ], [ 72.91584, 22.9037 ], [ 72.91901, 22.89594 ], [ 72.91146, 22.88817 ], [ 72.93021, 22.89399 ], [ 72.94523, 22.88826 ], [ 72.94665, 22.88391 ], [ 72.93977, 22.88198 ], [ 72.93436, 22.87269 ], [ 72.91537, 22.86079 ], [ 72.91498, 22.84344 ], [ 72.90429, 22.8395 ], [ 72.88647, 22.82452 ], [ 72.88615, 22.81721 ], [ 72.89401, 22.81143 ], [ 72.89355, 22.80665 ], [ 72.88029, 22.80333 ], [ 72.853, 22.77402 ], [ 72.83604, 22.76924 ], [ 72.83026, 22.75698 ], [ 72.80851, 22.75907 ], [ 72.79857, 22.74276 ], [ 72.79269, 22.74805 ] ] ] } },
{ "type": "Feature", "properties": { "block": "Nadiad", "district": "Kheda", "lon": 72.8766, "lat": 22.6861 }, "geometry": { "type": "Polygon", "coordinates": [ [ [ 72.85704, 22.60902 ], [ 72.84795, 22.5979 ], [ 72.82916, 22.59492 ], [ 72.82753, 22.60167 ], [ 72.8224, 22.60284 ], [ 72.82542, 22.60628 ], [ 72.82348, 22.60827 ], [ 72.79544, 22.61161 ], [ 72.79767, 22.62671 ], [ 72.8014, 22.63068 ], [ 72.79725, 22.638 ], [ 72.78178, 22.64196 ], [ 72.77044, 22.63574 ], [ 72.77064, 22.61932 ], [ 72.76697, 22.6231 ], [ 72.75848, 22.62414 ], [ 72.76203, 22.6352 ], [ 72.75336, 22.63572 ], [ 72.74224, 22.64472 ], [ 72.73882, 22.64284 ], [ 72.7395, 22.65762 ], [ 72.7472, 22.67136 ], [ 72.73228, 22.67837 ], [ 72.72719, 22.68786 ], [ 72.7343, 22.69484 ], [ 72.75041, 22.69144 ], [ 72.76789, 22.7069 ], [ 72.7716, 22.73063 ], [ 72.76945, 22.73501 ], [ 72.76382, 22.73666 ], [ 72.765, 22.7434 ], [ 72.77868, 22.74229 ], [ 72.79244, 22.74807 ], [ 72.79787, 22.74249 ], [ 72.80851, 22.75907 ], [ 72.83026, 22.75698 ], [ 72.83604, 22.76924 ], [ 72.85349, 22.77445 ], [ 72.87016, 22.76649 ], [ 72.86906, 22.7587 ], [ 72.87215, 22.75484 ], [ 72.89066, 22.74662 ], [ 72.8951, 22.7512 ], [ 72.89076, 22.76232 ], [ 72.90998, 22.77233 ], [ 72.92163, 22.76573 ], [ 72.92197, 22.75572 ], [ 72.95969, 22.76506 ], [ 72.96542, 22.76222 ], [ 72.97453, 22.74864 ], [ 72.98503, 22.74751 ], [ 72.99764, 22.75953 ], [ 73.00946, 22.75929 ], [ 73.0103, 22.74219 ], [ 73.02965, 22.73474 ], [ 73.02196, 22.72713 ], [ 73.00693, 22.72427 ], [ 73.00491, 22.71722 ], [ 73.01035, 22.70513 ], [ 72.99942, 22.70042 ], [ 72.98733, 22.65645 ], [ 72.978, 22.6507 ], [ 72.97557, 22.641 ], [ 72.96393, 22.63321 ], [ 72.92807, 22.62624 ], [ 72.92841, 22.61353 ], [ 72.92478, 22.60466 ], [ 72.9184, 22.59451 ], [ 72.9054, 22.58941 ], [ 72.89877, 22.59422 ], [ 72.88385, 22.5859 ], [ 72.86842, 22.5836 ], [ 72.8612, 22.59271 ], [ 72.86432, 22.5996 ], [ 72.87569, 22.60303 ], [ 72.87399, 22.61837 ], [ 72.85757, 22.61755 ], [ 72.85704, 22.60902 ] ] ] } },
{ "type": "Feature", "properties": { "block": "Thasra", "district": "Kheda", "lon": 73.2252, "lat": 22.8131 }, "geometry": { "type": "Polygon", "coordinates": [ [ [ 73.19308, 22.6846 ], [ 73.16124, 22.68102 ], [ 73.15713, 22.68435 ], [ 73.13983, 22.71425 ], [ 73.13021, 22.72237 ], [ 73.10206, 22.71852 ], [ 73.09927, 22.72091 ], [ 73.10255, 22.72745 ], [ 73.09479, 22.72762 ], [ 73.07825, 22.72108 ], [ 73.05801, 22.71905 ], [ 73.06097, 22.73051 ], [ 73.06995, 22.73835 ], [ 73.07056, 22.78734 ], [ 73.08327, 22.79976 ], [ 73.08842, 22.7941 ], [ 73.09406, 22.79696 ], [ 73.09642, 22.8153 ], [ 73.08773, 22.81014 ], [ 73.08923, 22.82649 ], [ 73.09375, 22.83604 ], [ 73.08945, 22.85073 ], [ 73.10455, 22.88411 ], [ 73.13651, 22.88605 ], [ 73.17202, 22.88213 ], [ 73.18314, 22.88483 ], [ 73.19561, 22.90037 ], [ 73.22911, 22.91414 ], [ 73.23752, 22.92122 ], [ 73.23114, 22.93878 ], [ 73.23305, 22.95558 ], [ 73.24142, 22.96032 ], [ 73.25508, 22.96086 ], [ 73.26139, 22.94424 ], [ 73.25932, 22.9288 ], [ 73.26358, 22.92485 ], [ 73.28083, 22.93365 ], [ 73.29166, 22.93455 ], [ 73.30383, 22.93065 ], [ 73.30544, 22.93585 ], [ 73.31232, 22.94091 ], [ 73.33099, 22.93041 ], [ 73.33137, 22.92491 ], [ 73.3501, 22.92327 ], [ 73.37618, 22.94301 ], [ 73.38299, 22.95384 ], [ 73.39323, 22.9489 ], [ 73.40882, 22.95162 ], [ 73.41448, 22.93731 ], [ 73.38131, 22.91331 ], [ 73.36801, 22.89777 ], [ 73.36813, 22.8862 ], [ 73.38045, 22.87264 ], [ 73.38495, 22.85863 ], [ 73.37305, 22.83447 ], [ 73.37238, 22.82545 ], [ 73.36413, 22.81479 ], [ 73.36015, 22.79822 ], [ 73.31938, 22.78279 ], [ 73.27316, 22.78129 ], [ 73.26567, 22.7767 ], [ 73.25674, 22.76393 ], [ 73.25237, 22.72008 ], [ 73.25595, 22.70405 ], [ 73.26846, 22.67877 ], [ 73.26629, 22.66343 ], [ 73.24178, 22.6488 ], [ 73.22775, 22.63495 ], [ 73.21685, 22.64148 ], [ 73.20575, 22.65479 ], [ 73.20298, 22.66518 ], [ 73.20376, 22.68217 ], [ 73.19308, 22.6846 ] ], [ [ 73.30636, 22.90382 ], [ 73.30373, 22.90995 ], [ 73.29913, 22.90944 ], [ 73.2821, 22.88841 ], [ 73.2982, 22.88623 ], [ 73.30636, 22.90382 ] ] ] } },
{ "type": "Feature", "properties": { "block": "Balasinor", "district": "Mahisagar", "lon": 73.3482, "lat": 23.0152 }, "geometry": { "type": "Polygon", "coordinates": [ [ [ 73.37618, 22.94301 ], [ 73.3501, 22.92327 ], [ 73.33386, 22.9241 ], [ 73.33057, 22.92554 ], [ 73.33099, 22.93041 ], [ 73.31232, 22.94091 ], [ 73.30544, 22.93585 ], [ 73.30383, 22.93065 ], [ 73.29166, 22.93455 ], [ 73.28083, 22.93365 ], [ 73.26237, 22.92517 ], [ 73.25932, 22.9288 ], [ 73.26041, 22.94855 ], [ 73.25346, 22.96414 ], [ 73.2555, 22.96822 ], [ 73.27864, 22.97592 ], [ 73.26686, 23.00042 ], [ 73.2538, 23.00833 ], [ 73.24616, 23.01876 ], [ 73.25007, 23.02792 ], [ 73.24939, 23.03871 ], [ 73.26031, 23.04066 ], [ 73.27833, 23.05023 ], [ 73.27647, 23.05823 ], [ 73.28204, 23.06064 ], [ 73.29581, 23.08101 ], [ 73.30637, 23.08568 ], [ 73.32628, 23.08126 ], [ 73.33169, 23.09844 ], [ 73.34225, 23.10213 ], [ 73.33784, 23.12827 ], [ 73.35455, 23.13735 ], [ 73.36324, 23.13322 ], [ 73.36208, 23.12242 ], [ 73.37626, 23.11403 ], [ 73.37474, 23.10625 ], [ 73.37841, 23.10273 ], [ 73.3996, 23.09962 ], [ 73.41358, 23.10456 ], [ 73.42276, 23.09998 ], [ 73.42332, 23.08954 ], [ 73.41725, 23.08263 ], [ 73.41556, 23.0743 ], [ 73.41599, 23.06351 ], [ 73.42389, 23.05152 ], [ 73.41881, 23.047 ], [ 73.41443, 23.02747 ], [ 73.43468, 23.02498 ], [ 73.43552, 22.99867 ], [ 73.44936, 22.97457 ], [ 73.44364, 22.96104 ], [ 73.41448, 22.93731 ], [ 73.40882, 22.95162 ], [ 73.39323, 22.9489 ], [ 73.38329, 22.95395 ], [ 73.37618, 22.94301 ] ] ] } },
{ "type": "Feature", "properties": { "block": "Kadana", "district": "Mahisagar", "lon": 73.7905, "lat": 23.3162 }, "geometry": { "type": "Polygon", "coordinates": [ [ [ 73.71825, 23.21385 ], [ 73.73281, 23.21683 ], [ 73.73836, 23.22725 ], [ 73.73065, 23.25127 ], [ 73.72665, 23.25136 ], [ 73.72211, 23.26025 ], [ 73.70697, 23.25194 ], [ 73.68489, 23.25874 ], [ 73.7047, 23.27453 ], [ 73.70951, 23.28643 ], [ 73.68621, 23.33302 ], [ 73.6928, 23.34529 ], [ 73.68937, 23.35616 ], [ 73.69786, 23.36217 ], [ 73.70014, 23.37337 ], [ 73.7042, 23.37605 ], [ 73.69832, 23.38082 ], [ 73.69096, 23.38177 ], [ 73.68837, 23.38903 ], [ 73.6941, 23.39681 ], [ 73.70113, 23.39558 ], [ 73.71074, 23.39972 ], [ 73.71864, 23.40793 ], [ 73.7263, 23.40794 ], [ 73.72392, 23.41748 ], [ 73.74545, 23.43982 ], [ 73.75687, 23.45701 ], [ 73.76728, 23.45704 ], [ 73.7725, 23.44333 ], [ 73.78396, 23.43444 ], [ 73.79332, 23.43585 ], [ 73.80338, 23.44239 ], [ 73.82056, 23.44429 ], [ 73.82972, 23.44976 ], [ 73.8343, 23.44089 ], [ 73.83231, 23.42965 ], [ 73.85792, 23.40071 ], [ 73.86475, 23.38669 ], [ 73.87294, 23.37997 ], [ 73.87569, 23.36756 ], [ 73.88989, 23.35816 ], [ 73.89399, 23.35169 ], [ 73.89347, 23.34465 ], [ 73.87984, 23.33495 ], [ 73.87882, 23.31928 ], [ 73.86824, 23.31689 ], [ 73.85471, 23.30274 ], [ 73.86434, 23.28732 ], [ 73.86987, 23.28887 ], [ 73.88045, 23.27773 ], [ 73.88541, 23.2638 ], [ 73.88821, 23.24913 ], [ 73.88298, 23.23943 ], [ 73.88674, 23.22072 ], [ 73.88036, 23.20627 ], [ 73.87921, 23.18854 ], [ 73.86989, 23.1846 ], [ 73.875, 23.20732 ], [ 73.87367, 23.22245 ], [ 73.85757, 23.22178 ], [ 73.85944, 23.21203 ], [ 73.825, 23.18654 ], [ 73.82069, 23.17556 ], [ 73.81438, 23.17596 ], [ 73.80213, 23.18505 ], [ 73.78296, 23.18741 ], [ 73.77589, 23.1915 ], [ 73.77022, 23.20515 ], [ 73.71564, 23.20399 ], [ 73.71825, 23.21385 ] ] ] } },
{ "type": "Feature", "properties": { "block": "Khanpur", "district": "Mahisagar", "lon": 73.6301, "lat": 23.3195 }, "geometry": { "type": "Polygon", "coordinates": [ [ [ 73.62669, 23.19764 ], [ 73.57614, 23.1982 ], [ 73.57333, 23.21016 ], [ 73.55567, 23.20211 ], [ 73.55595, 23.20663 ], [ 73.54409, 23.22405 ], [ 73.54917, 23.23548 ], [ 73.56104, 23.23421 ], [ 73.57459, 23.24542 ], [ 73.57502, 23.2601 ], [ 73.57161, 23.27207 ], [ 73.5671, 23.27456 ], [ 73.55101, 23.27194 ], [ 73.53928, 23.24994 ], [ 73.53081, 23.24726 ], [ 73.52191, 23.26531 ], [ 73.53165, 23.27216 ], [ 73.52657, 23.28514 ], [ 73.5318, 23.28909 ], [ 73.54056, 23.30806 ], [ 73.55581, 23.31497 ], [ 73.55821, 23.32739 ], [ 73.56499, 23.33627 ], [ 73.5657, 23.34686 ], [ 73.57167, 23.3488 ], [ 73.5834, 23.36199 ], [ 73.59525, 23.38302 ], [ 73.60993, 23.38762 ], [ 73.62593, 23.40485 ], [ 73.632, 23.42253 ], [ 73.62078, 23.43484 ], [ 73.62983, 23.45376 ], [ 73.63835, 23.45012 ], [ 73.6479, 23.43962 ], [ 73.66951, 23.4542 ], [ 73.69791, 23.45821 ], [ 73.70799, 23.44623 ], [ 73.71358, 23.41605 ], [ 73.72052, 23.41195 ], [ 73.72392, 23.41748 ], [ 73.72693, 23.41087 ], [ 73.7263, 23.40794 ], [ 73.71864, 23.40793 ], [ 73.71074, 23.39972 ], [ 73.70113, 23.39558 ], [ 73.6941, 23.39681 ], [ 73.68829, 23.38854 ], [ 73.69096, 23.38177 ], [ 73.69832, 23.38082 ], [ 73.7042, 23.37605 ], [ 73.70014, 23.37337 ], [ 73.69786, 23.36217 ], [ 73.68937, 23.35616 ], [ 73.6928, 23.34529 ], [ 73.68597, 23.33431 ], [ 73.70624, 23.29589 ], [ 73.70919, 23.28074 ], [ 73.69099, 23.26133 ], [ 73.67596, 23.25617 ], [ 73.66448, 23.24357 ], [ 73.64928, 23.23629 ], [ 73.6452, 23.22818 ], [ 73.6459, 23.21238 ], [ 73.63999, 23.20383 ], [ 73.62669, 23.19764 ] ] ] } },
{ "type": "Feature", "properties": { "block": "Lunawada", "district": "Mahisagar", "lon": 73.5719, "lat": 23.1047 }, "geometry": { "type": "MultiPolygon", "coordinates": [ [ [ [ 73.50513, 22.99485 ], [ 73.49007, 22.99369 ], [ 73.48197, 22.98282 ], [ 73.47607, 23.00124 ], [ 73.4566, 23.00323 ], [ 73.45216, 22.99849 ], [ 73.4355, 22.99874 ], [ 73.43468, 23.02498 ], [ 73.41443, 23.02747 ], [ 73.41881, 23.047 ], [ 73.42389, 23.05152 ], [ 73.41599, 23.06351 ], [ 73.41556, 23.0743 ], [ 73.41725, 23.08263 ], [ 73.42332, 23.08954 ], [ 73.42403, 23.09758 ], [ 73.41669, 23.10428 ], [ 73.39706, 23.09962 ], [ 73.37587, 23.1047 ], [ 73.37756, 23.11938 ], [ 73.38364, 23.13369 ], [ 73.40002, 23.14329 ], [ 73.41599, 23.1471 ], [ 73.42616, 23.15486 ], [ 73.4342, 23.15034 ], [ 73.43378, 23.14174 ], [ 73.44212, 23.1399 ], [ 73.45694, 23.15217 ], [ 73.48378, 23.15232 ], [ 73.48901, 23.14907 ], [ 73.4938, 23.15203 ], [ 73.49847, 23.14597 ], [ 73.50864, 23.14258 ], [ 73.52347, 23.15387 ], [ 73.52332, 23.16438 ], [ 73.51965, 23.16282 ], [ 73.52078, 23.16875 ], [ 73.53095, 23.17637 ], [ 73.53251, 23.18243 ], [ 73.54352, 23.19294 ], [ 73.5479, 23.1897 ], [ 73.59204, 23.20068 ], [ 73.6174, 23.19728 ], [ 73.63134, 23.1988 ], [ 73.64535, 23.21081 ], [ 73.6452, 23.22818 ], [ 73.64928, 23.23629 ], [ 73.66448, 23.24357 ], [ 73.67596, 23.25617 ], [ 73.68282, 23.25949 ], [ 73.70801, 23.25201 ], [ 73.72211, 23.26025 ], [ 73.72665, 23.25136 ], [ 73.72996, 23.25188 ], [ 73.73232, 23.24824 ], [ 73.73176, 23.24184 ], [ 73.73617, 23.23745 ], [ 73.73836, 23.22725 ], [ 73.73281, 23.21683 ], [ 73.71825, 23.21385 ], [ 73.71571, 23.20344 ], [ 73.72225, 23.19522 ], [ 73.72367, 23.17907 ], [ 73.71606, 23.17389 ], [ 73.71674, 23.16757 ], [ 73.71152, 23.16459 ], [ 73.71022, 23.1587 ], [ 73.69752, 23.15157 ], [ 73.69099, 23.15145 ], [ 73.68638, 23.14662 ], [ 73.68711, 23.13677 ], [ 73.69209, 23.13611 ], [ 73.69508, 23.1307 ], [ 73.69835, 23.10752 ], [ 73.68072, 23.10673 ], [ 73.66632, 23.09762 ], [ 73.66125, 23.08021 ], [ 73.65062, 23.06377 ], [ 73.62814, 23.07137 ], [ 73.62569, 23.06923 ], [ 73.62975, 23.06403 ], [ 73.6211, 23.06177 ], [ 73.61496, 23.06874 ], [ 73.61306, 23.06032 ], [ 73.62816, 23.0607 ], [ 73.63116, 23.05247 ], [ 73.63712, 23.04741 ], [ 73.63177, 23.04142 ], [ 73.63488, 23.02788 ], [ 73.64419, 23.02128 ], [ 73.65329, 23.01938 ], [ 73.64712, 23.01612 ], [ 73.63953, 23.01831 ], [ 73.63454, 23.01269 ], [ 73.62337, 23.02449 ], [ 73.62192, 23.01831 ], [ 73.61687, 23.01606 ], [ 73.59756, 22.99224 ], [ 73.59119, 22.99151 ], [ 73.58669, 22.98588 ], [ 73.56692, 22.98484 ], [ 73.53876, 22.99299 ], [ 73.53616, 22.98704 ], [ 73.52817, 22.98611 ], [ 73.52897, 22.981 ], [ 73.52654, 22.98027 ], [ 73.52164, 22.98431 ], [ 73.51375, 22.98199 ], [ 73.51216, 22.98696 ], [ 73.50637, 22.98807 ], [ 73.50513, 22.99485 ] ] ], [ [ [ 73.71951, 23.03606 ], [ 73.71806, 23.02445 ], [ 73.70695, 23.0222 ], [ 73.6986, 23.02838 ], [ 73.67282, 23.01831 ], [ 73.66913, 23.02367 ], [ 73.66291, 23.02561 ], [ 73.67289, 23.03462 ], [ 73.71756, 23.05459 ], [ 73.71969, 23.05701 ], [ 73.7142, 23.06678 ], [ 73.73488, 23.07041 ], [ 73.74458, 23.06722 ], [ 73.74852, 23.05787 ], [ 73.76556, 23.05347 ], [ 73.76572, 23.03832 ], [ 73.76148, 23.03537 ], [ 73.75597, 23.03655 ], [ 73.75523, 23.02452 ], [ 73.74278, 23.01177 ], [ 73.7387, 23.01278 ], [ 73.73371, 23.03316 ], [ 73.72565, 23.03742 ], [ 73.71951, 23.03606 ] ] ] ] } },
{ "type": "Feature", "properties": { "block": "Santrampur", "district": "Mahisagar", "lon": 73.8735, "lat": 23.1824 }, "geometry": { "type": "Polygon", "coordinates": [ [ [ 73.80434, 23.10777 ], [ 73.79939, 23.10586 ], [ 73.79833, 23.09794 ], [ 73.78652, 23.08684 ], [ 73.77621, 23.08214 ], [ 73.77172, 23.07443 ], [ 73.7655, 23.07156 ], [ 73.75481, 23.07368 ], [ 73.74458, 23.06722 ], [ 73.73219, 23.07109 ], [ 73.72919, 23.0683 ], [ 73.7142, 23.06678 ], [ 73.71044, 23.07598 ], [ 73.69756, 23.09069 ], [ 73.68385, 23.09409 ], [ 73.67432, 23.10241 ], [ 73.68072, 23.10673 ], [ 73.69835, 23.10752 ], [ 73.69508, 23.1307 ], [ 73.69209, 23.13611 ], [ 73.68711, 23.13677 ], [ 73.68638, 23.14662 ], [ 73.69099, 23.15145 ], [ 73.69752, 23.15157 ], [ 73.71022, 23.1587 ], [ 73.71152, 23.16459 ], [ 73.71734, 23.16901 ], [ 73.71613, 23.174 ], [ 73.72367, 23.17907 ], [ 73.72225, 23.19522 ], [ 73.71564, 23.20399 ], [ 73.77022, 23.20515 ], [ 73.77589, 23.1915 ], [ 73.78296, 23.18741 ], [ 73.80213, 23.18505 ], [ 73.81438, 23.17596 ], [ 73.82069, 23.17556 ], [ 73.825, 23.18654 ], [ 73.85944, 23.21203 ], [ 73.85757, 23.22178 ], [ 73.86618, 23.22365 ], [ 73.8741, 23.22223 ], [ 73.87476, 23.21707 ], [ 73.86989, 23.1846 ], [ 73.87892, 23.18796 ], [ 73.88036, 23.20627 ], [ 73.88674, 23.22072 ], [ 73.88298, 23.23943 ], [ 73.88821, 23.24913 ], [ 73.88541, 23.2638 ], [ 73.88045, 23.27773 ], [ 73.86987, 23.28887 ], [ 73.86434, 23.28732 ], [ 73.85475, 23.30305 ], [ 73.86824, 23.31689 ], [ 73.87882, 23.31928 ], [ 73.87984, 23.33495 ], [ 73.89347, 23.34465 ], [ 73.89237, 23.33576 ], [ 73.91175, 23.33474 ], [ 73.93603, 23.33913 ], [ 73.94066, 23.34481 ], [ 73.9409, 23.3691 ], [ 73.95927, 23.38033 ], [ 73.96304, 23.37465 ], [ 73.97477, 23.37359 ], [ 73.9812, 23.36179 ], [ 73.9819, 23.34033 ], [ 73.99432, 23.33317 ], [ 74.003, 23.33306 ], [ 74.00137, 23.32524 ], [ 73.99156, 23.31256 ], [ 73.98901, 23.30017 ], [ 74.00041, 23.28523 ], [ 73.99046, 23.27822 ], [ 73.98277, 23.26133 ], [ 73.99387, 23.2492 ], [ 73.98965, 23.2416 ], [ 73.99027, 23.22501 ], [ 73.98611, 23.22165 ], [ 73.96364, 23.22527 ], [ 73.96458, 23.21296 ], [ 73.9832, 23.20937 ], [ 73.98039, 23.19894 ], [ 73.97126, 23.19601 ], [ 73.96932, 23.18004 ], [ 73.99277, 23.16542 ], [ 73.99142, 23.1608 ], [ 73.99495, 23.15066 ], [ 73.99553, 23.14132 ], [ 73.98054, 23.14312 ], [ 73.97584, 23.13797 ], [ 73.97582, 23.12853 ], [ 73.98118, 23.12326 ], [ 74.00314, 23.12332 ], [ 74.0046, 23.11185 ], [ 74.00826, 23.11151 ], [ 74.02589, 23.09244 ], [ 74.00721, 23.08261 ], [ 73.98063, 23.09867 ], [ 73.9665, 23.09769 ], [ 73.96506, 23.11233 ], [ 73.96007, 23.11297 ], [ 73.95532, 23.10857 ], [ 73.94891, 23.10834 ], [ 73.94252, 23.09735 ], [ 73.91854, 23.09092 ], [ 73.90799, 23.08146 ], [ 73.90574, 23.07422 ], [ 73.90957, 23.05439 ], [ 73.90675, 23.04801 ], [ 73.89304, 23.0441 ], [ 73.87837, 23.04744 ], [ 73.87051, 23.05415 ], [ 73.85286, 23.05665 ], [ 73.8427, 23.06882 ], [ 73.83684, 23.08417 ], [ 73.81718, 23.09785 ], [ 73.80936, 23.09997 ], [ 73.80962, 23.10345 ], [ 73.80434, 23.10777 ] ] ] } },
{ "type": "Feature", "properties": { "block": "Virpur", "district": "Mahisagar", "lon": 73.4602, "lat": 23.2096 }, "geometry": { "type": "Polygon", "coordinates": [ [ [ 73.36978, 23.13416 ], [ 73.37372, 23.14005 ], [ 73.36954, 23.14693 ], [ 73.37102, 23.16706 ], [ 73.37519, 23.17062 ], [ 73.35381, 23.17945 ], [ 73.34275, 23.19811 ], [ 73.3511, 23.20229 ], [ 73.35479, 23.20842 ], [ 73.38503, 23.21935 ], [ 73.38576, 23.22229 ], [ 73.37593, 23.2353 ], [ 73.39117, 23.24905 ], [ 73.41034, 23.26133 ], [ 73.46539, 23.28673 ], [ 73.47424, 23.28723 ], [ 73.47694, 23.28232 ], [ 73.4767, 23.26832 ], [ 73.50226, 23.28011 ], [ 73.52657, 23.28514 ], [ 73.53165, 23.27216 ], [ 73.52191, 23.26531 ], [ 73.53081, 23.24726 ], [ 73.53928, 23.24994 ], [ 73.55101, 23.27194 ], [ 73.5671, 23.27456 ], [ 73.57161, 23.27207 ], [ 73.57502, 23.2601 ], [ 73.57459, 23.24542 ], [ 73.56104, 23.23421 ], [ 73.54917, 23.23548 ], [ 73.54395, 23.2232 ], [ 73.55595, 23.20663 ], [ 73.55567, 23.20211 ], [ 73.57333, 23.21016 ], [ 73.57671, 23.19859 ], [ 73.56358, 23.19224 ], [ 73.5479, 23.1897 ], [ 73.54352, 23.19294 ], [ 73.53251, 23.18243 ], [ 73.53095, 23.17637 ], [ 73.52078, 23.16875 ], [ 73.51965, 23.16282 ], [ 73.52332, 23.16438 ], [ 73.52347, 23.15387 ], [ 73.51428, 23.14597 ], [ 73.50581, 23.1423 ], [ 73.4938, 23.15203 ], [ 73.48901, 23.14907 ], [ 73.48378, 23.15232 ], [ 73.45694, 23.15217 ], [ 73.44212, 23.1399 ], [ 73.43378, 23.14174 ], [ 73.4342, 23.15034 ], [ 73.42616, 23.15486 ], [ 73.41599, 23.1471 ], [ 73.40002, 23.14329 ], [ 73.38364, 23.13369 ], [ 73.37626, 23.11403 ], [ 73.36208, 23.12242 ], [ 73.36324, 23.13322 ], [ 73.36978, 23.13416 ] ] ] } }
]
}
