{
"type": "FeatureCollection",
"name": "districts",
"crs": { "type": "name", "properties": { "name": "urn:ogc:def:crs:OGC::CRS84" } },
"xy_coordinate_resolution": 0.0001,
"features": [
{ "type": "Feature", "properties": { "district": "Anand" }, "geometry": { "type": "Polygon", "coordinates": [ [ [ 72.7899, 22.2379 ], [ 72.7752, 22.2292 ], [ 72.762, 22.2252 ], [ 72.7474, 22.2231 ], [ 72.7401, 22.2203 ], [ 72.7127, 22.2091 ], [ 72.7083, 22.2067 ], [ 72.7029, 22.2014 ], [ 72.699, 22.1999 ], [ 72.6952, 22.2008 ], [ 72.662, 22.2233 ], [ 72.6342, 22.2321 ], [ 72.6242, 22.2339 ], [ 72.5758, 22.2328 ], [ 72.5553, 22.2281 ], [ 72.5437, 22.2231 ], [ 72.5308, 22.2154 ], [ 72.5169, 22.2015 ], [ 72.4994, 22.1792 ], [ 72.4599, 22.1571 ], [ 72.4335, 22.1403 ], [ 72.3933, 22.1053 ], [ 72.3425, 22.1689 ], [ 72.3356, 22.1851 ], [ 72.3341, 22.1923 ], [ 72.3392, 22.2138 ], [ 72.3455, 22.2264 ], [ 72.3552, 22.2417 ], [ 72.3584, 22.2492 ], [ 72.3625, 22.2716 ], [ 72.3615, 22.2904 ], [ 72.3624, 22.2954 ], [ 72.3702, 22.3067 ], [ 72.374, 22.3173 ], [ 72.3766, 22.3204 ], [ 72.3821, 22.3231 ], [ 72.3865, 22.3302 ], [ 72.3863, 22.3346 ], [ 72.3881, 22.3383 ], [ 72.3997, 22.3493 ], [ 72.4016, 22.3531 ], [ 72.401, 22.3597 ], [ 72.3995, 22.363 ], [ 72.3935, 22.368 ], [ 72.3835, 22.3734 ], [ 72.3764, 22.3752 ], [ 72.3512, 22.3768 ], [ 72.3467, 22.3782 ], [ 72.345, 22.3794 ], [ 72.3415, 22.3867 ], [ 72.368, 22.4072 ], [ 72.3697, 22.4255 ], [ 72.3733, 22.4468 ], [ 72.367, 22.4413 ], [ 72.3559, 22.4404 ], [ 72.3603, 22.4448 ], [ 72.3606, 22.4482 ], [ 72.3638, 22.4535 ], [ 72.3732, 22.4505 ], [ 72.3768, 22.4524 ], [ 72.3781, 22.4592 ], [ 72.3757, 22.4733 ], [ 72.3916, 22.4762 ], [ 72.4069, 22.4818 ], [ 72.4082, 22.4761 ], [ 72.4213, 22.4861 ], [ 72.4317, 22.4973 ], [ 72.4388, 22.5092 ], [ 72.4402, 22.5229 ], [ 72.4402, 22.5342 ], [ 72.438, 22.5425 ], [ 72.4365, 22.5454 ], [ 72.4238, 22.5598 ], [ 72.4222, 22.5639 ], [ 72.4233, 22.5683 ], [ 72.4282, 22.5735 ], [ 72.4306, 22.574 ], [ 72.4374, 22.5696 ], [ 72.441, 22.5655 ], [ 72.4476, 22.5711 ], [ 72.4656, 22.5775 ], [ 72.4879, 22.5986 ], [ 72.4874, 22.5976 ], [ 72.4937, 22.6025 ], [ 72.5038, 22.6059 ], [ 72.5052, 22.6096 ], [ 72.5051, 22.614 ], [ 72.5124, 22.6134 ], [ 72.516, 22.6118 ], [ 72.5184, 22.6058 ], [ 72.5175, 22.6046 ], [ 72.5211, 22.5994 ], [ 72.5241, 22.5975 ], [ 72.526, 22.5981 ], [ 72.5258, 22.5876 ], [ 72.5336, 22.5881 ], [ 72.5329, 22.5693 ], [ 72.5467, 22.5699 ], [ 72.5541, 22.5678 ], [ 72.5519, 22.562 ], [ 72.5524, 22.5558 ], [ 72.5575, 22.5527 ], [ 72.5576, 22.5415 ], [ 72.5673, 22.5435 ], [ 72.5684, 22.5253 ], [ 72.5676, 22.52 ], [ 72.5702, 22.5205 ], [ 72.5709, 22.5216 ], [ 72.5737, 22.5213 ], [ 72.5749, 22.515 ], [ 72.5724, 22.5116 ], [ 72.577, 22.5037 ], [ 72.5889, 22.5002 ], [ 72.5939, 22.5003 ], [ 72.5967, 22.5025 ], [ 72.597, 22.5012 ], [ 72.5994, 22.5008 ], [ 72.6044, 22.505 ], [ 72.6041, 22.5065 ], [ 72.6053, 22.5068 ], [ 72.6047, 22.5096 ], [ 72.6107, 22.5102 ], [ 72.619, 22.5133 ], [ 72.6214, 22.5111 ], [ 72.6214, 22.5095 ], [ 72.6236, 22.5088 ], [ 72.6278, 22.5097 ], [ 72.6286, 22.5073 ], [ 72.6338, 22.5061 ], [ 72.6341, 22.5045 ], [ 72.6358, 22.5038 ], [ 72.6385, 22.5046 ], [ 72.6388, 22.5034 ], [ 72.641, 22.5046 ], [ 72.6386, 22.5072 ], [ 72.6471, 22.5099 ], [ 72.6509, 22.5097 ], [ 72.6525, 22.5063 ], [ 72.6522, 22.501 ], [ 72.6662, 22.5037 ], [ 72.6667, 22.5048 ], [ 72.6714, 22.5059 ], [ 72.673, 22.5051 ], [ 72.6707, 22.5072 ], [ 72.6698, 22.5198 ], [ 72.667, 22.5303 ], [ 72.6601, 22.5302 ], [ 72.6511, 22.5283 ], [ 72.6423, 22.5289 ], [ 72.6411, 22.5353 ], [ 72.6424, 22.536 ], [ 72.6437, 22.5399 ], [ 72.6472, 22.5409 ], [ 72.6467, 22.5446 ], [ 72.649, 22.5475 ], [ 72.6556, 22.5512 ], [ 72.6555, 22.5522 ], [ 72.6612, 22.553 ], [ 72.6605, 22.5584 ], [ 72.6644, 22.5591 ], [ 72.6713, 22.5641 ], [ 72.6691, 22.5682 ], [ 72.6685, 22.5725 ], [ 72.671, 22.5737 ], [ 72.6716, 22.5759 ], [ 72.6731, 22.5768 ], [ 72.6737, 22.579 ], [ 72.6724, 22.5797 ], [ 72.6753, 22.586 ], [ 72.6913, 22.5903 ], [ 72.6942, 22.5889 ], [ 72.6968, 22.5819 ], [ 72.6976, 22.5819 ], [ 72.7105, 22.5897 ], [ 72.7093, 22.5955 ], [ 72.7069, 22.5954 ], [ 72.7057, 22.5995 ], [ 72.6982, 22.5993 ], [ 72.6978, 22.6 ], [ 72.694, 22.5989 ], [ 72.6938, 22.6029 ], [ 72.6913, 22.6024 ], [ 72.689, 22.6054 ], [ 72.6886, 22.6085 ], [ 72.6903, 22.6088 ], [ 72.6871, 22.6132 ], [ 72.6854, 22.6201 ], [ 72.6869, 22.6242 ], [ 72.6856, 22.6292 ], [ 72.6957, 22.6301 ], [ 72.704, 22.6338 ], [ 72.7054, 22.6328 ], [ 72.7091, 22.6336 ], [ 72.7144, 22.6307 ], [ 72.7139, 22.6254 ], [ 72.7148, 22.6242 ], [ 72.7173, 22.6248 ], [ 72.7166, 22.6277 ], [ 72.7189, 22.6309 ], [ 72.7249, 22.6284 ], [ 72.7282, 22.6297 ], [ 72.7291, 22.6336 ], [ 72.7329, 22.6375 ], [ 72.7338, 22.6405 ], [ 72.7397, 22.6446 ], [ 72.7427, 22.6448 ], [ 72.7472, 22.6411 ], [ 72.7428, 22.6408 ], [ 72.7433, 22.639 ], [ 72.7451, 22.6392 ], [ 72.7455, 22.6376 ], [ 72.7402, 22.6282 ], [ 72.7384, 22.6291 ], [ 72.7378, 22.6259 ], [ 72.7323, 22.6254 ], [ 72.7351, 22.6193 ], [ 72.7343, 22.6177 ], [ 72.7379, 22.6158 ], [ 72.7378, 22.6134 ], [ 72.7356, 22.6141 ], [ 72.7352, 22.6115 ], [ 72.7381, 22.6105 ], [ 72.7399, 22.6121 ], [ 72.7449, 22.6123 ], [ 72.7445, 22.6137 ], [ 72.7514, 22.6134 ], [ 72.7521, 22.6147 ], [ 72.7534, 22.6133 ], [ 72.7569, 22.6126 ], [ 72.7551, 22.6105 ], [ 72.7529, 22.6041 ], [ 72.7523, 22.5989 ], [ 72.7504, 22.5973 ], [ 72.752, 22.593 ], [ 72.7561, 22.5936 ], [ 72.7566, 22.5919 ], [ 72.7608, 22.5908 ], [ 72.7706, 22.5905 ], [ 72.777, 22.5885 ], [ 72.7795, 22.5901 ], [ 72.7793, 22.5907 ], [ 72.7764, 22.594 ], [ 72.7738, 22.6071 ], [ 72.771, 22.6102 ], [ 72.7709, 22.6123 ], [ 72.7776, 22.6157 ], [ 72.7767, 22.6198 ], [ 72.7911, 22.623 ], [ 72.7927, 22.6215 ], [ 72.7935, 22.6168 ], [ 72.7959, 22.6141 ], [ 72.796, 22.6094 ], [ 72.8018, 22.6087 ], [ 72.8044, 22.6101 ], [ 72.8043, 22.6112 ], [ 72.8083, 22.6115 ], [ 72.8105, 22.6081 ], [ 72.8155, 22.6084 ], [ 72.8165, 22.6075 ], [ 72.8219, 22.6072 ], [ 72.8225, 22.6036 ], [ 72.8272, 22.6039 ], [ 72.8272, 22.5958 ], [ 72.8305, 22.5943 ], [ 72.8333, 22.5968 ], [ 72.8397, 22.5987 ], [ 72.8434, 22.5973 ], [ 72.8506, 22.6017 ], [ 72.8498, 22.6057 ], [ 72.8564, 22.6095 ], [ 72.8538, 22.6184 ], [ 72.8583, 22.6184 ], [ 72.859, 22.6171 ], [ 72.8602, 22.6171 ], [ 72.8719, 22.6204 ], [ 72.8717, 22.6149 ], [ 72.874, 22.6139 ], [ 72.8749, 22.6109 ], [ 72.875, 22.6035 ], [ 72.863, 22.6009 ], [ 72.8622, 22.5967 ], [ 72.863, 22.5937 ], [ 72.8597, 22.5914 ], [ 72.8641, 22.5878 ], [ 72.8664, 22.5842 ], [ 72.8689, 22.5724 ], [ 72.8672, 22.5824 ], [ 72.8707, 22.5843 ], [ 72.8789, 22.5855 ], [ 72.8895, 22.5919 ], [ 72.8976, 22.595 ], [ 72.9007, 22.5903 ], [ 72.9057, 22.5927 ], [ 72.9106, 22.5924 ], [ 72.9174, 22.5947 ], [ 72.9199, 22.5974 ], [ 72.9222, 22.6034 ], [ 72.925, 22.606 ], [ 72.9259, 22.6139 ], [ 72.9281, 22.6167 ], [ 72.9288, 22.6276 ], [ 72.9298, 22.6292 ], [ 72.9409, 22.6301 ], [ 72.9457, 22.632 ], [ 72.9521, 22.6325 ], [ 72.9619, 22.6361 ], [ 72.9628, 22.6339 ], [ 72.9751, 22.6417 ], [ 72.9763, 22.6529 ], [ 72.9806, 22.6525 ], [ 72.9847, 22.6536 ], [ 72.9864, 22.6566 ], [ 72.9881, 22.6655 ], [ 72.99, 22.6676 ], [ 72.99, 22.6714 ], [ 72.9918, 22.672 ], [ 72.9934, 22.6805 ], [ 72.9922, 22.6879 ], [ 72.9952, 22.6882 ], [ 72.9963, 22.6914 ], [ 72.9959, 22.6949 ], [ 72.9976, 22.696 ], [ 72.9979, 22.6977 ], [ 72.9973, 22.7 ], [ 73.0052, 22.7027 ], [ 73.0078, 22.7042 ], [ 73.0075, 22.7057 ], [ 73.0092, 22.7053 ], [ 73.0085, 22.711 ], [ 73.0061, 22.7118 ], [ 73.004, 22.7156 ], [ 73.0055, 22.7172 ], [ 73.0032, 22.7217 ], [ 73.0073, 22.7262 ], [ 73.0116, 22.727 ], [ 73.0139, 22.7254 ], [ 73.0217, 22.7254 ], [ 73.0251, 22.7315 ], [ 73.0249, 22.735 ], [ 73.0307, 22.7337 ], [ 73.0326, 22.7344 ], [ 73.0338, 22.7302 ], [ 73.0379, 22.7297 ], [ 73.0392, 22.7285 ], [ 73.0398, 22.7262 ], [ 73.039, 22.7251 ], [ 73.0369, 22.7258 ], [ 73.0368, 22.7213 ], [ 73.0391, 22.7194 ], [ 73.0425, 22.7186 ], [ 73.0413, 22.7171 ], [ 73.043, 22.7177 ], [ 73.0447, 22.7162 ], [ 73.0448, 22.7145 ], [ 73.0438, 22.7137 ], [ 73.0452, 22.713 ], [ 73.0477, 22.7166 ], [ 73.0524, 22.7184 ], [ 73.0569, 22.7178 ], [ 73.0609, 22.7191 ], [ 73.0653, 22.717 ], [ 73.0687, 22.7197 ], [ 73.0699, 22.7185 ], [ 73.0712, 22.7207 ], [ 73.0749, 22.7223 ], [ 73.0757, 22.7203 ], [ 73.0785, 22.7205 ], [ 73.0801, 22.7227 ], [ 73.0814, 22.7212 ], [ 73.0832, 22.724 ], [ 73.0855, 22.7235 ], [ 73.0858, 22.7251 ], [ 73.09, 22.7251 ], [ 73.0928, 22.727 ], [ 73.0958, 22.7267 ], [ 73.0966, 22.7279 ], [ 73.0997, 22.7276 ], [ 73.1006, 22.7247 ], [ 73.097, 22.723 ], [ 73.0975, 22.7178 ], [ 73.1045, 22.7196 ], [ 73.1127, 22.7185 ], [ 73.1248, 22.7221 ], [ 73.1268, 22.7205 ], [ 73.1365, 22.7174 ], [ 73.142, 22.7116 ], [ 73.1436, 22.7048 ], [ 73.1455, 22.7048 ], [ 73.1452, 22.7031 ], [ 73.1465, 22.7012 ], [ 73.1455, 22.7 ], [ 73.1456, 22.6973 ], [ 73.1474, 22.6971 ], [ 73.1512, 22.6883 ], [ 73.1562, 22.6851 ], [ 73.1579, 22.6814 ], [ 73.1828, 22.6871 ], [ 73.2023, 22.6833 ], [ 73.2037, 22.6778 ], [ 73.2012, 22.6764 ], [ 73.2014, 22.669 ], [ 73.2003, 22.6686 ], [ 73.1998, 22.6714 ], [ 73.1945, 22.6705 ], [ 73.1963, 22.6661 ], [ 73.1982, 22.6668 ], [ 73.2002, 22.666 ], [ 73.2078, 22.6515 ], [ 73.213, 22.6515 ], [ 73.2135, 22.6479 ], [ 73.2125, 22.6441 ], [ 73.2188, 22.6368 ], [ 73.2168, 22.6339 ], [ 73.2183, 22.6327 ], [ 73.2181, 22.6298 ], [ 73.2198, 22.6263 ], [ 73.2188, 22.6213 ], [ 73.216, 22.6203 ], [ 73.2097, 22.6204 ], [ 73.2011, 22.6179 ], [ 73.1943, 22.6097 ], [ 73.1913, 22.6032 ], [ 73.1845, 22.6025 ], [ 73.1602, 22.5926 ], [ 73.1562, 22.5888 ], [ 73.1535, 22.5829 ], [ 73.1534, 22.564 ], [ 73.1502, 22.5521 ], [ 73.1469, 22.5447 ], [ 73.1405, 22.5311 ], [ 73.1357, 22.5246 ], [ 73.125, 22.5204 ], [ 73.1214, 22.5176 ], [ 73.1118, 22.5147 ], [ 73.1047, 22.5143 ], [ 73.1, 22.5155 ], [ 73.097, 22.5118 ], [ 73.0936, 22.5116 ], [ 73.0917, 22.5103 ], [ 73.0905, 22.5056 ], [ 73.0879, 22.5027 ], [ 73.0876, 22.4961 ], [ 73.0899, 22.4797 ], [ 73.0937, 22.4656 ], [ 73.0934, 22.4555 ], [ 73.0921, 22.4534 ], [ 73.0796, 22.4431 ], [ 73.0743, 22.4364 ], [ 73.0701, 22.4338 ], [ 73.0661, 22.4304 ], [ 73.0646, 22.4254 ], [ 73.0682, 22.4104 ], [ 73.0728, 22.4004 ], [ 73.0726, 22.396 ], [ 73.068, 22.3853 ], [ 73.0574, 22.3758 ], [ 73.0527, 22.3734 ], [ 73.0481, 22.3668 ], [ 73.0468, 22.3628 ], [ 73.0468, 22.3589 ], [ 73.0534, 22.3394 ], [ 73.0633, 22.3212 ], [ 73.0633, 22.3173 ], [ 73.0599, 22.3111 ], [ 73.0538, 22.3056 ], [ 73.0351, 22.2958 ], [ 73.027, 22.2857 ], [ 73.0092, 22.2677 ], [ 72.9976, 22.264 ], [ 72.9919, 22.2608 ], [ 72.9745, 22.2541 ], [ 72.9682, 22.2628 ], [ 72.9517, 22.2633 ], [ 72.9506, 22.2698 ], [ 72.9505, 22.285 ], [ 72.9489, 22.2928 ], [ 72.9455, 22.3017 ], [ 72.9425, 22.3048 ], [ 72.9364, 22.3065 ], [ 72.9262, 22.306 ], [ 72.9166, 22.3009 ], [ 72.9111, 22.2937 ], [ 72.9113, 22.2878 ], [ 72.9161, 22.2787 ], [ 72.917, 22.2743 ], [ 72.9164, 22.2667 ], [ 72.9105, 22.262 ], [ 72.9043, 22.2604 ], [ 72.8954, 22.2599 ], [ 72.8871, 22.2632 ], [ 72.8686, 22.2746 ], [ 72.8406, 22.275 ], [ 72.8335, 22.2715 ], [ 72.8266, 22.2643 ], [ 72.8149, 22.2547 ], [ 72.8027, 22.2523 ], [ 72.8025, 22.2506 ], [ 72.7978, 22.2447 ], [ 72.7899, 22.2379 ] ], [ [ 72.7063, 22.4953 ], [ 72.6999, 22.4898 ], [ 72.7067, 22.4955 ], [ 72.7063, 22.4953 ] ], [ [ 72.7117, 22.4967 ], [ 72.7102, 22.4963 ], [ 72.7118, 22.4966 ], [ 72.7117, 22.4967 ] ], [ [ 72.9065, 22.4869 ], [ 72.9008, 22.4927 ], [ 72.9019, 22.4907 ], [ 72.9065, 22.4869 ] ], [ [ 72.9823, 22.4618 ], [ 72.9798, 22.4614 ], [ 72.9831, 22.4614 ], [ 72.9823, 22.4618 ] ], [ [ 72.9844, 22.4608 ], [ 72.9839, 22.461 ], [ 72.9858, 22.4555 ], [ 72.9844, 22.4608 ] ], [ [ 72.6776, 22.4161 ], [ 72.6752, 22.4107 ], [ 72.6777, 22.4161 ], [ 72.6776, 22.4161 ] ], [ [ 72.7504, 22.4156 ], [ 72.753, 22.4094 ], [ 72.7541, 22.4087 ], [ 72.7504, 22.4156 ] ], [ [ 72.7564, 22.4047 ], [ 72.7591, 22.3979 ], [ 72.758, 22.4017 ], [ 72.7564, 22.4047 ] ], [ [ 72.7644, 22.3943 ], [ 72.7603, 22.3938 ], [ 72.76, 22.3947 ], [ 72.7564, 22.3879 ], [ 72.7593, 22.3932 ], [ 72.7644, 22.3943 ] ], [ [ 72.9498, 22.3731 ], [ 72.952, 22.374 ], [ 72.9498, 22.3732 ], [ 72.9498, 22.3731 ] ], [ [ 72.843, 22.4361 ], [ 72.8458, 22.438 ], [ 72.8429, 22.4362 ], [ 72.843, 22.4361 ] ], [ [ 72.8926, 22.4857 ], [ 72.8932, 22.4859 ], [ 72.8867, 22.489 ], [ 72.8926, 22.4857 ] ], [ [ 72.6718, 22.4646 ], [ 72.6653, 22.4598 ], [ 72.6727, 22.4648 ], [ 72.6718, 22.4646 ] ], [ [ 72.6813, 22.4669 ], [ 72.6746, 22.4653 ], [ 72.6812, 22.4663 ], [ 72.6813, 22.4669 ] ], [ [ 72.6795, 22.477 ], [ 72.6815, 22.4688 ], [ 72.6816, 22.4703 ], [ 72.6795, 22.477 ] ], [ [ 72.6803, 22.483 ], [ 72.6798, 22.4821 ], [ 72.6795, 22.477 ], [ 72.6803, 22.483 ] ], [ [ 72.7453, 22.5999 ], [ 72.747, 22.6009 ], [ 72.7457, 22.6042 ], [ 72.7441, 22.6058 ], [ 72.7405, 22.6053 ], [ 72.7417, 22.5985 ], [ 72.7459, 22.5967 ], [ 72.7467, 22.5972 ], [ 72.7453, 22.5999 ] ], [ [ 73.001, 22.4681 ], [ 73.0024, 22.4679 ], [ 73.002, 22.4683 ], [ 73.001, 22.4681 ] ], [ [ 72.9635, 22.3569 ], [ 72.9633, 22.3576 ], [ 72.96, 22.3568 ], [ 72.9635, 22.3569 ] ], [ [ 72.9595, 22.36 ], [ 72.9592, 22.3599 ], [ 72.96, 22.3568 ], [ 72.9595, 22.36 ] ], [ [ 72.9932, 22.6532 ], [ 73.0066, 22.655 ], [ 73.0042, 22.6553 ], [ 72.9977, 22.6543 ], [ 72.9932, 22.6532 ] ], [ [ 73.0118, 22.6463 ], [ 73.009, 22.6547 ], [ 73.0086, 22.6548 ], [ 73.0118, 22.6463 ] ], [ [ 73.0408, 22.6114 ], [ 73.04, 22.612 ], [ 73.0339, 22.6105 ], [ 73.0408, 22.6114 ] ], [ [ 73.0525, 22.612 ], [ 73.0514, 22.6124 ], [ 73.0505, 22.6123 ], [ 73.0525, 22.612 ] ], [ [ 73.0777, 22.613 ], [ 73.0768, 22.6158 ], [ 73.0772, 22.6128 ], [ 73.0777, 22.613 ] ] ] } },
{ "type": "Feature", "properties": { "district": "Kheda" }, "geometry": { "type": "MultiPolygon", "coordinates": [ [ [ [ 72.747, 22.6009 ], [ 72.7453, 22.5999 ], [ 72.7467, 22.5972 ], [ 72.7459, 22.5967 ], [ 72.7415, 22.5988 ], [ 72.7403, 22.6057 ], [ 72.7441, 22.6058 ], [ 72.7469, 22.6021 ], [ 72.746, 22.6016 ], [ 72.747, 22.6009 ] ] ], [ [ [ 73.0244, 22.7299 ], [ 73.0217, 22.7254 ], [ 73.0139, 22.7254 ], [ 73.0116, 22.727 ], [ 73.0073, 22.7262 ], [ 73.0036, 22.7227 ], [ 73.0037, 22.7192 ], [ 73.0055, 22.7172 ], [ 73.004, 22.7156 ], [ 73.0061, 22.7118 ], [ 73.0085, 22.711 ], [ 73.0092, 22.7053 ], [ 73.0075, 22.7057 ], [ 73.0078, 22.7042 ], [ 73.0052, 22.7027 ], [ 72.9973, 22.7 ], [ 72.9979, 22.6977 ], [ 72.9976, 22.696 ], [ 72.9959, 22.6949 ], [ 72.9963, 22.6914 ], [ 72.9952, 22.6882 ], [ 72.9922, 22.6879 ], [ 72.9934, 22.6805 ], [ 72.9918, 22.672 ], [ 72.99, 22.6714 ], [ 72.99, 22.6676 ], [ 72.9881, 22.6655 ], [ 72.9849, 22.6537 ], [ 72.9806, 22.6525 ], [ 72.9763, 22.6529 ], [ 72.9751, 22.6417 ], [ 72.9628, 22.6339 ], [ 72.9619, 22.6361 ], [ 72.9521, 22.6325 ], [ 72.9457, 22.632 ], [ 72.9409, 22.6301 ], [ 72.9298, 22.6292 ], [ 72.9288, 22.6276 ], [ 72.9281, 22.6167 ], [ 72.9259, 22.6139 ], [ 72.925, 22.606 ], [ 72.9222, 22.6034 ], [ 72.9199, 22.5974 ], [ 72.9174, 22.5947 ], [ 72.9106, 22.5924 ], [ 72.9057, 22.5927 ], [ 72.9007, 22.5903 ], [ 72.8976, 22.595 ], [ 72.8895, 22.5919 ], [ 72.8789, 22.5855 ], [ 72.8707, 22.5843 ], [ 72.8672, 22.5824 ], [ 72.8641, 22.5878 ], [ 72.8597, 22.5914 ], [ 72.863, 22.5937 ], [ 72.8622, 22.5967 ], [ 72.863, 22.6009 ], [ 72.875, 22.6035 ], [ 72.8749, 22.6109 ], [ 72.874, 22.6139 ], [ 72.8717, 22.6149 ], [ 72.8719, 22.6204 ], [ 72.8602, 22.6171 ], [ 72.859, 22.6171 ], [ 72.8583, 22.6184 ], [ 72.8538, 22.6184 ], [ 72.8564, 22.6095 ], [ 72.8498, 22.6057 ], [ 72.8506, 22.6017 ], [ 72.8434, 22.5973 ], [ 72.8397, 22.5987 ], [ 72.8333, 22.5968 ], [ 72.8305, 22.5943 ], [ 72.8277, 22.5951 ], [ 72.8272, 22.6039 ], [ 72.823, 22.6033 ], [ 72.8214, 22.6062 ], [ 72.8219, 22.6072 ], [ 72.8165, 22.6075 ], [ 72.8155, 22.6084 ], [ 72.8105, 22.6081 ], [ 72.8083, 22.6115 ], [ 72.8046, 22.6114 ], [ 72.8044, 22.6101 ], [ 72.8006, 22.6087 ], [ 72.7958, 22.6097 ], [ 72.7959, 22.6141 ], [ 72.7935, 22.6168 ], [ 72.7927, 22.6215 ], [ 72.7911, 22.623 ], [ 72.7767, 22.6198 ], [ 72.7776, 22.6157 ], [ 72.7709, 22.6122 ], [ 72.771, 22.6102 ], [ 72.7738, 22.6071 ], [ 72.7764, 22.594 ], [ 72.7795, 22.5901 ], [ 72.777, 22.5885 ], [ 72.7706, 22.5905 ], [ 72.7608, 22.5908 ], [ 72.7566, 22.5919 ], [ 72.7561, 22.5936 ], [ 72.752, 22.593 ], [ 72.7504, 22.5973 ], [ 72.7523, 22.5989 ], [ 72.7529, 22.6041 ], [ 72.7551, 22.6105 ], [ 72.7569, 22.6126 ], [ 72.7534, 22.6133 ], [ 72.7521, 22.6147 ], [ 72.7514, 22.6134 ], [ 72.7445, 22.6137 ], [ 72.7449, 22.6123 ], [ 72.7399, 22.6121 ], [ 72.7381, 22.6105 ], [ 72.7352, 22.6115 ], [ 72.7356, 22.6141 ], [ 72.7378, 22.6134 ], [ 72.7379, 22.6158 ], [ 72.7343, 22.6177 ], [ 72.7351, 22.6193 ], [ 72.7323, 22.6254 ], [ 72.7378, 22.6259 ], [ 72.7381, 22.6288 ], [ 72.74, 22.6281 ], [ 72.7417, 22.63 ], [ 72.7439, 22.6359 ], [ 72.7455, 22.6376 ], [ 72.7451, 22.6392 ], [ 72.7433, 22.639 ], [ 72.7428, 22.6408 ], [ 72.7472, 22.6412 ], [ 72.7427, 22.6448 ], [ 72.7407, 22.6452 ], [ 72.7338, 22.6405 ], [ 72.7329, 22.6375 ], [ 72.7291, 22.6336 ], [ 72.7282, 22.6297 ], [ 72.7249, 22.6284 ], [ 72.7189, 22.6309 ], [ 72.7166, 22.6277 ], [ 72.7173, 22.6248 ], [ 72.7143, 22.6246 ], [ 72.7144, 22.6307 ], [ 72.7085, 22.6337 ], [ 72.7054, 22.6328 ], [ 72.704, 22.6338 ], [ 72.6957, 22.6301 ], [ 72.6856, 22.6292 ], [ 72.6851, 22.6288 ], [ 72.6857, 22.6289 ], [ 72.6869, 22.6242 ], [ 72.6854, 22.6201 ], [ 72.6871, 22.6132 ], [ 72.6903, 22.6088 ], [ 72.6886, 22.6085 ], [ 72.689, 22.6054 ], [ 72.6913, 22.6024 ], [ 72.6938, 22.6029 ], [ 72.694, 22.5989 ], [ 72.6978, 22.6 ], [ 72.6982, 22.5993 ], [ 72.705, 22.5999 ], [ 72.7065, 22.5985 ], [ 72.7069, 22.5954 ], [ 72.7093, 22.5955 ], [ 72.7105, 22.5897 ], [ 72.6976, 22.5819 ], [ 72.6968, 22.5819 ], [ 72.6942, 22.5889 ], [ 72.6913, 22.5903 ], [ 72.6753, 22.586 ], [ 72.6724, 22.5797 ], [ 72.6737, 22.579 ], [ 72.6731, 22.5768 ], [ 72.6716, 22.5759 ], [ 72.671, 22.5737 ], [ 72.6685, 22.5725 ], [ 72.6691, 22.5682 ], [ 72.6713, 22.5641 ], [ 72.6644, 22.5591 ], [ 72.6605, 22.5584 ], [ 72.6612, 22.553 ], [ 72.6555, 22.5522 ], [ 72.6556, 22.5512 ], [ 72.649, 22.5475 ], [ 72.6467, 22.5446 ], [ 72.6472, 22.5409 ], [ 72.6437, 22.5399 ], [ 72.6424, 22.536 ], [ 72.6411, 22.5353 ], [ 72.6423, 22.5289 ], [ 72.6511, 22.5283 ], [ 72.6601, 22.5302 ], [ 72.667, 22.5303 ], [ 72.6698, 22.5198 ], [ 72.6714, 22.5059 ], [ 72.6667, 22.5048 ], [ 72.6662, 22.5037 ], [ 72.6522, 22.501 ], [ 72.6525, 22.5063 ], [ 72.6509, 22.5097 ], [ 72.6471, 22.5099 ], [ 72.6386, 22.5072 ], [ 72.641, 22.5046 ], [ 72.6388, 22.5034 ], [ 72.6385, 22.5046 ], [ 72.6358, 22.5038 ], [ 72.6341, 22.5045 ], [ 72.6338, 22.5061 ], [ 72.6286, 22.5073 ], [ 72.6278, 22.5097 ], [ 72.6236, 22.5088 ], [ 72.6214, 22.5095 ], [ 72.6214, 22.5111 ], [ 72.619, 22.5133 ], [ 72.6107, 22.5102 ], [ 72.6047, 22.5096 ], [ 72.6053, 22.5068 ], [ 72.6041, 22.5065 ], [ 72.6044, 22.505 ], [ 72.5994, 22.5008 ], [ 72.597, 22.5012 ], [ 72.5967, 22.5025 ], [ 72.5939, 22.5003 ], [ 72.5889, 22.5002 ], [ 72.577, 22.5037 ], [ 72.5724, 22.5116 ], [ 72.5749, 22.515 ], [ 72.5737, 22.5213 ], [ 72.5709, 22.5216 ], [ 72.5702, 22.5205 ], [ 72.5676, 22.52 ], [ 72.5684, 22.5253 ], [ 72.5673, 22.5435 ], [ 72.5576, 22.5415 ], [ 72.5575, 22.5527 ], [ 72.5524, 22.5558 ], [ 72.5519, 22.562 ], [ 72.5541, 22.5678 ], [ 72.5467, 22.5699 ], [ 72.5329, 22.5693 ], [ 72.5336, 22.5881 ], [ 72.5258, 22.5876 ], [ 72.526, 22.5981 ], [ 72.5241, 22.5975 ], [ 72.5211, 22.5994 ], [ 72.5175, 22.6046 ], [ 72.5184, 22.6058 ], [ 72.516, 22.6118 ], [ 72.5124, 22.6134 ], [ 72.5051, 22.6139 ], [ 72.5048, 22.6207 ], [ 72.5084, 22.6305 ], [ 72.5118, 22.6332 ], [ 72.5174, 22.6327 ], [ 72.5215, 22.6262 ], [ 72.5236, 22.6296 ], [ 72.5292, 22.6263 ], [ 72.5354, 22.6263 ], [ 72.5317, 22.6429 ], [ 72.5339, 22.6487 ], [ 72.5366, 22.6519 ], [ 72.5415, 22.6544 ], [ 72.5498, 22.6508 ], [ 72.5593, 22.6539 ], [ 72.564, 22.6545 ], [ 72.568, 22.6526 ], [ 72.5692, 22.6535 ], [ 72.5685, 22.6552 ], [ 72.5646, 22.6555 ], [ 72.5597, 22.6609 ], [ 72.5603, 22.6647 ], [ 72.5479, 22.6644 ], [ 72.5501, 22.6701 ], [ 72.5495, 22.6725 ], [ 72.5309, 22.6751 ], [ 72.5275, 22.6775 ], [ 72.526, 22.6806 ], [ 72.5271, 22.6817 ], [ 72.5414, 22.6858 ], [ 72.545, 22.69 ], [ 72.5441, 22.693 ], [ 72.5407, 22.6946 ], [ 72.5233, 22.6959 ], [ 72.5194, 22.6979 ], [ 72.5177, 22.7015 ], [ 72.5181, 22.7077 ], [ 72.5223, 22.7123 ], [ 72.5262, 22.713 ], [ 72.5373, 22.709 ], [ 72.5397, 22.7094 ], [ 72.5407, 22.7115 ], [ 72.5239, 22.7332 ], [ 72.5248, 22.7383 ], [ 72.5358, 22.7452 ], [ 72.5397, 22.7513 ], [ 72.5309, 22.751 ], [ 72.5209, 22.7525 ], [ 72.5223, 22.7544 ], [ 72.5213, 22.7557 ], [ 72.5277, 22.7606 ], [ 72.5273, 22.7663 ], [ 72.5298, 22.7673 ], [ 72.528, 22.7696 ], [ 72.5143, 22.7789 ], [ 72.52, 22.7861 ], [ 72.5221, 22.7958 ], [ 72.5307, 22.7996 ], [ 72.5387, 22.806 ], [ 72.5477, 22.8065 ], [ 72.5485, 22.8126 ], [ 72.55, 22.815 ], [ 72.5548, 22.8185 ], [ 72.5648, 22.8223 ], [ 72.5703, 22.8269 ], [ 72.5814, 22.8191 ], [ 72.5819, 22.8228 ], [ 72.5833, 22.8235 ], [ 72.5895, 22.8243 ], [ 72.5907, 22.8233 ], [ 72.5976, 22.8249 ], [ 72.5995, 22.8174 ], [ 72.5985, 22.8159 ], [ 72.6, 22.8154 ], [ 72.6022, 22.8164 ], [ 72.608, 22.8136 ], [ 72.6062, 22.8224 ], [ 72.6078, 22.8229 ], [ 72.6037, 22.8312 ], [ 72.6048, 22.8326 ], [ 72.6022, 22.8356 ], [ 72.6063, 22.8486 ], [ 72.6062, 22.8566 ], [ 72.6086, 22.8627 ], [ 72.6065, 22.8659 ], [ 72.6028, 22.8645 ], [ 72.6005, 22.8661 ], [ 72.599, 22.8722 ], [ 72.6035, 22.8758 ], [ 72.6042, 22.8778 ], [ 72.6053, 22.8776 ], [ 72.6072, 22.8831 ], [ 72.606, 22.8837 ], [ 72.6081, 22.8862 ], [ 72.6126, 22.8859 ], [ 72.6153, 22.8877 ], [ 72.618, 22.8849 ], [ 72.6207, 22.8839 ], [ 72.6338, 22.8818 ], [ 72.635, 22.8844 ], [ 72.6347, 22.8891 ], [ 72.6408, 22.8927 ], [ 72.641, 22.8949 ], [ 72.6436, 22.8973 ], [ 72.6474, 22.8963 ], [ 72.6479, 22.8939 ], [ 72.6548, 22.8934 ], [ 72.6676, 22.8955 ], [ 72.6708, 22.8916 ], [ 72.6685, 22.8903 ], [ 72.6677, 22.8884 ], [ 72.6708, 22.8827 ], [ 72.6738, 22.8805 ], [ 72.6779, 22.8816 ], [ 72.6781, 22.8803 ], [ 72.681, 22.8801 ], [ 72.6838, 22.8818 ], [ 72.6892, 22.8796 ], [ 72.6929, 22.8813 ], [ 72.6938, 22.8807 ], [ 72.697, 22.8833 ], [ 72.6996, 22.8838 ], [ 72.7014, 22.8871 ], [ 72.7066, 22.8897 ], [ 72.7079, 22.8915 ], [ 72.7072, 22.8921 ], [ 72.7094, 22.8937 ], [ 72.7098, 22.8963 ], [ 72.7159, 22.9047 ], [ 72.7154, 22.9082 ], [ 72.7236, 22.9092 ], [ 72.7231, 22.9138 ], [ 72.7246, 22.9143 ], [ 72.7308, 22.9149 ], [ 72.7376, 22.9134 ], [ 72.7365, 22.9083 ], [ 72.742, 22.9087 ], [ 72.7408, 22.9061 ], [ 72.742, 22.9057 ], [ 72.7477, 22.9093 ], [ 72.7544, 22.909 ], [ 72.7576, 22.9103 ], [ 72.7601, 22.907 ], [ 72.7711, 22.9093 ], [ 72.7758, 22.9066 ], [ 72.7856, 22.9084 ], [ 72.7912, 22.9079 ], [ 72.7889, 22.9152 ], [ 72.7957, 22.9167 ], [ 72.7956, 22.9181 ], [ 72.7993, 22.9193 ], [ 72.7978, 22.926 ], [ 72.7987, 22.9297 ], [ 72.7976, 22.9314 ], [ 72.8043, 22.9335 ], [ 72.8059, 22.9327 ], [ 72.8049, 22.9417 ], [ 72.8105, 22.9432 ], [ 72.8131, 22.9482 ], [ 72.8166, 22.95 ], [ 72.8173, 22.9524 ], [ 72.8193, 22.9539 ], [ 72.8224, 22.9546 ], [ 72.8254, 22.957 ], [ 72.8271, 22.9544 ], [ 72.8341, 22.9594 ], [ 72.8384, 22.9644 ], [ 72.8408, 22.9629 ], [ 72.8426, 22.9671 ], [ 72.8393, 22.9705 ], [ 72.8391, 22.976 ], [ 72.8399, 22.977 ], [ 72.8383, 22.9779 ], [ 72.8377, 22.9804 ], [ 72.8387, 22.9817 ], [ 72.8475, 22.9757 ], [ 72.8385, 22.9821 ], [ 72.8319, 22.9803 ], [ 72.8304, 22.9841 ], [ 72.833, 22.9869 ], [ 72.8351, 22.9922 ], [ 72.838, 22.9944 ], [ 72.8384, 22.9963 ], [ 72.8451, 22.9972 ], [ 72.8485, 22.9992 ], [ 72.8488, 23.0026 ], [ 72.843, 23.0102 ], [ 72.8447, 23.0113 ], [ 72.8531, 23.0129 ], [ 72.8591, 23.0114 ], [ 72.8608, 23.0084 ], [ 72.8751, 23.0087 ], [ 72.8773, 23.011 ], [ 72.8763, 23.0119 ], [ 72.8776, 23.0133 ], [ 72.8767, 23.0148 ], [ 72.8803, 23.0161 ], [ 72.8858, 23.0145 ], [ 72.887, 23.0148 ], [ 72.8868, 23.016 ], [ 72.8903, 23.0163 ], [ 72.8903, 23.0146 ], [ 72.8927, 23.0147 ], [ 72.8928, 23.0164 ], [ 72.8912, 23.0165 ], [ 72.8908, 23.0188 ], [ 72.892, 23.0182 ], [ 72.8921, 23.0212 ], [ 72.8929, 23.0209 ], [ 72.8957, 23.025 ], [ 72.8954, 23.0268 ], [ 72.897, 23.0269 ], [ 72.8981, 23.0296 ], [ 72.9046, 23.0306 ], [ 72.9055, 23.04 ], [ 72.9086, 23.0415 ], [ 72.9085, 23.0479 ], [ 72.9114, 23.0518 ], [ 72.9135, 23.0519 ], [ 72.9138, 23.0548 ], [ 72.9101, 23.0614 ], [ 72.9065, 23.0651 ], [ 72.9123, 23.0661 ], [ 72.918, 23.0694 ], [ 72.9237, 23.0693 ], [ 72.9221, 23.0719 ], [ 72.9229, 23.0751 ], [ 72.9261, 23.0741 ], [ 72.9255, 23.0806 ], [ 72.9271, 23.0808 ], [ 72.9275, 23.0769 ], [ 72.9297, 23.0771 ], [ 72.9301, 23.0762 ], [ 72.9339, 23.0768 ], [ 72.9392, 23.0758 ], [ 72.9397, 23.0772 ], [ 72.9396, 23.0743 ], [ 72.9417, 23.0733 ], [ 72.9453, 23.0746 ], [ 72.9451, 23.0728 ], [ 72.9504, 23.074 ], [ 72.9551, 23.073 ], [ 72.9576, 23.0738 ], [ 72.9599, 23.0726 ], [ 72.9583, 23.0736 ], [ 72.9552, 23.0855 ], [ 72.9576, 23.0877 ], [ 72.9649, 23.0904 ], [ 72.966, 23.1012 ], [ 72.9707, 23.1004 ], [ 72.9715, 23.1014 ], [ 72.9715, 23.1031 ], [ 72.966, 23.1032 ], [ 72.9654, 23.1053 ], [ 72.9664, 23.108 ], [ 72.9758, 23.1078 ], [ 72.9784, 23.1098 ], [ 72.9751, 23.115 ], [ 72.9748, 23.1216 ], [ 72.976, 23.1244 ], [ 72.9791, 23.1278 ], [ 72.9846, 23.1311 ], [ 72.9904, 23.1327 ], [ 72.9966, 23.1329 ], [ 73.0086, 23.13 ], [ 73.0156, 23.1262 ], [ 73.0259, 23.13 ], [ 73.0294, 23.1348 ], [ 73.0281, 23.1391 ], [ 73.0251, 23.143 ], [ 73.0223, 23.1422 ], [ 73.014, 23.1436 ], [ 73.0147, 23.149 ], [ 73.0128, 23.1525 ], [ 73.0118, 23.1525 ], [ 73.0136, 23.1551 ], [ 73.0117, 23.1568 ], [ 73.012, 23.1594 ], [ 73.0138, 23.1603 ], [ 73.0189, 23.1599 ], [ 73.0197, 23.1611 ], [ 73.0188, 23.1664 ], [ 73.0194, 23.1694 ], [ 73.0218, 23.1693 ], [ 73.0231, 23.1658 ], [ 73.0258, 23.1652 ], [ 73.0287, 23.1656 ], [ 73.0322, 23.1682 ], [ 73.0341, 23.165 ], [ 73.0335, 23.1623 ], [ 73.038, 23.1616 ], [ 73.0409, 23.1637 ], [ 73.0426, 23.1633 ], [ 73.0445, 23.1654 ], [ 73.0622, 23.1593 ], [ 73.0681, 23.1592 ], [ 73.0702, 23.1601 ], [ 73.0719, 23.1651 ], [ 73.0752, 23.1672 ], [ 73.0825, 23.1708 ], [ 73.0863, 23.1683 ], [ 73.0935, 23.1684 ], [ 73.1068, 23.1788 ], [ 73.1151, 23.1834 ], [ 73.1145, 23.185 ], [ 73.1207, 23.1866 ], [ 73.1212, 23.1902 ], [ 73.1236, 23.1928 ], [ 73.1246, 23.1967 ], [ 73.126, 23.1987 ], [ 73.1319, 23.2019 ], [ 73.1335, 23.2055 ], [ 73.1414, 23.1995 ], [ 73.1528, 23.1933 ], [ 73.1529, 23.1923 ], [ 73.1555, 23.1929 ], [ 73.1581, 23.1732 ], [ 73.1526, 23.1713 ], [ 73.1528, 23.17 ], [ 73.1507, 23.1696 ], [ 73.151, 23.1672 ], [ 73.1534, 23.1653 ], [ 73.161, 23.1493 ], [ 73.1669, 23.1455 ], [ 73.1675, 23.1424 ], [ 73.1715, 23.1392 ], [ 73.1701, 23.1357 ], [ 73.171, 23.1345 ], [ 73.1726, 23.1365 ], [ 73.1742, 23.1364 ], [ 73.176, 23.1392 ], [ 73.1767, 23.1378 ], [ 73.1827, 23.1413 ], [ 73.181, 23.1435 ], [ 73.1838, 23.1464 ], [ 73.1883, 23.1464 ], [ 73.1874, 23.1484 ], [ 73.1887, 23.1501 ], [ 73.1902, 23.1503 ], [ 73.1921, 23.1449 ], [ 73.1953, 23.1464 ], [ 73.1954, 23.145 ], [ 73.1974, 23.1457 ], [ 73.1996, 23.1437 ], [ 73.1991, 23.1446 ], [ 73.2003, 23.1462 ], [ 73.2008, 23.1452 ], [ 73.2012, 23.1463 ], [ 73.2025, 23.1458 ], [ 73.2037, 23.1439 ], [ 73.202, 23.1387 ], [ 73.2012, 23.1253 ], [ 73.2058, 23.1101 ], [ 73.2091, 23.1076 ], [ 73.2176, 23.1054 ], [ 73.2251, 23.1055 ], [ 73.225, 23.1013 ], [ 73.2268, 23.1013 ], [ 73.2311, 23.089 ], [ 73.2319, 23.0889 ], [ 73.229, 23.0843 ], [ 73.232, 23.0862 ], [ 73.2344, 23.0854 ], [ 73.2371, 23.0864 ], [ 73.241, 23.0706 ], [ 73.2544, 23.0648 ], [ 73.2663, 23.0618 ], [ 73.2733, 23.0586 ], [ 73.2736, 23.0536 ], [ 73.2756, 23.0497 ], [ 73.2576, 23.041 ], [ 73.2577, 23.0394 ], [ 73.255, 23.0403 ], [ 73.2446, 23.0377 ], [ 73.2461, 23.0347 ], [ 73.2462, 23.0268 ], [ 73.2422, 23.0179 ], [ 73.2435, 23.0175 ], [ 73.2435, 23.0156 ], [ 73.2476, 23.0132 ], [ 73.2483, 23.0111 ], [ 73.253, 23.0067 ], [ 73.2648, 23.0005 ], [ 73.2677, 22.991 ], [ 73.2702, 22.9886 ], [ 73.27, 22.9868 ], [ 73.2715, 22.9849 ], [ 73.2706, 22.9844 ], [ 73.2723, 22.9824 ], [ 73.2717, 22.9811 ], [ 73.2742, 22.9795 ], [ 73.2759, 22.9766 ], [ 73.2716, 22.9742 ], [ 73.2535, 22.9685 ], [ 73.251, 22.9641 ], [ 73.2573, 22.9543 ], [ 73.2594, 22.9477 ], [ 73.26, 22.9405 ], [ 73.258, 22.9303 ], [ 73.2617, 22.9262 ], [ 73.2625, 22.9262 ], [ 73.2623, 22.9264 ], [ 73.2638, 22.9277 ], [ 73.2644, 22.9262 ], [ 73.2653, 22.9285 ], [ 73.2733, 22.9299 ], [ 73.2768, 22.934 ], [ 73.2798, 22.935 ], [ 73.2879, 22.9345 ], [ 73.289, 22.9359 ], [ 73.3027, 22.9324 ], [ 73.3043, 22.9368 ], [ 73.3092, 22.941 ], [ 73.3125, 22.9423 ], [ 73.3134, 22.9397 ], [ 73.3209, 22.938 ], [ 73.3216, 22.9362 ], [ 73.3258, 22.9348 ], [ 73.3302, 22.9307 ], [ 73.3301, 22.9277 ], [ 73.3363, 22.9257 ], [ 73.3479, 22.9262 ], [ 73.3482, 22.925 ], [ 73.3501, 22.9241 ], [ 73.358, 22.9315 ], [ 73.3591, 22.9314 ], [ 73.3597, 22.9337 ], [ 73.3628, 22.9356 ], [ 73.3636, 22.9375 ], [ 73.3669, 22.9377 ], [ 73.3679, 22.9393 ], [ 73.3691, 22.9381 ], [ 73.3706, 22.9402 ], [ 73.3705, 22.9395 ], [ 73.3718, 22.9396 ], [ 73.3743, 22.9432 ], [ 73.3788, 22.9464 ], [ 73.379, 22.9484 ], [ 73.382, 22.9502 ], [ 73.384, 22.9566 ], [ 73.3857, 22.9577 ], [ 73.3875, 22.9551 ], [ 73.3903, 22.953 ], [ 73.393, 22.9527 ], [ 73.3934, 22.9514 ], [ 73.4043, 22.9551 ], [ 73.4049, 22.9518 ], [ 73.4107, 22.9551 ], [ 73.4147, 22.945 ], [ 73.4194, 22.9404 ], [ 73.3831, 22.9154 ], [ 73.3706, 22.9036 ], [ 73.3676, 22.8977 ], [ 73.3668, 22.8934 ], [ 73.368, 22.8868 ], [ 73.3825, 22.8704 ], [ 73.3856, 22.8595 ], [ 73.3847, 22.8541 ], [ 73.3819, 22.8481 ], [ 73.3731, 22.8365 ], [ 73.3734, 22.8287 ], [ 73.3717, 22.8226 ], [ 73.3665, 22.8187 ], [ 73.3632, 22.8132 ], [ 73.3618, 22.8071 ], [ 73.3636, 22.7992 ], [ 73.3512, 22.7926 ], [ 73.3245, 22.786 ], [ 73.3156, 22.7816 ], [ 73.3119, 22.7818 ], [ 73.3081, 22.7836 ], [ 73.3021, 22.782 ], [ 73.2968, 22.7831 ], [ 73.2913, 22.7821 ], [ 73.2884, 22.7836 ], [ 73.2801, 22.7818 ], [ 73.276, 22.7822 ], [ 73.2688, 22.7793 ], [ 73.263, 22.7754 ], [ 73.2572, 22.7666 ], [ 73.2554, 22.7616 ], [ 73.255, 22.76 ], [ 73.2583, 22.7505 ], [ 73.2598, 22.75 ], [ 73.254, 22.7415 ], [ 73.2515, 22.7303 ], [ 73.2519, 22.7194 ], [ 73.2544, 22.7074 ], [ 73.265, 22.6915 ], [ 73.2649, 22.6875 ], [ 73.2693, 22.6734 ], [ 73.2692, 22.6665 ], [ 73.2603, 22.6568 ], [ 73.2393, 22.6459 ], [ 73.2197, 22.626 ], [ 73.2181, 22.6302 ], [ 73.2183, 22.6327 ], [ 73.2168, 22.6339 ], [ 73.2188, 22.6368 ], [ 73.2125, 22.6441 ], [ 73.2135, 22.6479 ], [ 73.213, 22.6515 ], [ 73.2078, 22.6515 ], [ 73.2002, 22.666 ], [ 73.1982, 22.6668 ], [ 73.1963, 22.6661 ], [ 73.1945, 22.6705 ], [ 73.1998, 22.6714 ], [ 73.2003, 22.6686 ], [ 73.2014, 22.669 ], [ 73.2012, 22.6764 ], [ 73.2037, 22.6778 ], [ 73.2023, 22.6833 ], [ 73.1828, 22.6871 ], [ 73.1579, 22.6814 ], [ 73.1562, 22.6851 ], [ 73.1512, 22.6883 ], [ 73.1474, 22.6971 ], [ 73.1456, 22.6973 ], [ 73.1455, 22.7 ], [ 73.1465, 22.7012 ], [ 73.1452, 22.7031 ], [ 73.1455, 22.7048 ], [ 73.1434, 22.7053 ], [ 73.142, 22.7116 ], [ 73.1365, 22.7174 ], [ 73.1268, 22.7205 ], [ 73.1248, 22.7221 ], [ 73.1127, 22.7185 ], [ 73.1045, 22.7196 ], [ 73.0975, 22.7178 ], [ 73.097, 22.723 ], [ 73.1006, 22.7247 ], [ 73.0997, 22.7276 ], [ 73.0966, 22.7279 ], [ 73.0958, 22.7267 ], [ 73.0928, 22.727 ], [ 73.09, 22.7251 ], [ 73.0858, 22.7251 ], [ 73.0855, 22.7235 ], [ 73.0832, 22.724 ], [ 73.0814, 22.7212 ], [ 73.0801, 22.7227 ], [ 73.0785, 22.7205 ], [ 73.0757, 22.7203 ], [ 73.0749, 22.7223 ], [ 73.0712, 22.7207 ], [ 73.0699, 22.7185 ], [ 73.0687, 22.7197 ], [ 73.0653, 22.717 ], [ 73.063, 22.7186 ], [ 73.0587, 22.7187 ], [ 73.0576, 22.7179 ], [ 73.0524, 22.7184 ], [ 73.0477, 22.7166 ], [ 73.0454, 22.7131 ], [ 73.0441, 22.7133 ], [ 73.0447, 22.7162 ], [ 73.043, 22.7177 ], [ 73.0415, 22.7169 ], [ 73.0425, 22.7186 ], [ 73.0391, 22.7194 ], [ 73.0368, 22.7213 ], [ 73.037, 22.726 ], [ 73.0386, 22.7248 ], [ 73.0398, 22.7262 ], [ 73.039, 22.729 ], [ 73.0338, 22.7302 ], [ 73.0329, 22.7342 ], [ 73.0306, 22.7337 ], [ 73.0251, 22.735 ], [ 73.024, 22.7385 ], [ 73.0253, 22.733 ], [ 73.0244, 22.7299 ] ], [ [ 72.8492, 22.9757 ], [ 72.8516, 22.9776 ], [ 72.8475, 22.9757 ], [ 72.8492, 22.9757 ] ], [ [ 73.2435, 22.964 ], [ 73.2409, 22.9634 ], [ 73.251, 22.9641 ], [ 73.2435, 22.964 ] ], [ [ 72.7646, 22.7382 ], [ 72.7585, 22.7382 ], [ 72.7643, 22.7378 ], [ 72.7646, 22.7382 ] ], [ [ 72.7642, 22.743 ], [ 72.7654, 22.739 ], [ 72.7646, 22.7435 ], [ 72.7642, 22.743 ] ], [ [ 72.7691, 22.7432 ], [ 72.765, 22.7442 ], [ 72.7647, 22.7438 ], [ 72.7691, 22.7431 ], [ 72.7691, 22.7432 ] ], [ [ 72.7715, 22.7435 ], [ 72.7708, 22.7431 ], [ 72.7711, 22.7431 ], [ 72.7715, 22.7435 ] ], [ [ 72.7731, 22.7442 ], [ 72.7729, 22.7441 ], [ 72.7784, 22.7423 ], [ 72.7731, 22.7442 ] ], [ [ 72.7913, 22.7482 ], [ 72.7909, 22.748 ], [ 72.7919, 22.7481 ], [ 72.7913, 22.7482 ] ], [ [ 72.7927, 22.7481 ], [ 72.7925, 22.7481 ], [ 72.7954, 22.7432 ], [ 72.7927, 22.7481 ] ], [ [ 72.853, 22.7788 ], [ 72.8415, 22.7736 ], [ 72.8554, 22.7793 ], [ 72.853, 22.7788 ] ], [ [ 72.857, 22.7793 ], [ 72.8586, 22.78 ], [ 72.8557, 22.7793 ], [ 72.8581, 22.7777 ], [ 72.857, 22.7793 ] ], [ [ 72.8587, 22.7769 ], [ 72.8584, 22.7772 ], [ 72.8587, 22.776 ], [ 72.8587, 22.7769 ] ], [ [ 72.8683, 22.773 ], [ 72.8591, 22.7745 ], [ 72.8592, 22.7741 ], [ 72.8683, 22.773 ] ], [ [ 72.8888, 22.7579 ], [ 72.889, 22.7576 ], [ 72.8889, 22.7595 ], [ 72.8888, 22.7579 ] ], [ [ 72.889, 22.7682 ], [ 72.889, 22.7679 ], [ 72.8911, 22.7701 ], [ 72.889, 22.7682 ] ], [ [ 72.9126, 22.7812 ], [ 72.9069, 22.7787 ], [ 72.9084, 22.7787 ], [ 72.9126, 22.7812 ] ], [ [ 73.0083, 22.7453 ], [ 73.0081, 22.745 ], [ 73.0083, 22.7449 ], [ 73.0083, 22.7453 ] ], [ [ 73.0197, 22.7385 ], [ 73.0155, 22.7369 ], [ 73.0196, 22.738 ], [ 73.0197, 22.7385 ] ], [ [ 73.0199, 22.7357 ], [ 73.0192, 22.7357 ], [ 73.0192, 22.7356 ], [ 73.0199, 22.7357 ] ], [ [ 73.0223, 22.7383 ], [ 73.0205, 22.7358 ], [ 73.0212, 22.7359 ], [ 73.0223, 22.7383 ] ], [ [ 72.6806, 22.8742 ], [ 72.68, 22.8763 ], [ 72.6805, 22.8741 ], [ 72.6806, 22.8742 ] ], [ [ 72.6874, 22.8151 ], [ 72.6881, 22.8161 ], [ 72.6864, 22.8145 ], [ 72.6874, 22.8151 ] ], [ [ 72.6847, 22.8135 ], [ 72.6853, 22.8139 ], [ 72.6841, 22.8135 ], [ 72.6847, 22.8135 ] ], [ [ 72.6656, 22.8125 ], [ 72.6696, 22.8127 ], [ 72.6655, 22.8127 ], [ 72.6656, 22.8125 ] ], [ [ 72.6698, 22.8052 ], [ 72.6674, 22.8088 ], [ 72.6692, 22.8054 ], [ 72.6698, 22.8052 ] ], [ [ 72.6867, 22.8026 ], [ 72.6718, 22.802 ], [ 72.686, 22.8023 ], [ 72.6867, 22.8026 ] ], [ [ 72.725, 22.7759 ], [ 72.7246, 22.7761 ], [ 72.7243, 22.7758 ], [ 72.725, 22.7759 ] ], [ [ 72.7255, 22.7755 ], [ 72.7253, 22.7757 ], [ 72.725, 22.7738 ], [ 72.7255, 22.7755 ] ], [ [ 72.7292, 22.7691 ], [ 72.7291, 22.7697 ], [ 72.725, 22.7738 ], [ 72.7292, 22.7691 ] ], [ [ 72.7354, 22.7679 ], [ 72.7313, 22.7637 ], [ 72.7315, 22.7637 ], [ 72.7354, 22.7679 ] ], [ [ 72.7472, 22.765 ], [ 72.746, 22.7693 ], [ 72.746, 22.7671 ], [ 72.7472, 22.765 ] ], [ [ 72.7516, 22.7588 ], [ 72.7489, 22.7621 ], [ 72.7502, 22.7598 ], [ 72.7516, 22.7588 ] ], [ [ 72.7572, 22.759 ], [ 72.7571, 22.759 ], [ 72.7574, 22.7579 ], [ 72.7572, 22.759 ] ], [ [ 72.7036, 22.683 ], [ 72.7033, 22.6829 ], [ 72.6986, 22.6784 ], [ 72.7036, 22.683 ] ], [ [ 72.6903, 22.6747 ], [ 72.6836, 22.672 ], [ 72.6819, 22.6703 ], [ 72.6903, 22.6747 ] ], [ [ 72.6793, 22.6629 ], [ 72.68, 22.6568 ], [ 72.681, 22.6554 ], [ 72.6793, 22.6629 ] ], [ [ 72.6811, 22.6547 ], [ 72.6796, 22.6506 ], [ 72.6812, 22.6543 ], [ 72.6811, 22.6547 ] ], [ [ 72.6764, 22.6325 ], [ 72.6772, 22.63 ], [ 72.6774, 22.6299 ], [ 72.6764, 22.6325 ] ], [ [ 72.6809, 22.6287 ], [ 72.6824, 22.6281 ], [ 72.6829, 22.6282 ], [ 72.6809, 22.6287 ] ], [ [ 72.804, 22.7068 ], [ 72.804, 22.7069 ], [ 72.8005, 22.7087 ], [ 72.804, 22.7068 ] ], [ [ 72.7804, 22.7303 ], [ 72.7802, 22.7309 ], [ 72.7797, 22.7306 ], [ 72.7804, 22.7303 ] ], [ [ 72.9191, 22.9134 ], [ 72.9196, 22.9122 ], [ 72.9196, 22.9133 ], [ 72.9191, 22.9134 ] ], [ [ 72.9244, 22.8956 ], [ 72.9296, 22.896 ], [ 72.929, 22.8962 ], [ 72.9244, 22.8956 ] ], [ [ 72.9446, 22.8857 ], [ 72.9399, 22.8859 ], [ 72.9388, 22.8855 ], [ 72.9446, 22.8857 ] ], [ [ 72.9372, 22.8775 ], [ 72.9242, 22.8715 ], [ 72.9354, 22.8765 ], [ 72.9372, 22.8775 ] ], [ [ 72.9407, 22.8674 ], [ 72.9452, 22.8674 ], [ 72.946, 22.8676 ], [ 72.9407, 22.8674 ] ], [ [ 72.952, 22.8689 ], [ 72.9577, 22.8702 ], [ 72.9601, 22.8716 ], [ 72.952, 22.8689 ] ], [ [ 73.0314, 22.8859 ], [ 73.0331, 22.889 ], [ 73.0327, 22.8893 ], [ 73.0314, 22.8859 ] ], [ [ 73.0465, 22.8779 ], [ 73.047, 22.8744 ], [ 73.0474, 22.8744 ], [ 73.0465, 22.8779 ] ], [ [ 73.0487, 22.8745 ], [ 73.0514, 22.8747 ], [ 73.0515, 22.875 ], [ 73.0487, 22.8745 ] ], [ [ 73.052, 22.8759 ], [ 73.0523, 22.8764 ], [ 73.052, 22.877 ], [ 73.052, 22.8759 ] ], [ [ 73.0517, 22.8776 ], [ 73.0492, 22.8823 ], [ 73.0503, 22.8788 ], [ 73.0517, 22.8776 ] ], [ [ 73.0511, 22.8869 ], [ 73.0567, 22.8905 ], [ 73.0564, 22.8906 ], [ 73.0511, 22.8869 ] ], [ [ 73.2319, 22.9519 ], [ 73.2305, 22.9529 ], [ 73.2301, 22.9529 ], [ 73.2319, 22.9519 ] ], [ [ 73.2329, 22.9548 ], [ 73.233, 22.9565 ], [ 73.2318, 22.9579 ], [ 73.2329, 22.9548 ] ], [ [ 73.2355, 22.9618 ], [ 73.2362, 22.9621 ], [ 73.236, 22.9621 ], [ 73.2355, 22.9618 ] ], [ [ 73.2673, 22.9221 ], [ 73.2676, 22.9215 ], [ 73.2674, 22.9221 ], [ 73.2673, 22.9221 ] ], [ [ 73.268, 22.9195 ], [ 73.2673, 22.9189 ], [ 73.2682, 22.919 ], [ 73.268, 22.9195 ] ], [ [ 73.2493, 22.8127 ], [ 73.2463, 22.8076 ], [ 73.2463, 22.8066 ], [ 73.2493, 22.8127 ] ], [ [ 73.2463, 22.7994 ], [ 73.2462, 22.7964 ], [ 73.2463, 22.7962 ], [ 73.2463, 22.7994 ] ], [ [ 73.2476, 22.7888 ], [ 73.2474, 22.7886 ], [ 73.2476, 22.7885 ], [ 73.2476, 22.7888 ] ], [ [ 72.9649, 23.0678 ], [ 72.964, 23.0693 ], [ 72.9643, 23.0668 ], [ 72.9649, 23.0678 ] ], [ [ 72.9639, 23.0663 ], [ 72.9642, 23.0667 ], [ 72.9589, 23.0659 ], [ 72.9639, 23.0663 ] ], [ [ 72.9583, 23.0614 ], [ 72.9583, 23.0619 ], [ 72.9582, 23.0614 ], [ 72.9583, 23.0614 ] ], [ [ 73.1073, 22.9151 ], [ 73.0985, 22.9114 ], [ 73.1032, 22.9127 ], [ 73.1073, 22.9151 ] ] ] ] } },
{ "type": "Feature", "properties": { "district": "Mahisagar" }, "geometry": { "type": "MultiPolygon", "coordinates": [ [ [ [ 73.4366, 22.997 ], [ 73.4389, 22.9916 ], [ 73.4486, 22.9772 ], [ 73.4487, 22.9681 ], [ 73.4455, 22.9636 ], [ 73.4257, 22.9448 ], [ 73.4194, 22.9404 ], [ 73.4147, 22.945 ], [ 73.4107, 22.9551 ], [ 73.4049, 22.9518 ], [ 73.4043, 22.9551 ], [ 73.3934, 22.9514 ], [ 73.393, 22.9527 ], [ 73.3903, 22.953 ], [ 73.3875, 22.9551 ], [ 73.3855, 22.9577 ], [ 73.384, 22.9566 ], [ 73.382, 22.9502 ], [ 73.379, 22.9484 ], [ 73.3788, 22.9464 ], [ 73.3743, 22.9432 ], [ 73.3718, 22.9396 ], [ 73.3705, 22.9395 ], [ 73.3706, 22.9402 ], [ 73.3691, 22.9381 ], [ 73.3679, 22.9393 ], [ 73.3669, 22.9377 ], [ 73.3636, 22.9375 ], [ 73.3628, 22.9356 ], [ 73.3597, 22.9337 ], [ 73.3591, 22.9314 ], [ 73.358, 22.9315 ], [ 73.3501, 22.9241 ], [ 73.3482, 22.925 ], [ 73.3479, 22.9262 ], [ 73.3363, 22.9257 ], [ 73.3301, 22.9277 ], [ 73.3302, 22.9307 ], [ 73.3258, 22.9348 ], [ 73.3216, 22.9362 ], [ 73.3209, 22.938 ], [ 73.3134, 22.9397 ], [ 73.3125, 22.9423 ], [ 73.3092, 22.941 ], [ 73.3043, 22.9368 ], [ 73.3027, 22.9324 ], [ 73.289, 22.9359 ], [ 73.2879, 22.9345 ], [ 73.2798, 22.935 ], [ 73.2768, 22.934 ], [ 73.2733, 22.9299 ], [ 73.2653, 22.9285 ], [ 73.2644, 22.9262 ], [ 73.2638, 22.9277 ], [ 73.2617, 22.9262 ], [ 73.2578, 22.931 ], [ 73.26, 22.9405 ], [ 73.2594, 22.9477 ], [ 73.2573, 22.9543 ], [ 73.251, 22.9641 ], [ 73.2535, 22.9685 ], [ 73.2716, 22.9742 ], [ 73.2759, 22.9766 ], [ 73.2758, 22.9778 ], [ 73.2717, 22.9811 ], [ 73.2723, 22.9824 ], [ 73.2706, 22.9844 ], [ 73.2715, 22.9849 ], [ 73.27, 22.9868 ], [ 73.2702, 22.9886 ], [ 73.2677, 22.991 ], [ 73.2648, 23.0005 ], [ 73.253, 23.0067 ], [ 73.2483, 23.0111 ], [ 73.2476, 23.0132 ], [ 73.2435, 23.0156 ], [ 73.2435, 23.0175 ], [ 73.2422, 23.0179 ], [ 73.2462, 23.0268 ], [ 73.2461, 23.0347 ], [ 73.2446, 23.0377 ], [ 73.255, 23.0403 ], [ 73.2577, 23.0394 ], [ 73.2576, 23.041 ], [ 73.2756, 23.0497 ], [ 73.2736, 23.0536 ], [ 73.2733, 23.0586 ], [ 73.2768, 23.0588 ], [ 73.283, 23.0636 ], [ 73.2911, 23.076 ], [ 73.2989, 23.0839 ], [ 73.3072, 23.0859 ], [ 73.3187, 23.0828 ], [ 73.326, 23.0821 ], [ 73.3264, 23.092 ], [ 73.33, 23.0941 ], [ 73.3306, 23.0987 ], [ 73.3407, 23.1007 ], [ 73.3421, 23.1038 ], [ 73.3394, 23.1077 ], [ 73.3412, 23.1107 ], [ 73.34, 23.1165 ], [ 73.3365, 23.122 ], [ 73.3359, 23.1277 ], [ 73.3387, 23.1306 ], [ 73.3473, 23.1357 ], [ 73.3558, 23.1385 ], [ 73.3621, 23.134 ], [ 73.3639, 23.1313 ], [ 73.3707, 23.1356 ], [ 73.3734, 23.1386 ], [ 73.3738, 23.1406 ], [ 73.3704, 23.1429 ], [ 73.369, 23.147 ], [ 73.37, 23.1648 ], [ 73.3709, 23.1677 ], [ 73.3753, 23.1694 ], [ 73.3746, 23.1715 ], [ 73.3656, 23.1754 ], [ 73.3631, 23.1753 ], [ 73.3606, 23.1769 ], [ 73.3556, 23.1769 ], [ 73.3505, 23.1836 ], [ 73.3467, 23.1824 ], [ 73.3453, 23.1807 ], [ 73.3423, 23.1816 ], [ 73.345, 23.1844 ], [ 73.3443, 23.1867 ], [ 73.3474, 23.1889 ], [ 73.3454, 23.1908 ], [ 73.3449, 23.1964 ], [ 73.3425, 23.1981 ], [ 73.3417, 23.2002 ], [ 73.3483, 23.2014 ], [ 73.3481, 23.2025 ], [ 73.3515, 23.203 ], [ 73.3525, 23.2069 ], [ 73.3553, 23.2104 ], [ 73.3746, 23.2158 ], [ 73.3851, 23.2209 ], [ 73.3741, 23.2363 ], [ 73.3783, 23.2407 ], [ 73.3857, 23.2439 ], [ 73.3852, 23.2449 ], [ 73.3923, 23.2511 ], [ 73.3978, 23.2539 ], [ 73.407, 23.261 ], [ 73.4215, 23.2689 ], [ 73.4275, 23.2696 ], [ 73.437, 23.2769 ], [ 73.4436, 23.2775 ], [ 73.4613, 23.2868 ], [ 73.4693, 23.2871 ], [ 73.4729, 23.2885 ], [ 73.476, 23.2804 ], [ 73.4761, 23.2766 ], [ 73.474, 23.2729 ], [ 73.4751, 23.2686 ], [ 73.4865, 23.2752 ], [ 73.4978, 23.2776 ], [ 73.5044, 23.2811 ], [ 73.5099, 23.2805 ], [ 73.5159, 23.2814 ], [ 73.5259, 23.2856 ], [ 73.5342, 23.292 ], [ 73.5402, 23.3083 ], [ 73.5449, 23.3119 ], [ 73.5542, 23.3142 ], [ 73.5573, 23.3175 ], [ 73.5579, 23.3276 ], [ 73.564, 23.3364 ], [ 73.5648, 23.3422 ], [ 73.564, 23.3461 ], [ 73.5702, 23.3486 ], [ 73.5759, 23.3579 ], [ 73.5862, 23.3651 ], [ 73.5875, 23.3718 ], [ 73.59, 23.3741 ], [ 73.5904, 23.3761 ], [ 73.5947, 23.3795 ], [ 73.5939, 23.3834 ], [ 73.6119, 23.3891 ], [ 73.6123, 23.3919 ], [ 73.6145, 23.3946 ], [ 73.6156, 23.3944 ], [ 73.6154, 23.3969 ], [ 73.6181, 23.3971 ], [ 73.6198, 23.4 ], [ 73.6232, 23.4007 ], [ 73.6224, 23.4021 ], [ 73.6243, 23.4027 ], [ 73.6258, 23.4054 ], [ 73.6257, 23.4079 ], [ 73.6302, 23.4136 ], [ 73.6289, 23.4169 ], [ 73.6319, 23.4215 ], [ 73.6287, 23.4261 ], [ 73.6225, 23.4289 ], [ 73.6204, 23.4328 ], [ 73.6212, 23.4362 ], [ 73.6203, 23.4368 ], [ 73.6212, 23.4397 ], [ 73.6226, 23.4402 ], [ 73.6219, 23.4412 ], [ 73.6276, 23.4474 ], [ 73.6272, 23.4486 ], [ 73.632, 23.4496 ], [ 73.636, 23.4491 ], [ 73.6415, 23.444 ], [ 73.6445, 23.4432 ], [ 73.6462, 23.4414 ], [ 73.6475, 23.4365 ], [ 73.6531, 23.4425 ], [ 73.6617, 23.4488 ], [ 73.6739, 23.4541 ], [ 73.6852, 23.4536 ], [ 73.6913, 23.4583 ], [ 73.6954, 23.4559 ], [ 73.6981, 23.4563 ], [ 73.7043, 23.4514 ], [ 73.7069, 23.4456 ], [ 73.7051, 23.4382 ], [ 73.7074, 23.4379 ], [ 73.7086, 23.4359 ], [ 73.7116, 23.4355 ], [ 73.7116, 23.4339 ], [ 73.708, 23.4312 ], [ 73.7079, 23.4295 ], [ 73.7104, 23.4254 ], [ 73.7081, 23.4223 ], [ 73.7112, 23.4219 ], [ 73.7121, 23.419 ], [ 73.7145, 23.4167 ], [ 73.7132, 23.4144 ], [ 73.7208, 23.4101 ], [ 73.7254, 23.418 ], [ 73.7287, 23.4232 ], [ 73.735, 23.4255 ], [ 73.7366, 23.4298 ], [ 73.7499, 23.4407 ], [ 73.7565, 23.4502 ], [ 73.755, 23.4532 ], [ 73.7557, 23.4543 ], [ 73.7672, 23.4531 ], [ 73.7706, 23.4481 ], [ 73.7723, 23.438 ], [ 73.7766, 23.4378 ], [ 73.779, 23.4313 ], [ 73.7921, 23.4304 ], [ 73.7958, 23.4317 ], [ 73.8026, 23.4375 ], [ 73.8186, 23.4385 ], [ 73.8246, 23.4426 ], [ 73.8287, 23.4477 ], [ 73.8287, 23.4438 ], [ 73.8303, 23.4432 ], [ 73.8318, 23.4405 ], [ 73.8331, 23.4358 ], [ 73.8315, 23.4323 ], [ 73.8324, 23.4311 ], [ 73.8309, 23.4312 ], [ 73.8302, 23.4262 ], [ 73.8341, 23.4236 ], [ 73.8351, 23.4204 ], [ 73.8396, 23.4188 ], [ 73.8391, 23.4171 ], [ 73.8406, 23.4162 ], [ 73.8409, 23.4134 ], [ 73.8457, 23.4104 ], [ 73.8456, 23.4075 ], [ 73.8493, 23.4055 ], [ 73.85, 23.402 ], [ 73.8582, 23.3962 ], [ 73.8593, 23.3921 ], [ 73.8612, 23.3915 ], [ 73.8618, 23.3896 ], [ 73.8636, 23.3895 ], [ 73.8634, 23.3872 ], [ 73.8608, 23.3857 ], [ 73.8618, 23.3836 ], [ 73.8658, 23.3842 ], [ 73.8664, 23.3813 ], [ 73.8692, 23.3819 ], [ 73.867, 23.3785 ], [ 73.8678, 23.378 ], [ 73.8719, 23.3773 ], [ 73.873, 23.3795 ], [ 73.8738, 23.3769 ], [ 73.8725, 23.3759 ], [ 73.8737, 23.3751 ], [ 73.8725, 23.3725 ], [ 73.8741, 23.3707 ], [ 73.8743, 23.3638 ], [ 73.8759, 23.3616 ], [ 73.8812, 23.3582 ], [ 73.8872, 23.3573 ], [ 73.8898, 23.3509 ], [ 73.8913, 23.3505 ], [ 73.8908, 23.3489 ], [ 73.8928, 23.3478 ], [ 73.8896, 23.3364 ], [ 73.8919, 23.3341 ], [ 73.8939, 23.3338 ], [ 73.9009, 23.336 ], [ 73.9082, 23.3349 ], [ 73.9163, 23.3352 ], [ 73.9287, 23.3373 ], [ 73.9357, 23.3397 ], [ 73.9394, 23.3444 ], [ 73.937, 23.3606 ], [ 73.938, 23.3679 ], [ 73.9523, 23.3752 ], [ 73.9575, 23.3795 ], [ 73.9599, 23.3777 ], [ 73.9614, 23.3727 ], [ 73.9679, 23.3748 ], [ 73.9711, 23.3743 ], [ 73.9755, 23.3715 ], [ 73.9771, 23.3648 ], [ 73.9804, 23.3624 ], [ 73.9792, 23.359 ], [ 73.9801, 23.3574 ], [ 73.9794, 23.3556 ], [ 73.9805, 23.3537 ], [ 73.9814, 23.3381 ], [ 73.9876, 23.3358 ], [ 73.9978, 23.3357 ], [ 73.9962, 23.3289 ], [ 73.9936, 23.3271 ], [ 73.9923, 23.3239 ], [ 73.9877, 23.3197 ], [ 73.9847, 23.3101 ], [ 73.9861, 23.3014 ], [ 73.99, 23.2984 ], [ 73.9902, 23.2965 ], [ 73.9948, 23.2942 ], [ 73.9955, 23.2923 ], [ 73.997, 23.2917 ], [ 73.9972, 23.2891 ], [ 73.9969, 23.2877 ], [ 73.9891, 23.2835 ], [ 73.9879, 23.2816 ], [ 73.9882, 23.2788 ], [ 73.9852, 23.2739 ], [ 73.9833, 23.2615 ], [ 73.9861, 23.2581 ], [ 73.987, 23.2586 ], [ 73.9894, 23.2569 ], [ 73.9916, 23.25 ], [ 73.9943, 23.2485 ], [ 73.9932, 23.2433 ], [ 73.9904, 23.2402 ], [ 73.9909, 23.231 ], [ 73.9927, 23.2279 ], [ 73.9895, 23.2222 ], [ 73.9898, 23.2209 ], [ 73.9854, 23.2185 ], [ 73.9721, 23.2231 ], [ 73.9702, 23.2251 ], [ 73.9647, 23.2248 ], [ 73.9663, 23.2232 ], [ 73.9651, 23.217 ], [ 73.9677, 23.2069 ], [ 73.97, 23.2064 ], [ 73.9754, 23.2083 ], [ 73.9795, 23.2079 ], [ 73.9814, 23.2089 ], [ 73.9821, 23.2116 ], [ 73.9857, 23.208 ], [ 73.9835, 23.2044 ], [ 73.9839, 23.2023 ], [ 73.98, 23.1999 ], [ 73.9806, 23.1932 ], [ 73.9817, 23.1924 ], [ 73.9838, 23.1928 ], [ 73.9836, 23.1911 ], [ 73.9729, 23.1888 ], [ 73.9752, 23.1847 ], [ 73.9723, 23.1831 ], [ 73.9719, 23.18 ], [ 73.9737, 23.1722 ], [ 73.9753, 23.173 ], [ 73.9798, 23.1666 ], [ 73.9854, 23.1658 ], [ 73.9904, 23.1602 ], [ 73.9922, 23.1604 ], [ 73.991, 23.1559 ], [ 73.9921, 23.1478 ], [ 73.9954, 23.1453 ], [ 73.9951, 23.1361 ], [ 73.9884, 23.1379 ], [ 73.9873, 23.1374 ], [ 73.9814, 23.1396 ], [ 73.9782, 23.1371 ], [ 73.9758, 23.1324 ], [ 73.9755, 23.1241 ], [ 73.9821, 23.1189 ], [ 73.9939, 23.1157 ], [ 73.9981, 23.1149 ], [ 74.0036, 23.1174 ], [ 74.0049, 23.1157 ], [ 74.0049, 23.1087 ], [ 74.0131, 23.1038 ], [ 74.0121, 23.102 ], [ 74.0195, 23.0935 ], [ 74.0191, 23.0918 ], [ 74.0173, 23.092 ], [ 74.0129, 23.0878 ], [ 74.0059, 23.0878 ], [ 74.0046, 23.0891 ], [ 74.003, 23.089 ], [ 74.0017, 23.0863 ], [ 73.9983, 23.0857 ], [ 73.996, 23.088 ], [ 73.9884, 23.0919 ], [ 73.9824, 23.0985 ], [ 73.9686, 23.1001 ], [ 73.9682, 23.1035 ], [ 73.9664, 23.104 ], [ 73.9667, 23.106 ], [ 73.965, 23.1083 ], [ 73.9657, 23.1084 ], [ 73.9637, 23.1106 ], [ 73.9646, 23.1112 ], [ 73.9625, 23.1114 ], [ 73.9621, 23.1128 ], [ 73.959, 23.114 ], [ 73.9534, 23.1087 ], [ 73.9461, 23.1107 ], [ 73.9451, 23.1013 ], [ 73.9422, 23.0983 ], [ 73.9343, 23.0966 ], [ 73.9304, 23.0973 ], [ 73.9286, 23.0935 ], [ 73.9177, 23.092 ], [ 73.9115, 23.0845 ], [ 73.9067, 23.0811 ], [ 73.9052, 23.0685 ], [ 73.9081, 23.0528 ], [ 73.9036, 23.0496 ], [ 73.9003, 23.0492 ], [ 73.8851, 23.0524 ], [ 73.8812, 23.0572 ], [ 73.8603, 23.0603 ], [ 73.8526, 23.0667 ], [ 73.8448, 23.0777 ], [ 73.8464, 23.0793 ], [ 73.842, 23.083 ], [ 73.8437, 23.085 ], [ 73.8424, 23.0869 ], [ 73.8299, 23.0928 ], [ 73.8221, 23.0995 ], [ 73.8172, 23.0997 ], [ 73.8138, 23.1012 ], [ 73.8148, 23.1039 ], [ 73.8095, 23.1091 ], [ 73.804, 23.1072 ], [ 73.8022, 23.0992 ], [ 73.7953, 23.0949 ], [ 73.791, 23.0891 ], [ 73.7792, 23.0836 ], [ 73.7738, 23.0756 ], [ 73.7676, 23.0729 ], [ 73.7603, 23.0729 ], [ 73.7579, 23.0751 ], [ 73.7526, 23.0737 ], [ 73.7512, 23.0719 ], [ 73.7447, 23.0693 ], [ 73.7458, 23.0642 ], [ 73.75, 23.0594 ], [ 73.767, 23.056 ], [ 73.7661, 23.0521 ], [ 73.7688, 23.0441 ], [ 73.7677, 23.0412 ], [ 73.7643, 23.0383 ], [ 73.7577, 23.0387 ], [ 73.7578, 23.0374 ], [ 73.7566, 23.0369 ], [ 73.7571, 23.0284 ], [ 73.7566, 23.0271 ], [ 73.7559, 23.0275 ], [ 73.7556, 23.0253 ], [ 73.7537, 23.0231 ], [ 73.7493, 23.0209 ], [ 73.7464, 23.0149 ], [ 73.7435, 23.0144 ], [ 73.7413, 23.0117 ], [ 73.7365, 23.0132 ], [ 73.7326, 23.0253 ], [ 73.7323, 23.0331 ], [ 73.7238, 23.0364 ], [ 73.7193, 23.0362 ], [ 73.7172, 23.0302 ], [ 73.7163, 23.0235 ], [ 73.7119, 23.0238 ], [ 73.7026, 23.0215 ], [ 73.6966, 23.0276 ], [ 73.6904, 23.0239 ], [ 73.6853, 23.0241 ], [ 73.6739, 23.0192 ], [ 73.6686, 23.0203 ], [ 73.6671, 23.0216 ], [ 73.6696, 23.0251 ], [ 73.6711, 23.0307 ], [ 73.6699, 23.0331 ], [ 73.6772, 23.035 ], [ 73.6792, 23.0375 ], [ 73.6846, 23.0377 ], [ 73.7158, 23.0532 ], [ 73.7166, 23.0539 ], [ 73.7103, 23.064 ], [ 73.7119, 23.0674 ], [ 73.7106, 23.0722 ], [ 73.7028, 23.0824 ], [ 73.6971, 23.0885 ], [ 73.6918, 23.0909 ], [ 73.6915, 23.0939 ], [ 73.682, 23.0922 ], [ 73.6816, 23.0963 ], [ 73.6777, 23.0985 ], [ 73.6734, 23.1043 ], [ 73.6703, 23.0985 ], [ 73.6668, 23.0961 ], [ 73.6641, 23.0959 ], [ 73.6586, 23.0779 ], [ 73.6551, 23.0745 ], [ 73.6519, 23.0649 ], [ 73.642, 23.0586 ], [ 73.6401, 23.0534 ], [ 73.6353, 23.05 ], [ 73.6344, 23.0457 ], [ 73.6288, 23.0398 ], [ 73.6296, 23.0304 ], [ 73.6318, 23.0263 ], [ 73.6357, 23.0257 ], [ 73.641, 23.0203 ], [ 73.65, 23.0197 ], [ 73.6561, 23.0217 ], [ 73.6563, 23.0203 ], [ 73.6507, 23.0167 ], [ 73.6432, 23.0151 ], [ 73.6363, 23.0175 ], [ 73.6358, 23.0135 ], [ 73.6315, 23.0117 ], [ 73.6194, 23.0246 ], [ 73.6183, 23.0172 ], [ 73.613, 23.0148 ], [ 73.6091, 23.0095 ], [ 73.6082, 23.0065 ], [ 73.6024, 23.0027 ], [ 73.5981, 22.9971 ], [ 73.5942, 22.9951 ], [ 73.5947, 22.9922 ], [ 73.5874, 22.9913 ], [ 73.5843, 22.9872 ], [ 73.5621, 22.9855 ], [ 73.5525, 22.9889 ], [ 73.5401, 22.9911 ], [ 73.5353, 22.9938 ], [ 73.5331, 22.9879 ], [ 73.5313, 22.9882 ], [ 73.5284, 22.9859 ], [ 73.5258, 22.987 ], [ 73.5245, 22.9862 ], [ 73.5241, 22.9812 ], [ 73.5206, 22.9822 ], [ 73.5176, 22.986 ], [ 73.5146, 22.9835 ], [ 73.5096, 22.9834 ], [ 73.5083, 22.9882 ], [ 73.5052, 22.9893 ], [ 73.5047, 22.988 ], [ 73.5027, 22.9881 ], [ 73.503, 22.9948 ], [ 73.4952, 22.9952 ], [ 73.4895, 22.9937 ], [ 73.485, 22.9943 ], [ 73.4812, 22.9861 ], [ 73.476, 22.9828 ], [ 73.4783, 22.987 ], [ 73.473, 22.9883 ], [ 73.4716, 22.9939 ], [ 73.4714, 23.0007 ], [ 73.4558, 23.0029 ], [ 73.4523, 23.0144 ], [ 73.4479, 23.0161 ], [ 73.4498, 23.0226 ], [ 73.4445, 23.0318 ], [ 73.4369, 23.0327 ], [ 73.4348, 23.0251 ], [ 73.4344, 23.0083 ], [ 73.4366, 22.997 ] ], [ [ 73.5799, 23.2701 ], [ 73.5802, 23.2703 ], [ 73.5807, 23.2709 ], [ 73.5807, 23.271 ], [ 73.5799, 23.2701 ] ], [ [ 73.5885, 23.2618 ], [ 73.5887, 23.2618 ], [ 73.5876, 23.2627 ], [ 73.5885, 23.2618 ] ], [ [ 73.5805, 23.2454 ], [ 73.5808, 23.2453 ], [ 73.5808, 23.2454 ], [ 73.5805, 23.2454 ] ], [ [ 73.5496, 23.2367 ], [ 73.5477, 23.2331 ], [ 73.5501, 23.2362 ], [ 73.5496, 23.2367 ] ], [ [ 73.6976, 23.2654 ], [ 73.69, 23.2586 ], [ 73.6845, 23.2519 ], [ 73.6976, 23.2654 ] ], [ [ 73.6986, 23.2665 ], [ 73.7095, 23.2615 ], [ 73.6981, 23.2669 ], [ 73.6984, 23.2662 ], [ 73.6986, 23.2665 ] ], [ [ 73.7362, 23.2667 ], [ 73.7361, 23.267 ], [ 73.7331, 23.2651 ], [ 73.7362, 23.2667 ] ], [ [ 73.745, 23.256 ], [ 73.745, 23.2562 ], [ 73.7437, 23.2586 ], [ 73.745, 23.256 ] ], [ [ 73.7457, 23.2491 ], [ 73.7463, 23.2526 ], [ 73.7455, 23.2546 ], [ 73.7457, 23.2491 ] ], [ [ 73.6887, 23.1089 ], [ 73.6919, 23.1087 ], [ 73.7, 23.1096 ], [ 73.6887, 23.1089 ] ], [ [ 73.682, 23.1085 ], [ 73.6817, 23.1082 ], [ 73.6825, 23.1085 ], [ 73.682, 23.1085 ] ], [ [ 73.6736, 23.1046 ], [ 73.6735, 23.1044 ], [ 73.6791, 23.106 ], [ 73.6736, 23.1046 ] ], [ [ 73.3682, 23.1154 ], [ 73.3697, 23.112 ], [ 73.3747, 23.1053 ], [ 73.3682, 23.1154 ] ], [ [ 73.3836, 23.1019 ], [ 73.3759, 23.1036 ], [ 73.3761, 23.1034 ], [ 73.3836, 23.1019 ] ], [ [ 73.3972, 23.1013 ], [ 73.3845, 23.1017 ], [ 73.3846, 23.1017 ], [ 73.3972, 23.1013 ] ], [ [ 73.3753, 23.1177 ], [ 73.3831, 23.135 ], [ 73.3827, 23.1347 ], [ 73.3753, 23.1177 ] ], [ [ 73.3878, 23.1385 ], [ 73.3906, 23.1404 ], [ 73.3901, 23.1401 ], [ 73.3878, 23.1385 ] ], [ [ 73.4054, 23.1471 ], [ 73.4104, 23.1461 ], [ 73.4107, 23.1462 ], [ 73.4054, 23.1471 ] ], [ [ 73.411, 23.1464 ], [ 73.4137, 23.1476 ], [ 73.4205, 23.153 ], [ 73.411, 23.1464 ] ], [ [ 73.4217, 23.1538 ], [ 73.4266, 23.1561 ], [ 73.4235, 23.1551 ], [ 73.4217, 23.1538 ] ], [ [ 73.5184, 23.1666 ], [ 73.5194, 23.1708 ], [ 73.5183, 23.1669 ], [ 73.5184, 23.1666 ] ], [ [ 73.5352, 23.1813 ], [ 73.5355, 23.1814 ], [ 73.5325, 23.1823 ], [ 73.5352, 23.1813 ] ], [ [ 73.5318, 23.1875 ], [ 73.5399, 23.1896 ], [ 73.5318, 23.1877 ], [ 73.5318, 23.1875 ] ], [ [ 73.837, 23.2044 ], [ 73.839, 23.2072 ], [ 73.8368, 23.2044 ], [ 73.837, 23.2044 ] ], [ [ 73.8342, 23.2062 ], [ 73.835, 23.2053 ], [ 73.8343, 23.2062 ], [ 73.8342, 23.2062 ] ], [ [ 73.852, 23.3069 ], [ 73.8517, 23.3061 ], [ 73.8525, 23.3072 ], [ 73.852, 23.3069 ] ], [ [ 73.8563, 23.3123 ], [ 73.8553, 23.3114 ], [ 73.8575, 23.3123 ], [ 73.8563, 23.3123 ] ], [ [ 73.6997, 23.2707 ], [ 73.6973, 23.2685 ], [ 73.6977, 23.2678 ], [ 73.6997, 23.2707 ] ], [ [ 73.7048, 23.2745 ], [ 73.7064, 23.2769 ], [ 73.7022, 23.273 ], [ 73.7048, 23.2745 ] ], [ [ 73.7091, 23.2785 ], [ 73.7102, 23.2804 ], [ 73.7078, 23.2781 ], [ 73.7091, 23.2785 ] ], [ [ 73.6997, 23.3143 ], [ 73.7008, 23.3109 ], [ 73.702, 23.3099 ], [ 73.6997, 23.3143 ] ], [ [ 73.6882, 23.3336 ], [ 73.6881, 23.333 ], [ 73.6884, 23.3323 ], [ 73.6882, 23.3336 ] ], [ [ 73.6912, 23.3362 ], [ 73.6886, 23.3349 ], [ 73.6884, 23.3343 ], [ 73.6912, 23.3362 ] ], [ [ 73.7026, 23.3732 ], [ 73.6984, 23.3759 ], [ 73.7029, 23.3727 ], [ 73.7026, 23.3732 ] ], [ [ 73.7206, 23.4011 ], [ 73.7213, 23.4014 ], [ 73.7165, 23.402 ], [ 73.7206, 23.4011 ] ], [ [ 73.7235, 23.4025 ], [ 73.7245, 23.404 ], [ 73.7227, 23.4021 ], [ 73.7235, 23.4025 ] ] ], [ [ [ 73.4349, 23.288 ], [ 73.4355, 23.2826 ], [ 73.4243, 23.2785 ], [ 73.4226, 23.2845 ], [ 73.4349, 23.288 ] ] ] ] } }
]
}
